{
"type": "FeatureCollection",
"name": "地下水観測井",
"crs": { "type": "name", "properties": { "name": "urn:ogc:def:crs:OGC:1.3:CRS84" } },
"features": [
{ "type": "Feature", "properties": { "観測の種類": "地下水観測井", "name": "つくば", "観測点名ローマ字": "Tsukuba", "観測点コード": "TKB", "緯度（度）": 36.0637, "経度（度）": 140.1318, "高さ（ｍ）": 25, "測器の深度（ｍ）": "45，82，233，567", "維持管理機関名": "産業技術総合研究所/地質調査総合センター", "維持管理機関名（英語）": "GSJ", "観測開始年（西暦）": 1980, "同月": "2", "観測機器名または観測項目": "地下水" }, "geometry": { "type": "Point", "coordinates": [ 140.1318, 36.0637 ] } },
{ "type": "Feature", "properties": { "観測の種類": "地下水観測井", "name": "大室山北", "観測点名ローマ字": "Omuroyama-kita", "観測点コード": "OMR", "緯度（度）": 34.9174, "経度（度）": 139.0892, "高さ（ｍ）": 242, "測器の深度（ｍ）": "130", "維持管理機関名": "産業技術総合研究所/地質調査総合センター", "維持管理機関名（英語）": "GSJ", "観測開始年（西暦）": 1994, "同月": "NULL", "観測機器名または観測項目": "地下水" }, "geometry": { "type": "Point", "coordinates": [ 139.0892, 34.9174 ] } },
{ "type": "Feature", "properties": { "観測の種類": "地下水観測井", "name": "冷川南", "観測点名ローマ字": "Hiekawa-minami", "観測点コード": "HKW", "緯度（度）": 34.9135, "経度（度）": 139.0501, "高さ（ｍ）": 389, "測器の深度（ｍ）": "130", "維持管理機関名": "産業技術総合研究所/地質調査総合センター", "維持管理機関名（英語）": "GSJ", "観測開始年（西暦）": 1994, "同月": "NULL", "観測機器名または観測項目": "地下水" }, "geometry": { "type": "Point", "coordinates": [ 139.0501, 34.9135 ] } },
{ "type": "Feature", "properties": { "観測の種類": "地下水観測井", "name": "草薙(静岡栗原)", "観測点名ローマ字": "Kusanagi（Shizuoka-Kurihara)", "観測点コード": "KNG", "緯度（度）": 34.9914, "経度（度）": 138.4324, "高さ（ｍ）": 21, "測器の深度（ｍ）": "9,224,309", "維持管理機関名": "産業技術総合研究所/地質調査総合センター", "維持管理機関名（英語）": "GSJ", "観測開始年（西暦）": 1994, "同月": "10", "観測機器名または観測項目": "地下水" }, "geometry": { "type": "Point", "coordinates": [ 138.4324, 34.9914 ] } },
{ "type": "Feature", "properties": { "観測の種類": "地下水観測井", "name": "御前崎", "観測点名ローマ字": "Omaezaki", "観測点コード": "OMZ", "緯度（度）": 34.6141, "経度（度）": 138.2105, "高さ（ｍ）": 4, "測器の深度（ｍ）": "104", "維持管理機関名": "産業技術総合研究所/地質調査総合センター", "維持管理機関名（英語）": "GSJ", "観測開始年（西暦）": 1983, "同月": "3", "観測機器名または観測項目": "地下水" }, "geometry": { "type": "Point", "coordinates": [ 138.2105, 34.6141 ] } },
{ "type": "Feature", "properties": { "観測の種類": "地下水観測井", "name": "榛原", "観測点名ローマ字": "Haibara", "観測点コード": "HAI", "緯度（度）": 34.7936, "経度（度）": 138.1863, "高さ（ｍ）": 86, "測器の深度（ｍ）": "97", "維持管理機関名": "産業技術総合研究所/地質調査総合センター", "維持管理機関名（英語）": "GSJ", "観測開始年（西暦）": 1979, "同月": "2", "観測機器名または観測項目": "地下水" }, "geometry": { "type": "Point", "coordinates": [ 138.1863, 34.7936 ] } },
{ "type": "Feature", "properties": { "観測の種類": "地下水観測井", "name": "浜岡", "観測点名ローマ字": "Hamaoka", "観測点コード": "HMO", "緯度（度）": 34.6341, "経度（度）": 138.1561, "高さ（ｍ）": 36, "測器の深度（ｍ）": "154", "維持管理機関名": "産業技術総合研究所/地質調査総合センター", "維持管理機関名（英語）": "GSJ", "観測開始年（西暦）": 1979, "同月": "3", "観測機器名または観測項目": "地下水" }, "geometry": { "type": "Point", "coordinates": [ 138.1561, 34.6341 ] } },
{ "type": "Feature", "properties": { "観測の種類": "地下水観測井", "name": "小笠", "観測点名ローマ字": "Ogasa", "観測点コード": "OGS", "緯度（度）": 34.6993, "経度（度）": 138.0823, "高さ（ｍ）": 7, "測器の深度（ｍ）": "128", "維持管理機関名": "産業技術総合研究所/地質調査総合センター", "維持管理機関名（英語）": "GSJ", "観測開始年（西暦）": 1994, "同月": "8", "観測機器名または観測項目": "地下水" }, "geometry": { "type": "Point", "coordinates": [ 138.0823, 34.6993 ] } },
{ "type": "Feature", "properties": { "観測の種類": "地下水観測井", "name": "大東", "観測点名ローマ字": "Daito", "観測点コード": "DIT", "緯度（度）": 34.6665, "経度（度）": 138.0558, "高さ（ｍ）": 5, "測器の深度（ｍ）": "145", "維持管理機関名": "産業技術総合研究所/地質調査総合センター", "維持管理機関名（英語）": "GSJ", "観測開始年（西暦）": 1978, "同月": "7", "観測機器名または観測項目": "地下水" }, "geometry": { "type": "Point", "coordinates": [ 138.0558, 34.6665 ] } },
{ "type": "Feature", "properties": { "観測の種類": "地下水観測井", "name": "掛川地盤変動", "観測点名ローマ字": "Kakegawa-jibanhendou", "観測点コード": "KKZ", "緯度（度）": 34.774, "経度（度）": 138.0129, "高さ（ｍ）": 26, "測器の深度（ｍ）": "15，95", "維持管理機関名": "産業技術総合研究所/地質調査総合センター", "維持管理機関名（英語）": "GSJ", "観測開始年（西暦）": 1990, "同月": "10", "観測機器名または観測項目": "地下水" }, "geometry": { "type": "Point", "coordinates": [ 138.0129, 34.774 ] } },
{ "type": "Feature", "properties": { "観測の種類": "地下水観測井", "name": "王滝", "観測点名ローマ字": "Ohtaki", "観測点コード": "GOT", "緯度（度）": 35.8279, "経度（度）": 137.5505, "高さ（ｍ）": 1041, "測器の深度（ｍ）": "645", "維持管理機関名": "産業技術総合研究所/地質調査総合センター", "維持管理機関名（英語）": "GSJ", "観測開始年（西暦）": 1998, "同月": "6", "観測機器名または観測項目": "地下水" }, "geometry": { "type": "Point", "coordinates": [ 137.5505, 35.8279 ] } },
{ "type": "Feature", "properties": { "観測の種類": "地下水観測井", "name": "豊橋東(豊橋多米)", "観測点名ローマ字": "Toyohashi-higashi(Toyohashi-Tame)", "観測点コード": "TYE", "緯度（度）": 34.7659, "経度（度）": 137.4695, "高さ（ｍ）": 93, "測器の深度（ｍ）": "186", "維持管理機関名": "産業技術総合研究所/地質調査総合センター", "維持管理機関名（英語）": "GSJ", "観測開始年（西暦）": 2004, "同月": "9", "観測機器名または観測項目": "地下水" }, "geometry": { "type": "Point", "coordinates": [ 137.4695, 34.7659 ] } },
{ "type": "Feature", "properties": { "観測の種類": "地下水観測井", "name": "豊橋", "観測点名ローマ字": "Toyohashi", "観測点コード": "TYH", "緯度（度）": 34.7643, "経度（度）": 137.4668, "高さ（ｍ）": 77, "測器の深度（ｍ）": "134,179", "維持管理機関名": "産業技術総合研究所/地質調査総合センター", "維持管理機関名（英語）": "GSJ", "観測開始年（西暦）": 1998, "同月": "NULL", "観測機器名または観測項目": "地下水" }, "geometry": { "type": "Point", "coordinates": [ 137.4668, 34.7643 ] } },
{ "type": "Feature", "properties": { "観測の種類": "地下水観測井", "name": "豊田下山(豊田神殿)", "観測点名ローマ字": "Toyota-shimoyama(Toyota-Kandono)", "観測点コード": "TYS", "緯度（度）": 35.0405, "経度（度）": 137.3578, "高さ（ｍ）": 480, "測器の深度（ｍ）": "27,149,405", "維持管理機関名": "産業技術総合研究所/地質調査総合センター", "維持管理機関名（英語）": "GSJ", "観測開始年（西暦）": 2008, "同月": "NULL", "観測機器名または観測項目": "地下水" }, "geometry": { "type": "Point", "coordinates": [ 137.3578, 35.0405 ] } },
{ "type": "Feature", "properties": { "観測の種類": "地下水観測井", "name": "宮川", "観測点名ローマ字": "Miyagawa", "観測点コード": "SGR", "緯度（度）": 36.3513, "経度（度）": 137.1816, "高さ（ｍ）": 386, "測器の深度（ｍ）": "257", "維持管理機関名": "産業技術総合研究所/地質調査総合センター", "維持管理機関名（英語）": "GSJ", "観測開始年（西暦）": 1998, "同月": "6", "観測機器名または観測項目": "地下水" }, "geometry": { "type": "Point", "coordinates": [ 137.1816, 36.3513 ] } },
{ "type": "Feature", "properties": { "観測の種類": "地下水観測井", "name": "西尾善明", "観測点名ローマ字": "Nisho-zenmyo", "観測点コード": "NSZ", "緯度（度）": 34.8442, "経度（度）": 137.1057, "高さ（ｍ）": 39, "測器の深度（ｍ）": "26,149,398", "維持管理機関名": "産業技術総合研究所/地質調査総合センター", "維持管理機関名（英語）": "GSJ", "観測開始年（西暦）": 2013, "同月": "6", "観測機器名または観測項目": "地下水" }, "geometry": { "type": "Point", "coordinates": [ 137.1057, 34.8442 ] } },
{ "type": "Feature", "properties": { "観測の種類": "地下水観測井", "name": "北勢", "観測点名ローマ字": "Hokusei", "観測点コード": "HKS", "緯度（度）": 35.1252, "経度（度）": 136.504, "高さ（ｍ）": 116, "測器の深度（ｍ）": "100,429", "維持管理機関名": "産業技術総合研究所/地質調査総合センター", "維持管理機関名（英語）": "GSJ", "観測開始年（西暦）": 1998, "同月": "NULL", "観測機器名または観測項目": "地下水" }, "geometry": { "type": "Point", "coordinates": [ 136.504, 35.1252 ] } },
{ "type": "Feature", "properties": { "観測の種類": "地下水観測井", "name": "安濃(津安濃)", "観測点名ローマ字": "Anou(Tsu-Anou)", "観測点コード": "ANO", "緯度（度）": 34.787, "経度（度）": 136.4019, "高さ（ｍ）": 163, "測器の深度（ｍ）": "12,198,503", "維持管理機関名": "産業技術総合研究所/地質調査総合センター", "維持管理機関名（英語）": "GSJ", "観測開始年（西暦）": 2010, "同月": "2", "観測機器名または観測項目": "地下水" }, "geometry": { "type": "Point", "coordinates": [ 136.4019, 34.787 ] } },
{ "type": "Feature", "properties": { "観測の種類": "地下水観測井", "name": "飯高赤桶(松阪飯高)", "観測点名ローマ字": "Iitaka-akou(Matsusaka-Iitaka)", "観測点コード": "ITA", "緯度（度）": 34.453, "経度（度）": 136.3129, "高さ（ｍ）": 296, "測器の深度（ｍ）": "11,146,548", "維持管理機関名": "産業技術総合研究所/地質調査総合センター", "維持管理機関名（英語）": "GSJ", "観測開始年（西暦）": 2008, "同月": "NULL", "観測機器名または観測項目": "地下水" }, "geometry": { "type": "Point", "coordinates": [ 136.3129, 34.453 ] } },
{ "type": "Feature", "properties": { "観測の種類": "地下水観測井", "name": "秦荘(愛荘香之庄)", "観測点名ローマ字": "Hatasho(Aishou-Konoshou)", "観測点コード": "HTS", "緯度（度）": 35.1547, "経度（度）": 136.2528, "高さ（ｍ）": 127, "測器の深度（ｍ）": "338", "維持管理機関名": "産業技術総合研究所/地質調査総合センター", "維持管理機関名（英語）": "GSJ", "観測開始年（西暦）": 1996, "同月": "NULL", "観測機器名または観測項目": "地下水" }, "geometry": { "type": "Point", "coordinates": [ 136.2528, 35.1547 ] } },
{ "type": "Feature", "properties": { "観測の種類": "地下水観測井", "name": "海山(紀北海山)", "観測点名ローマ字": "Miyama(Kihoku-Miyama)", "観測点コード": "MYM", "緯度（度）": 34.1123, "経度（度）": 136.1815, "高さ（ｍ）": 29, "測器の深度（ｍ）": "20,140,419", "維持管理機関名": "産業技術総合研究所/地質調査総合センター", "維持管理機関名（英語）": "GSJ", "観測開始年（西暦）": 2008, "同月": "NULL", "観測機器名または観測項目": "地下水" }, "geometry": { "type": "Point", "coordinates": [ 136.1815, 34.1123 ] } },
{ "type": "Feature", "properties": { "観測の種類": "地下水観測井", "name": "井内浦(熊野磯崎)", "観測点名ローマ字": "Ichiura(Kumano-Isozaki)", "観測点コード": "ICU", "緯度（度）": 33.9001, "経度（度）": 136.1379, "高さ（ｍ）": 28, "測器の深度（ｍ）": "13， 96， 522", "維持管理機関名": "産業技術総合研究所/地質調査総合センター", "維持管理機関名（英語）": "GSJ", "観測開始年（西暦）": 2007, "同月": "5", "観測機器名または観測項目": "地下水" }, "geometry": { "type": "Point", "coordinates": [ 136.1379, 33.9001 ] } },
{ "type": "Feature", "properties": { "観測の種類": "地下水観測井", "name": "花折", "観測点名ローマ字": "Hanaore", "観測点コード": "HNO", "緯度（度）": 35.1897, "経度（度）": 135.8542, "高さ（ｍ）": 476, "測器の深度（ｍ）": "235", "維持管理機関名": "産業技術総合研究所/地質調査総合センター", "維持管理機関名（英語）": "GSJ", "観測開始年（西暦）": 1998, "同月": "NULL", "観測機器名または観測項目": "地下水" }, "geometry": { "type": "Point", "coordinates": [ 135.8542, 35.1897 ] } },
{ "type": "Feature", "properties": { "観測の種類": "地下水観測井", "name": "串本津荷", "観測点名ローマ字": "Kushimoto-tsuga", "観測点コード": "KST", "緯度（度）": 33.5201, "経度（度）": 135.8363, "高さ（ｍ）": 25, "測器の深度（ｍ）": "20,133,509", "維持管理機関名": "産業技術総合研究所/地質調査総合センター", "維持管理機関名（英語）": "GSJ", "観測開始年（西暦）": 2008, "同月": "NULL", "観測機器名または観測項目": "地下水" }, "geometry": { "type": "Point", "coordinates": [ 135.8363, 33.5201 ] } },
{ "type": "Feature", "properties": { "観測の種類": "地下水観測井", "name": "大原", "観測点名ローマ字": "Ohara", "観測点コード": "OHR", "緯度（度）": 35.1104, "経度（度）": 135.8193, "高さ（ｍ）": 218, "測器の深度（ｍ）": "256", "維持管理機関名": "産業技術総合研究所/地質調査総合センター", "維持管理機関名（英語）": "GSJ", "観測開始年（西暦）": 1998, "同月": "NULL", "観測機器名または観測項目": "地下水" }, "geometry": { "type": "Point", "coordinates": [ 135.8193, 35.1104 ] } },
{ "type": "Feature", "properties": { "観測の種類": "地下水観測井", "name": "広陵", "観測点名ローマ字": "Kouryou", "観測点コード": "KRY", "緯度（度）": 34.5752, "経度（度）": 135.7479, "高さ（ｍ）": 45, "測器の深度（ｍ）": "413", "維持管理機関名": "産業技術総合研究所/地質調査総合センター", "維持管理機関名（英語）": "GSJ", "観測開始年（西暦）": 1996, "同月": "NULL", "観測機器名または観測項目": "地下水" }, "geometry": { "type": "Point", "coordinates": [ 135.7479, 34.5752 ] } },
{ "type": "Feature", "properties": { "観測の種類": "地下水観測井", "name": "本宮三越(田辺本宮)", "観測点名ローマ字": "Hongu-mikoshi(Tanabe-Hongu)", "観測点コード": "HGM", "緯度（度）": 33.8675, "経度（度）": 135.7318, "高さ（ｍ）": 120, "測器の深度（ｍ）": "24,181,320", "維持管理機関名": "産業技術総合研究所/地質調査総合センター", "維持管理機関名（英語）": "GSJ", "観測開始年（西暦）": 2007, "同月": "6", "観測機器名または観測項目": "地下水" }, "geometry": { "type": "Point", "coordinates": [ 135.7318, 33.8675 ] } },
{ "type": "Feature", "properties": { "観測の種類": "地下水観測井", "name": "五條", "観測点名ローマ字": "Gojo", "観測点コード": "GOJ", "緯度（度）": 34.3898, "経度（度）": 135.704, "高さ（ｍ）": 236, "測器の深度（ｍ）": "313", "維持管理機関名": "産業技術総合研究所/地質調査総合センター", "維持管理機関名（英語）": "GSJ", "観測開始年（西暦）": 1998, "同月": "NULL", "観測機器名または観測項目": "地下水" }, "geometry": { "type": "Point", "coordinates": [ 135.704, 34.3898 ] } },
{ "type": "Feature", "properties": { "観測の種類": "地下水観測井", "name": "天王寺", "観測点名ローマ字": "Ten'nouji", "観測点コード": "TNN", "緯度（度）": 34.6591, "経度（度）": 135.5118, "高さ（ｍ）": 15, "測器の深度（ｍ）": "448", "維持管理機関名": "産業技術総合研究所/地質調査総合センター", "維持管理機関名（英語）": "GSJ", "観測開始年（西暦）": 1996, "同月": "NULL", "観測機器名または観測項目": "地下水" }, "geometry": { "type": "Point", "coordinates": [ 135.5118, 34.6591 ] } },
{ "type": "Feature", "properties": { "観測の種類": "地下水観測井", "name": "宝塚", "観測点名ローマ字": "Takarazuka", "観測点コード": "TKZ", "緯度（度）": 34.8209, "経度（度）": 135.333, "高さ（ｍ）": 82, "測器の深度（ｍ）": "188", "維持管理機関名": "産業技術総合研究所/地質調査総合センター", "維持管理機関名（英語）": "GSJ", "観測開始年（西暦）": 1996, "同月": "6", "観測機器名または観測項目": "地下水" }, "geometry": { "type": "Point", "coordinates": [ 135.333, 34.8209 ] } },
{ "type": "Feature", "properties": { "観測の種類": "地下水観測井", "name": "根来(岩出東坂本)", "観測点名ローマ字": "Negoro(Iwade-Higasisakamoto)", "観測点コード": "NGR", "緯度（度）": 34.2823, "経度（度）": 135.3291, "高さ（ｍ）": 105, "測器の深度（ｍ）": "409", "維持管理機関名": "産業技術総合研究所/地質調査総合センター", "維持管理機関名（英語）": "GSJ", "観測開始年（西暦）": 1996, "同月": "NULL", "観測機器名または観測項目": "地下水" }, "geometry": { "type": "Point", "coordinates": [ 135.3291, 34.2823 ] } },
{ "type": "Feature", "properties": { "観測の種類": "地下水観測井", "name": "日高川和佐", "観測点名ローマ字": "Hidakagawa-Wasa", "観測点コード": "HDW", "緯度（度）": 33.8862, "経度（度）": 135.1988, "高さ（ｍ）": 54, "測器の深度（ｍ）": "16,156,378", "維持管理機関名": "産業技術総合研究所/地質調査総合センター", "維持管理機関名（英語）": "GSJ", "観測開始年（西暦）": 2022, "同月": "4", "観測機器名または観測項目": "地下水" }, "geometry": { "type": "Point", "coordinates": [ 135.1988, 33.8862 ] } },
{ "type": "Feature", "properties": { "観測の種類": "地下水観測井", "name": "平林", "観測点名ローマ字": "Hirabayashi", "観測点コード": "HRB", "緯度（度）": 34.5832, "経度（度）": 134.9686, "高さ（ｍ）": 39, "測器の深度（ｍ）": "630", "維持管理機関名": "産業技術総合研究所/地質調査総合センター", "維持管理機関名（英語）": "GSJ", "観測開始年（西暦）": 1996, "同月": "6", "観測機器名または観測項目": "地下水" }, "geometry": { "type": "Point", "coordinates": [ 134.9686, 34.5832 ] } },
{ "type": "Feature", "properties": { "観測の種類": "地下水観測井", "name": "西淡", "観測点名ローマ字": "Seidan", "観測点コード": "SED", "緯度（度）": 34.3205, "経度（度）": 134.745, "高さ（ｍ）": 3, "測器の深度（ｍ）": "210", "維持管理機関名": "産業技術総合研究所/地質調査総合センター", "維持管理機関名（英語）": "GSJ", "観測開始年（西暦）": 1996, "同月": "NULL", "観測機器名または観測項目": "地下水" }, "geometry": { "type": "Point", "coordinates": [ 134.745, 34.3205 ] } },
{ "type": "Feature", "properties": { "観測の種類": "地下水観測井", "name": "安富", "観測点名ローマ字": "Yasutomi", "観測点コード": "YST", "緯度（度）": 34.9854, "経度（度）": 134.6081, "高さ（ｍ）": 126, "測器の深度（ｍ）": "144,144,254", "維持管理機関名": "産業技術総合研究所/地質調査総合センター", "維持管理機関名（英語）": "GSJ", "観測開始年（西暦）": 1998, "同月": "NULL", "観測機器名または観測項目": "地下水" }, "geometry": { "type": "Point", "coordinates": [ 134.6081, 34.9854 ] } },
{ "type": "Feature", "properties": { "観測の種類": "地下水観測井", "name": "阿南桑野", "観測点名ローマ字": "Anan-kuwano", "観測点コード": "ANK", "緯度（度）": 33.8658, "経度（度）": 134.6049, "高さ（ｍ）": 38, "測器の深度（ｍ）": "16，90，489", "維持管理機関名": "産業技術総合研究所/地質調査総合センター", "維持管理機関名（英語）": "GSJ", "観測開始年（西暦）": 2008, "同月": "NULL", "観測機器名または観測項目": "地下水" }, "geometry": { "type": "Point", "coordinates": [ 134.6049, 33.8658 ] } },
{ "type": "Feature", "properties": { "観測の種類": "地下水観測井", "name": "安富北", "観測点名ローマ字": "Yasutomi-kita", "観測点コード": "YSK", "緯度（度）": 35.0212, "経度（度）": 134.6041, "高さ（ｍ）": 150, "測器の深度（ｍ）": "132", "維持管理機関名": "産業技術総合研究所/地質調査総合センター", "維持管理機関名（英語）": "GSJ", "観測開始年（西暦）": 1998, "同月": "NULL", "観測機器名または観測項目": "地下水" }, "geometry": { "type": "Point", "coordinates": [ 134.6041, 35.0212 ] } },
{ "type": "Feature", "properties": { "観測の種類": "地下水観測井", "name": "板東(鳴門大麻)", "観測点名ローマ字": "Bando(Naruto-ooasa)", "観測点コード": "BND", "緯度（度）": 34.1445, "経度（度）": 134.514, "高さ（ｍ）": 3, "測器の深度（ｍ）": "420", "維持管理機関名": "産業技術総合研究所/地質調査総合センター", "維持管理機関名（英語）": "GSJ", "観測開始年（西暦）": 1996, "同月": "NULL", "観測機器名または観測項目": "地下水" }, "geometry": { "type": "Point", "coordinates": [ 134.514, 34.1445 ] } },
{ "type": "Feature", "properties": { "観測の種類": "地下水観測井", "name": "室戸(室戸岬)", "観測点名ローマ字": "Muroto(Murotomisaki)", "観測点コード": "MUR", "緯度（度）": 33.2856, "経度（度）": 134.1563, "高さ（ｍ）": 62, "測器の深度（ｍ）": "20,130,407", "維持管理機関名": "産業技術総合研究所/地質調査総合センター", "維持管理機関名（英語）": "GSJ", "観測開始年（西暦）": 2008, "同月": "NULL", "観測機器名または観測項目": "地下水" }, "geometry": { "type": "Point", "coordinates": [ 134.1563, 33.2856 ] } },
{ "type": "Feature", "properties": { "観測の種類": "地下水観測井", "name": "綾川千疋", "観測点名ローマ字": "Ayagawa-Sembiki", "観測点コード": "AYS", "緯度（度）": 34.2169, "経度（度）": 134.0047, "高さ（ｍ）": 150, "測器の深度（ｍ）": "14,125,274", "維持管理機関名": "産業技術総合研究所/地質調査総合センター", "維持管理機関名（英語）": "GSJ", "観測開始年（西暦）": 2023, "同月": "3", "観測機器名または観測項目": "地下水" }, "geometry": { "type": "Point", "coordinates": [ 134.0047, 34.2169 ] } },
{ "type": "Feature", "properties": { "観測の種類": "地下水観測井", "name": "高知市(高知五台山)", "観測点名ローマ字": "Kochi-city(Kouchi-Godaisan)", "観測点コード": "KOC", "緯度（度）": 33.5504, "経度（度）": 133.5991, "高さ（ｍ）": 5, "測器の深度（ｍ）": "21,169,486", "維持管理機関名": "産業技術総合研究所/地質調査総合センター", "維持管理機関名（英語）": "GSJ", "観測開始年（西暦）": 2008, "同月": "NULL", "観測機器名または観測項目": "地下水" }, "geometry": { "type": "Point", "coordinates": [ 133.5991, 33.5504 ] } },
{ "type": "Feature", "properties": { "観測の種類": "地下水観測井", "name": "新居浜黒島", "観測点名ローマ字": "Niihama-Kuroshima", "観測点コード": "NHK", "緯度（度）": 33.9904, "経度（度）": 133.3423, "高さ（ｍ）": 9, "測器の深度（ｍ）": "26，79，280", "維持管理機関名": "産業技術総合研究所/地質調査総合センター", "維持管理機関名（英語）": "GSJ", "観測開始年（西暦）": 2012, "同月": "2", "観測機器名または観測項目": "地下水" }, "geometry": { "type": "Point", "coordinates": [ 133.3423, 33.9904 ] } },
{ "type": "Feature", "properties": { "観測の種類": "地下水観測井", "name": "須崎(須崎大谷)", "観測点名ローマ字": "Susaki(Suzasi-Ootani)", "観測点コード": "SSK", "緯度（度）": 33.3896, "経度（度）": 133.3229, "高さ（ｍ）": 17, "測器の深度（ｍ）": "16，91，355", "維持管理機関名": "産業技術総合研究所/地質調査総合センター", "維持管理機関名（英語）": "GSJ", "観測開始年（西暦）": 2010, "同月": "1", "観測機器名または観測項目": "地下水" }, "geometry": { "type": "Point", "coordinates": [ 133.3229, 33.3896 ] } },
{ "type": "Feature", "properties": { "観測の種類": "地下水観測井", "name": "土佐清水(土佐清水松尾)", "観測点名ローマ字": "Tosa-shimizu(Tosashimizu-Matsuo)", "観測点コード": "TSS", "緯度（度）": 32.7357, "経度（度）": 132.9757, "高さ（ｍ）": 125, "測器の深度（ｍ）": "129,239,468", "維持管理機関名": "産業技術総合研究所/地質調査総合センター", "維持管理機関名（英語）": "GSJ", "観測開始年（西暦）": 2008, "同月": "NULL", "観測機器名または観測項目": "地下水" }, "geometry": { "type": "Point", "coordinates": [ 132.9757, 32.7357 ] } },
{ "type": "Feature", "properties": { "観測の種類": "地下水観測井", "name": "松山(松山南江戸)", "観測点名ローマ字": "Matsuyama(Matsuyama-Minamiedo)", "観測点コード": "MAT", "緯度（度）": 33.8424, "経度（度）": 132.7396, "高さ（ｍ）": 48, "測器の深度（ｍ）": "17,170,512", "維持管理機関名": "産業技術総合研究所/地質調査総合センター", "維持管理機関名（英語）": "GSJ", "観測開始年（西暦）": 2008, "同月": "NULL", "観測機器名または観測項目": "地下水" }, "geometry": { "type": "Point", "coordinates": [ 132.7396, 33.8424 ] } },
{ "type": "Feature", "properties": { "観測の種類": "地下水観測井", "name": "宇和(西予宇和)", "観測点名ローマ字": "Uwa(Seiyo-Uwa)", "観測点コード": "UWA", "緯度（度）": 33.3859, "経度（度）": 132.4823, "高さ（ｍ）": 214, "測器の深度（ｍ）": "14，69，446", "維持管理機関名": "産業技術総合研究所/地質調査総合センター", "維持管理機関名（英語）": "GSJ", "観測開始年（西暦）": 2008, "同月": "NULL", "観測機器名または観測項目": "地下水" }, "geometry": { "type": "Point", "coordinates": [ 132.4823, 33.3859 ] } },
{ "type": "Feature", "properties": { "観測の種類": "地下水観測井", "name": "佐伯蒲江", "観測点名ローマ字": "Saiki-Kamae", "観測点コード": "SIK", "緯度（度）": 32.7982, "経度（度）": 131.901, "高さ（ｍ）": 6, "測器の深度（ｍ）": "13， 145， 445", "維持管理機関名": "産業技術総合研究所/地質調査総合センター", "維持管理機関名（英語）": "GSJ", "観測開始年（西暦）": 2024, "同月": "3", "観測機器名または観測項目": "地下水" }, "geometry": { "type": "Point", "coordinates": [ 131.901, 32.7982 ] } }
]
}
