{
"type": "FeatureCollection",
"name": "地球電磁気観測施設",
"crs": { "type": "name", "properties": { "name": "urn:ogc:def:crs:OGC:1.3:CRS84" } },
"features": [
{ "type": "Feature", "properties": { "観測の種類": "地球電磁気", "name": "富士宮（篠坂）", "観測点名ローマ字": null, "観測点コード": "FJM(SHN)", "緯度（度）": 35.2744, "経度（度）": 138.6585, "高さ（ｍ）": 540, "測器の深度（ｍ）": null, "維持管理機関名": "東京大学地震研究所", "維持管理機関名（英語）": null, "観測開始年（西暦）": 1981, "同月": null, "観測機器名または観測項目": "M" }, "geometry": { "type": "Point", "coordinates": [ 138.6585, 35.2744 ] } },
{ "type": "Feature", "properties": { "観測の種類": "地球電磁気", "name": "俵峰", "観測点名ローマ字": null, "観測点コード": "TAW", "緯度（度）": 35.1174, "経度（度）": 138.3875, "高さ（ｍ）": 490, "測器の深度（ｍ）": null, "維持管理機関名": "東京大学地震研究所", "維持管理機関名（英語）": null, "観測開始年（西暦）": 1981, "同月": null, "観測機器名または観測項目": "M，E" }, "geometry": { "type": "Point", "coordinates": [ 138.3875, 35.1174 ] } },
{ "type": "Feature", "properties": { "観測の種類": "地球電磁気", "name": "春野", "観測点名ローマ字": null, "観測点コード": "HRN", "緯度（度）": 34.993, "経度（度）": 137.9378, "高さ（ｍ）": 420, "測器の深度（ｍ）": null, "維持管理機関名": "東京大学地震研究所", "維持管理機関名（英語）": null, "観測開始年（西暦）": 1983, "同月": null, "観測機器名または観測項目": "M" }, "geometry": { "type": "Point", "coordinates": [ 137.9378, 34.993 ] } },
{ "type": "Feature", "properties": { "観測の種類": "地球電磁気", "name": "相良", "観測点名ローマ字": null, "観測点コード": "SAG", "緯度（度）": 34.6308, "経度（度）": 138.1761, "高さ（ｍ）": 20, "測器の深度（ｍ）": null, "維持管理機関名": "東京大学地震研究所", "維持管理機関名（英語）": null, "観測開始年（西暦）": 1985, "同月": null, "観測機器名または観測項目": "M，E" }, "geometry": { "type": "Point", "coordinates": [ 138.1761, 34.6308 ] } },
{ "type": "Feature", "properties": { "観測の種類": "地球電磁気", "name": "舟ヶ久保", "観測点名ローマ字": null, "観測点コード": "FNK", "緯度（度）": 34.9956, "経度（度）": 138.1978, "高さ（ｍ）": 570, "測器の深度（ｍ）": null, "維持管理機関名": "東京大学地震研究所", "維持管理機関名（英語）": null, "観測開始年（西暦）": 2001, "同月": 11, "観測機器名または観測項目": "M" }, "geometry": { "type": "Point", "coordinates": [ 138.1978, 34.9956 ] } },
{ "type": "Feature", "properties": { "観測の種類": "地球電磁気", "name": "奥山", "観測点名ローマ字": null, "観測点コード": "OKY", "緯度（度）": 35.2296, "経度（度）": 138.4172, "高さ（ｍ）": 590, "測器の深度（ｍ）": null, "維持管理機関名": "東京大学地震研究所", "維持管理機関名（英語）": null, "観測開始年（西暦）": 2002, "同月": 2, "観測機器名または観測項目": "M" }, "geometry": { "type": "Point", "coordinates": [ 138.4172, 35.2296 ] } },
{ "type": "Feature", "properties": { "観測の種類": "地球電磁気", "name": "河津", "観測点名ローマ字": null, "観測点コード": "KWZ", "緯度（度）": 34.7858, "経度（度）": 138.9698, "高さ（ｍ）": 320, "測器の深度（ｍ）": null, "維持管理機関名": "東京大学地震研究所", "維持管理機関名（英語）": null, "観測開始年（西暦）": 1978, "同月": 1, "観測機器名または観測項目": "M" }, "geometry": { "type": "Point", "coordinates": [ 138.9698, 34.7858 ] } },
{ "type": "Feature", "properties": { "観測の種類": "地球電磁気", "name": "池", "観測点名ローマ字": null, "観測点コード": "IK2", "緯度（度）": 34.9, "経度（度）": 139.0829, "高さ（ｍ）": 240, "測器の深度（ｍ）": null, "維持管理機関名": "東京大学地震研究所", "維持管理機関名（英語）": null, "観測開始年（西暦）": 1984, "同月": null, "観測機器名または観測項目": "M" }, "geometry": { "type": "Point", "coordinates": [ 139.0829, 34.9 ] } },
{ "type": "Feature", "properties": { "観測の種類": "地球電磁気", "name": "八ケ岳", "観測点名ローマ字": null, "観測点コード": "YAT", "緯度（度）": 36.0732, "経度（度）": 138.441, "高さ（ｍ）": 1170, "測器の深度（ｍ）": null, "維持管理機関名": "東京大学地震研究所", "維持管理機関名（英語）": null, "観測開始年（西暦）": 1971, "同月": null, "観測機器名または観測項目": "M，E" }, "geometry": { "type": "Point", "coordinates": [ 138.441, 36.0732 ] } },
{ "type": "Feature", "properties": { "観測の種類": "地球電磁気", "name": "清川", "観測点名ローマ字": null, "観測点コード": "KKW", "緯度（度）": 35.4844, "経度（度）": 139.2715, "高さ（ｍ）": 170, "測器の深度（ｍ）": null, "維持管理機関名": "東京大学地震研究所", "維持管理機関名（英語）": null, "観測開始年（西暦）": 1992, "同月": null, "観測機器名または観測項目": "M" }, "geometry": { "type": "Point", "coordinates": [ 139.2715, 35.4844 ] } },
{ "type": "Feature", "properties": { "観測の種類": "地球電磁気", "name": "大崎", "観測点名ローマ字": null, "観測点コード": "OSK", "緯度（度）": 35.0077, "経度（度）": 139.0982, "高さ（ｍ）": 2, "測器の深度（ｍ）": null, "維持管理機関名": "東京大学地震研究所", "維持管理機関名（英語）": null, "観測開始年（西暦）": 1989, "同月": null, "観測機器名または観測項目": "M" }, "geometry": { "type": "Point", "coordinates": [ 139.0982, 35.0077 ] } },
{ "type": "Feature", "properties": { "観測の種類": "地球電磁気", "name": "与望島", "観測点名ローマ字": null, "観測点コード": "YOB", "緯度（度）": 34.9607, "経度（度）": 139.1283, "高さ（ｍ）": 20, "測器の深度（ｍ）": null, "維持管理機関名": "東京大学地震研究所", "維持管理機関名（英語）": null, "観測開始年（西暦）": 1993, "同月": null, "観測機器名または観測項目": "M" }, "geometry": { "type": "Point", "coordinates": [ 139.1283, 34.9607 ] } },
{ "type": "Feature", "properties": { "観測の種類": "地球電磁気", "name": "手石島", "観測点名ローマ字": null, "観測点コード": "TIS", "緯度（度）": 34.9758, "経度（度）": 139.1311, "高さ（ｍ）": 9, "測器の深度（ｍ）": null, "維持管理機関名": "東京大学地震研究所", "維持管理機関名（英語）": null, "観測開始年（西暦）": 1998, "同月": null, "観測機器名または観測項目": "M" }, "geometry": { "type": "Point", "coordinates": [ 139.1311, 34.9758 ] } },
{ "type": "Feature", "properties": { "観測の種類": "地球電磁気", "name": "川奈", "観測点名ローマ字": null, "観測点コード": "KWN", "緯度（度）": 34.9548, "経度（度）": 139.1422, "高さ（ｍ）": 2, "測器の深度（ｍ）": null, "維持管理機関名": "東京大学地震研究所", "維持管理機関名（英語）": null, "観測開始年（西暦）": 1994, "同月": 4, "観測機器名または観測項目": "M" }, "geometry": { "type": "Point", "coordinates": [ 139.1422, 34.9548 ] } },
{ "type": "Feature", "properties": { "観測の種類": "地球電磁気", "name": "新井", "観測点名ローマ字": null, "観測点コード": "ARA", "緯度（度）": 34.9709, "経度（度）": 139.1117, "高さ（ｍ）": 30, "測器の深度（ｍ）": null, "維持管理機関名": "東京大学地震研究所", "維持管理機関名（英語）": null, "観測開始年（西暦）": 1994, "同月": 4, "観測機器名または観測項目": "M" }, "geometry": { "type": "Point", "coordinates": [ 139.1117, 34.9709 ] } },
{ "type": "Feature", "properties": { "観測の種類": "地球電磁気", "name": "水沢測地観測所", "観測点名ローマ字": "Mizusawa", "観測点コード": "MIZ", "緯度（度）": 39.112, "経度（度）": 141.204, "高さ（ｍ）": 125, "測器の深度（ｍ）": null, "維持管理機関名": "国土地理院", "維持管理機関名（英語）": "GSI", "観測開始年（西暦）": 1970, "同月": 1, "観測機器名または観測項目": "地磁気" }, "geometry": { "type": "Point", "coordinates": [ 141.204, 39.112 ] } },
{ "type": "Feature", "properties": { "観測の種類": "地球電磁気", "name": "鹿野山測地観測所", "観測点名ローマ字": "Kanozan", "観測点コード": "KNZ", "緯度（度）": 35.256, "経度（度）": 139.956, "高さ（ｍ）": 342, "測器の深度（ｍ）": null, "維持管理機関名": "国土地理院", "維持管理機関名（英語）": "GSI", "観測開始年（西暦）": 1961, "同月": 1, "観測機器名または観測項目": "地磁気" }, "geometry": { "type": "Point", "coordinates": [ 139.956, 35.256 ] } },
{ "type": "Feature", "properties": { "観測の種類": "地球電磁気", "name": "（１）赤井川", "観測点名ローマ字": "Akaigawa", "観測点コード": "AKA", "緯度（度）": 43.072, "経度（度）": 140.815, "高さ（ｍ）": 140, "測器の深度（ｍ）": null, "維持管理機関名": "国土地理院", "維持管理機関名（英語）": "GSI", "観測開始年（西暦）": 1996, "同月": 6, "観測機器名または観測項目": "地磁気" }, "geometry": { "type": "Point", "coordinates": [ 140.815, 43.072 ] } },
{ "type": "Feature", "properties": { "観測の種類": "地球電磁気", "name": "（３）原町", "観測点名ローマ字": "Haramachi", "観測点コード": "HAR", "緯度（度）": 37.626, "経度（度）": 140.905, "高さ（ｍ）": 140, "測器の深度（ｍ）": null, "維持管理機関名": "国土地理院", "維持管理機関名（英語）": "GSI", "観測開始年（西暦）": 1996, "同月": 5, "観測機器名または観測項目": "地磁気" }, "geometry": { "type": "Point", "coordinates": [ 140.905, 37.626 ] } },
{ "type": "Feature", "properties": { "観測の種類": "地球電磁気", "name": "（４）志賀", "観測点名ローマ字": "Shika", "観測点コード": "SIK", "緯度（度）": 37.082, "経度（度）": 136.773, "高さ（ｍ）": 60, "測器の深度（ｍ）": null, "維持管理機関名": "国土地理院", "維持管理機関名（英語）": "GSI", "観測開始年（西暦）": 1997, "同月": 11, "観測機器名または観測項目": "地磁気" }, "geometry": { "type": "Point", "coordinates": [ 136.773, 37.082 ] } },
{ "type": "Feature", "properties": { "観測の種類": "地球電磁気", "name": "（６）萩原", "観測点名ローマ字": "Hagiwara", "観測点コード": "HAG", "緯度（度）": 35.985, "経度（度）": 137.185, "高さ（ｍ）": 700, "測器の深度（ｍ）": null, "維持管理機関名": "国土地理院", "維持管理機関名（英語）": "GSI", "観測開始年（西暦）": 1996, "同月": 7, "観測機器名または観測項目": "地磁気" }, "geometry": { "type": "Point", "coordinates": [ 137.185, 35.985 ] } },
{ "type": "Feature", "properties": { "観測の種類": "地球電磁気", "name": "（７）吉和", "観測点名ローマ字": "Yoshiwa", "観測点コード": "YOS", "緯度（度）": 34.475, "経度（度）": 132.177, "高さ（ｍ）": 900, "測器の深度（ｍ）": null, "維持管理機関名": "国土地理院", "維持管理機関名（英語）": "GSI", "観測開始年（西暦）": 1996, "同月": 9, "観測機器名または観測項目": "地磁気" }, "geometry": { "type": "Point", "coordinates": [ 132.177, 34.475 ] } },
{ "type": "Feature", "properties": { "観測の種類": "地球電磁気", "name": "（８）十津川", "観測点名ローマ字": "Totsugawa", "観測点コード": "TTK", "緯度（度）": 33.932, "経度（度）": 135.802, "高さ（ｍ）": 600, "測器の深度（ｍ）": null, "維持管理機関名": "国土地理院", "維持管理機関名（英語）": "GSI", "観測開始年（西暦）": 1996, "同月": 8, "観測機器名または観測項目": "地磁気" }, "geometry": { "type": "Point", "coordinates": [ 135.802, 33.932 ] } },
{ "type": "Feature", "properties": { "観測の種類": "地球電磁気", "name": "（９）室戸", "観測点名ローマ字": "Muroto", "観測点コード": "MUR", "緯度（度）": 33.318, "経度（度）": 134.122, "高さ（ｍ）": 280, "測器の深度（ｍ）": null, "維持管理機関名": "国土地理院", "維持管理機関名（英語）": "GSI", "観測開始年（西暦）": 1996, "同月": 8, "観測機器名または観測項目": "地磁気" }, "geometry": { "type": "Point", "coordinates": [ 134.122, 33.318 ] } },
{ "type": "Feature", "properties": { "観測の種類": "地球電磁気", "name": "（10）久住", "観測点名ローマ字": "Kuju", "観測点コード": "KUJ", "緯度（度）": 33.06, "経度（度）": 131.26, "高さ（ｍ）": 840, "測器の深度（ｍ）": null, "維持管理機関名": "国土地理院", "維持管理機関名（英語）": "GSI", "観測開始年（西暦）": 1996, "同月": 9, "観測機器名または観測項目": "地磁気" }, "geometry": { "type": "Point", "coordinates": [ 131.26, 33.06 ] } },
{ "type": "Feature", "properties": { "観測の種類": "地球電磁気", "name": "（11）沖縄", "観測点名ローマ字": "Okinawa", "観測点コード": "OKI", "緯度（度）": 26.63, "経度（度）": 128.127, "高さ（ｍ）": 140, "測器の深度（ｍ）": null, "維持管理機関名": "国土地理院", "維持管理機関名（英語）": "GSI", "観測開始年（西暦）": 1996, "同月": 12, "観測機器名または観測項目": "地磁気" }, "geometry": { "type": "Point", "coordinates": [ 128.127, 26.63 ] } },
{ "type": "Feature", "properties": { "観測の種類": "地球電磁気", "name": "（12）稚内", "観測点名ローマ字": "Wakkanai", "観測点コード": "WAK", "緯度（度）": 45.403, "経度（度）": 141.751, "高さ（ｍ）": 40, "測器の深度（ｍ）": null, "維持管理機関名": "国土地理院", "維持管理機関名（英語）": "GSI", "観測開始年（西暦）": 2022, "同月": 10, "観測機器名または観測項目": "地磁気" }, "geometry": { "type": "Point", "coordinates": [ 141.751, 45.403 ] } },
{ "type": "Feature", "properties": { "観測の種類": "地球電磁気", "name": "柿岡", "観測点名ローマ字": "kakioka", "観測点コード": "KAK", "緯度（度）": 36.2322, "経度（度）": 140.1864, "高さ（ｍ）": 36, "測器の深度（ｍ）": " ", "維持管理機関名": "気象庁", "維持管理機関名（英語）": "JMA", "観測開始年（西暦）": 1913, "同月": 1, "観測機器名または観測項目": "地磁気観測" }, "geometry": { "type": "Point", "coordinates": [ 140.1864, 36.2322 ] } },
{ "type": "Feature", "properties": { "観測の種類": "地球電磁気", "name": "女満別", "観測点名ローマ字": "memambetsu", "観測点コード": "MMB", "緯度（度）": 43.91, "経度（度）": 144.1886, "高さ（ｍ）": 42, "測器の深度（ｍ）": " ", "維持管理機関名": "気象庁", "維持管理機関名（英語）": "JMA", "観測開始年（西暦）": 1952, "同月": 1, "観測機器名または観測項目": "地磁気観測" }, "geometry": { "type": "Point", "coordinates": [ 144.1886, 43.91 ] } },
{ "type": "Feature", "properties": { "観測の種類": "地球電磁気", "name": "鹿屋", "観測点名ローマ字": "kanoya", "観測点コード": "KNY", "緯度（度）": 31.4242, "経度（度）": 130.88, "高さ（ｍ）": 107, "測器の深度（ｍ）": " ", "維持管理機関名": "気象庁", "維持管理機関名（英語）": "JMA", "観測開始年（西暦）": 1958, "同月": 1, "観測機器名または観測項目": "地磁気観測" }, "geometry": { "type": "Point", "coordinates": [ 130.88, 31.4242 ] } },
{ "type": "Feature", "properties": { "観測の種類": "地球電磁気", "name": "父島", "観測点名ローマ字": "chichijima", "観測点コード": "CBI", "緯度（度）": 27.0961, "経度（度）": 142.185, "高さ（ｍ）": 155, "測器の深度（ｍ）": " ", "維持管理機関名": "気象庁", "維持管理機関名（英語）": "JMA", "観測開始年（西暦）": 1973, "同月": 2, "観測機器名または観測項目": "地磁気観測" }, "geometry": { "type": "Point", "coordinates": [ 142.185, 27.0961 ] } }
]
}
