{
"type": "FeatureCollection",
"name": "広帯域地震計",
"crs": { "type": "name", "properties": { "name": "urn:ogc:def:crs:OGC:1.3:CRS84" } },
"features": [
{ "type": "Feature", "properties": { "観測の種類": "広帯域（TYPE1）", "name": "えりも", "観測点名ローマ字": null, "観測点コード": "ERM", "緯度（度）": 42.0176, "経度（度）": 143.1533, "高さ（ｍ）": "40", "測器の深度（ｍ）": null, "維持管理機関名": "北海道大学大学院理学研究院", "維持管理機関名（英語）": null, "観測開始年（西暦）": 1976, "同月": 7, "観測機器名または観測項目": "PK-110 STS-1" }, "geometry": { "type": "Point", "coordinates": [ 143.1533, 42.0176 ] } },
{ "type": "Feature", "properties": { "観測の種類": "広帯域（TYPE2）", "name": "弟子屈", "観測点名ローマ字": null, "観測点コード": "TES", "緯度（度）": 43.4857, "経度（度）": 144.3989, "高さ（ｍ）": "220", "測器の深度（ｍ）": null, "維持管理機関名": "北海道大学大学院理学研究院", "維持管理機関名（英語）": null, "観測開始年（西暦）": 1983, "同月": 5, "観測機器名または観測項目": "PK-110 STS-2" }, "geometry": { "type": "Point", "coordinates": [ 144.3989, 43.4857 ] } },
{ "type": "Feature", "properties": { "観測の種類": "広帯域（TYPE1）", "name": "上ノ国", "観測点名ローマ字": null, "観測点コード": "KKJ", "緯度（度）": 41.7801, "経度（度）": 140.1723, "高さ（ｍ）": "30", "測器の深度（ｍ）": null, "維持管理機関名": "北海道大学大学院理学研究院", "維持管理機関名（英語）": null, "観測開始年（西暦）": 1983, "同月": 5, "観測機器名または観測項目": "PK-110 STS-1" }, "geometry": { "type": "Point", "coordinates": [ 140.1723, 41.7801 ] } },
{ "type": "Feature", "properties": { "観測の種類": "広帯域（TYPE1）", "name": "根室", "観測点名ローマ字": null, "観測点コード": "NMR", "緯度（度）": 43.3676, "経度（度）": 145.7384, "高さ（ｍ）": "20", "測器の深度（ｍ）": null, "維持管理機関名": "北海道大学大学院理学研究院", "維持管理機関名（英語）": null, "観測開始年（西暦）": 1984, "同月": 3, "観測機器名または観測項目": "PK-110 STS-1" }, "geometry": { "type": "Point", "coordinates": [ 145.7384, 43.3676 ] } },
{ "type": "Feature", "properties": { "観測の種類": "広帯域（TYPE1）", "name": "愛別", "観測点名ローマ字": null, "観測点コード": "AIB", "緯度（度）": 43.9092, "経度（度）": 142.6423, "高さ（ｍ）": "265", "測器の深度（ｍ）": null, "維持管理機関名": "北海道大学大学院理学研究院", "維持管理機関名（英語）": null, "観測開始年（西暦）": 1985, "同月": 3, "観測機器名または観測項目": "PK-110 STS-1" }, "geometry": { "type": "Point", "coordinates": [ 142.6423, 43.9092 ] } },
{ "type": "Feature", "properties": { "観測の種類": "広帯域（TYPE2）", "name": "十勝ダム", "観測点名ローマ字": null, "観測点コード": "TKD", "緯度（度）": 43.2388, "経度（度）": 142.9308, "高さ（ｍ）": "438", "測器の深度（ｍ）": null, "維持管理機関名": "北海道大学大学院理学研究院", "維持管理機関名（英語）": null, "観測開始年（西暦）": 1999, "同月": 3, "観測機器名または観測項目": "L4C-3d STS-2" }, "geometry": { "type": "Point", "coordinates": [ 142.9308, 43.2388 ] } },
{ "type": "Feature", "properties": { "観測の種類": "広帯域（TYPE2）", "name": "階上", "観測点名ローマ字": null, "観測点コード": "HSK", "緯度（度）": 40.4147, "経度（度）": 141.5794, "高さ（ｍ）": "355", "測器の深度（ｍ）": null, "維持管理機関名": "東北大学大学院理学研究科", "維持管理機関名（英語）": null, "観測開始年（西暦）": 1971, "同月": 11, "観測機器名または観測項目": "STS-2(120sec)" }, "geometry": { "type": "Point", "coordinates": [ 141.5794, 40.4147 ] } },
{ "type": "Feature", "properties": { "観測の種類": "広帯域（TYPE1）", "name": "北上", "観測点名ローマ字": null, "観測点コード": "KGJ", "緯度（度）": 39.3894, "経度（度）": 141.5624, "高さ（ｍ）": "375", "測器の深度（ｍ）": null, "維持管理機関名": "東北大学大学院理学研究科", "維持管理機関名（英語）": null, "観測開始年（西暦）": 1970, "同月": 9, "観測機器名または観測項目": "PK-110(1Hz)，STS-1(360sec)" }, "geometry": { "type": "Point", "coordinates": [ 141.5624, 39.3894 ] } },
{ "type": "Feature", "properties": { "観測の種類": "広帯域（TYPE2）", "name": "沢内川舟", "観測点名ローマ字": null, "観測点コード": "SWU", "緯度（度）": 39.4889, "経度（度）": 140.7889, "高さ（ｍ）": "445", "測器の深度（ｍ）": null, "維持管理機関名": "東北大学大学院理学研究科", "維持管理機関名（英語）": null, "観測開始年（西暦）": 1982, "同月": 11, "観測機器名または観測項目": "STS-2(120sec)" }, "geometry": { "type": "Point", "coordinates": [ 140.7889, 39.4889 ] } },
{ "type": "Feature", "properties": { "観測の種類": "広帯域（TYPE2）", "name": "大東", "観測点名ローマ字": null, "観測点コード": "DIT", "緯度（度）": 39.064, "経度（度）": 141.4221, "高さ（ｍ）": "400", "測器の深度（ｍ）": null, "維持管理機関名": "東北大学大学院理学研究科", "維持管理機関名（英語）": null, "観測開始年（西暦）": 1994, "同月": 12, "観測機器名または観測項目": "STS-2(120sec)" }, "geometry": { "type": "Point", "coordinates": [ 141.4221, 39.064 ] } },
{ "type": "Feature", "properties": { "観測の種類": "広帯域（TYPE2）", "name": "関谷", "観測点名ローマ字": null, "観測点コード": "E.SEK", "緯度（度）": 37.0915, "経度（度）": 139.4882, "高さ（ｍ）": "705", "測器の深度（ｍ）": null, "維持管理機関名": "東京大学地震研究所", "維持管理機関名（英語）": null, "観測開始年（西暦）": 1980, "同月": 9, "観測機器名または観測項目": "CMG(地表)" }, "geometry": { "type": "Point", "coordinates": [ 139.4882, 37.0915 ] } },
{ "type": "Feature", "properties": { "観測の種類": "広帯域（TYPE1）", "name": "筑波", "観測点名ローマ字": null, "観測点コード": "E.TSK", "緯度（度）": 36.213, "経度（度）": 140.1071, "高さ（ｍ）": "280", "測器の深度（ｍ）": null, "維持管理機関名": "東京大学地震研究所", "維持管理機関名（英語）": null, "観測開始年（西暦）": 1966, "同月": 4, "観測機器名または観測項目": "STS1試験観測中" }, "geometry": { "type": "Point", "coordinates": [ 140.1071, 36.213 ] } },
{ "type": "Feature", "properties": { "観測の種類": "広帯域（TYPE2）", "name": "堂平３", "観測点名ローマ字": null, "観測点コード": "E.DDR3", "緯度（度）": 36.003, "経度（度）": 139.1898, "高さ（ｍ）": "835", "測器の深度（ｍ）": null, "維持管理機関名": "東京大学地震研究所", "維持管理機関名（英語）": null, "観測開始年（西暦）": 1966, "同月": 4, "観測機器名または観測項目": "CMG（地表）" }, "geometry": { "type": "Point", "coordinates": [ 139.1898, 36.003 ] } },
{ "type": "Feature", "properties": { "観測の種類": "広帯域（TYPE2）", "name": "犬吠２", "観測点名ローマ字": null, "観測点コード": "E.INB2", "緯度（度）": 35.7048, "経度（度）": 140.8528, "高さ（ｍ）": "53", "測器の深度（ｍ）": null, "維持管理機関名": "東京大学地震研究所", "維持管理機関名（英語）": null, "観測開始年（西暦）": 2016, "同月": 9, "観測機器名または観測項目": "CMG（地表）" }, "geometry": { "type": "Point", "coordinates": [ 140.8528, 35.7048 ] } },
{ "type": "Feature", "properties": { "観測の種類": "広帯域（TYPE2）", "name": "清澄", "観測点名ローマ字": null, "観測点コード": "E.KYS", "緯度（度）": 35.2009, "経度（度）": 140.145, "高さ（ｍ）": "180", "測器の深度（ｍ）": null, "維持管理機関名": "東京大学地震研究所", "維持管理機関名（英語）": null, "観測開始年（西暦）": 1966, "同月": 4, "観測機器名または観測項目": "CMG（地表）併設" }, "geometry": { "type": "Point", "coordinates": [ 140.145, 35.2009 ] } },
{ "type": "Feature", "properties": { "観測の種類": "広帯域（TYPE2）", "name": "銀山平", "観測点名ローマ字": null, "観測点コード": "E.GNZ", "緯度（度）": 36.6563, "経度（度）": 139.409, "高さ（ｍ）": "880", "測器の深度（ｍ）": null, "維持管理機関名": "東京大学地震研究所", "維持管理機関名（英語）": null, "観測開始年（西暦）": 1991, "同月": 3, "観測機器名または観測項目": "CMG（地表）" }, "geometry": { "type": "Point", "coordinates": [ 139.409, 36.6563 ] } },
{ "type": "Feature", "properties": { "観測の種類": "広帯域（TYPE2）", "name": "川奈", "観測点名ローマ字": null, "観測点コード": "E.KAW", "緯度（度）": 34.9549, "経度（度）": 139.1423, "高さ（ｍ）": "5", "測器の深度（ｍ）": null, "維持管理機関名": "東京大学地震研究所", "維持管理機関名（英語）": null, "観測開始年（西暦）": 1987, "同月": 8, "観測機器名または観測項目": "CMG（地表）併設" }, "geometry": { "type": "Point", "coordinates": [ 139.1423, 34.9549 ] } },
{ "type": "Feature", "properties": { "観測の種類": "広帯域（TYPE2）", "name": "小室山", "観測点名ローマ字": null, "観測点コード": "E.ITOO", "緯度（度）": 34.9416, "経度（度）": 139.1247, "高さ（ｍ）": "204", "測器の深度（ｍ）": null, "維持管理機関名": "東京大学地震研究所", "維持管理機関名（英語）": null, "観測開始年（西暦）": 1997, "同月": 5, "観測機器名または観測項目": "CMG（地表）併設" }, "geometry": { "type": "Point", "coordinates": [ 139.1247, 34.9416 ] } },
{ "type": "Feature", "properties": { "観測の種類": "広帯域（TYPE2）", "name": "秋山", "観測点名ローマ字": null, "観測点コード": "E.AKY", "緯度（度）": 35.5743, "経度（度）": 139.0584, "高さ（ｍ）": "420", "測器の深度（ｍ）": null, "維持管理機関名": "東京大学地震研究所", "維持管理機関名（英語）": null, "観測開始年（西暦）": 1987, "同月": null, "観測機器名または観測項目": "CMG併設　" }, "geometry": { "type": "Point", "coordinates": [ 139.0584, 35.5743 ] } },
{ "type": "Feature", "properties": { "観測の種類": "広帯域（TYPE2）", "name": "六合", "観測点名ローマ字": null, "観測点コード": "E.KUJ", "緯度（度）": 36.5747, "経度（度）": 138.6321, "高さ（ｍ）": "760", "測器の深度（ｍ）": null, "維持管理機関名": "東京大学地震研究所", "維持管理機関名（英語）": null, "観測開始年（西暦）": 1981, "同月": 6, "観測機器名または観測項目": "CMG（地表）併設" }, "geometry": { "type": "Point", "coordinates": [ 138.6321, 36.5747 ] } },
{ "type": "Feature", "properties": { "観測の種類": "広帯域（TYPE2）", "name": "朝日２", "観測点名ローマ字": null, "観測点コード": "E.ASI2", "緯度（度）": 36.1253, "経度（度）": 137.8502, "高さ（ｍ）": "845", "測器の深度（ｍ）": null, "維持管理機関名": "東京大学地震研究所", "維持管理機関名（英語）": null, "観測開始年（西暦）": 1982, "同月": 4, "観測機器名または観測項目": "CMG併設" }, "geometry": { "type": "Point", "coordinates": [ 137.8502, 36.1253 ] } },
{ "type": "Feature", "properties": { "観測の種類": "広帯域（TYPE2）", "name": "能生２", "観測点名ローマ字": null, "観測点コード": "E.NUJ2", "緯度（度）": 37.0519, "経度（度）": 138.0268, "高さ（ｍ）": "210", "測器の深度（ｍ）": null, "維持管理機関名": "東京大学地震研究所", "維持管理機関名（英語）": null, "観測開始年（西暦）": 1978, "同月": 10, "観測機器名または観測項目": "CMG（地表）" }, "geometry": { "type": "Point", "coordinates": [ 138.0268, 37.0519 ] } },
{ "type": "Feature", "properties": { "観測の種類": "広帯域（TYPE2）", "name": "大佐渡", "観測点名ローマ字": null, "観測点コード": "E.OSD", "緯度（度）": 38.2453, "経度（度）": 138.4079, "高さ（ｍ）": "60", "測器の深度（ｍ）": null, "維持管理機関名": "東京大学地震研究所", "維持管理機関名（英語）": null, "観測開始年（西暦）": 1989, "同月": 5, "観測機器名または観測項目": "CMG（地表）併設" }, "geometry": { "type": "Point", "coordinates": [ 138.4079, 38.2453 ] } },
{ "type": "Feature", "properties": { "観測の種類": "広帯域（TYPE2）", "name": "甲斐川", "観測点名ローマ字": null, "観測点コード": "E.KKW", "緯度（度）": 33.9042, "経度（度）": 135.4461, "高さ（ｍ）": "235", "測器の深度（ｍ）": null, "維持管理機関名": "東京大学地震研究所", "維持管理機関名（英語）": null, "観測開始年（西暦）": 1982, "同月": 4, "観測機器名または観測項目": "CMG（地表）" }, "geometry": { "type": "Point", "coordinates": [ 135.4461, 33.9042 ] } },
{ "type": "Feature", "properties": { "観測の種類": "広帯域（TYPE1）", "name": "白木", "観測点名ローマ字": null, "観測点コード": "E.SHK", "緯度（度）": 34.5361, "経度（度）": 132.6779, "高さ（ｍ）": "275", "測器の深度（ｍ）": null, "維持管理機関名": "東京大学地震研究所", "維持管理機関名（英語）": null, "観測開始年（西暦）": 1965, "同月": 7, "観測機器名または観測項目": "STS1試験観測中" }, "geometry": { "type": "Point", "coordinates": [ 132.6779, 34.5361 ] } },
{ "type": "Feature", "properties": { "観測の種類": "広帯域（TYPE2）", "name": "三河", "観測点名ローマ字": null, "観測点コード": "NU.MIK", "緯度（度）": 34.7659, "経度（度）": 137.467, "高さ（ｍ）": "76", "測器の深度（ｍ）": null, "維持管理機関名": "名古屋大学大学院環境学研究科", "維持管理機関名（英語）": null, "観測開始年（西暦）": 1977, "同月": 6, "観測機器名または観測項目": "STS-2" }, "geometry": { "type": "Point", "coordinates": [ 137.467, 34.7659 ] } },
{ "type": "Feature", "properties": { "観測の種類": "広帯域（TYPE2）", "name": "新豊根", "観測点名ローマ字": null, "観測点コード": "NU.STN", "緯度（度）": 35.1387, "経度（度）": 137.7413, "高さ（ｍ）": "485", "測器の深度（ｍ）": null, "維持管理機関名": "名古屋大学大学院環境学研究科", "維持管理機関名（英語）": null, "観測開始年（西暦）": 1984, "同月": 12, "観測機器名または観測項目": "STS-2（99/10/15～）" }, "geometry": { "type": "Point", "coordinates": [ 137.7413, 35.1387 ] } },
{ "type": "Feature", "properties": { "観測の種類": "広帯域（TYPE2）", "name": "犬山", "観測点名ローマ字": null, "観測点コード": "NU.INU1", "緯度（度）": 35.3532, "経度（度）": 137.0253, "高さ（ｍ）": "130", "測器の深度（ｍ）": null, "維持管理機関名": "名古屋大学大学院環境学研究科", "維持管理機関名（英語）": null, "観測開始年（西暦）": 1966, "同月": 6, "観測機器名または観測項目": "STS-2（99/2/7～）" }, "geometry": { "type": "Point", "coordinates": [ 137.0253, 35.3532 ] } },
{ "type": "Feature", "properties": { "観測の種類": "広帯域（TYPE2）", "name": "付知", "観測点名ローマ字": null, "観測点コード": "NU.TKC2", "緯度（度）": 35.6553, "経度（度）": 137.4653, "高さ（ｍ）": "645", "測器の深度（ｍ）": null, "維持管理機関名": "名古屋大学大学院環境学研究科", "維持管理機関名（英語）": null, "観測開始年（西暦）": 1978, "同月": 4, "観測機器名または観測項目": "Trillium Compact" }, "geometry": { "type": "Point", "coordinates": [ 137.4653, 35.6553 ] } },
{ "type": "Feature", "properties": { "観測の種類": "広帯域（TYPE2）", "name": "高根", "観測点名ローマ字": null, "観測点コード": "NU.TKN1", "緯度（度）": 35.9872, "経度（度）": 137.5297, "高さ（ｍ）": "1260", "測器の深度（ｍ）": null, "維持管理機関名": "名古屋大学大学院環境学研究科", "維持管理機関名（英語）": null, "観測開始年（西暦）": 1978, "同月": 1, "観測機器名または観測項目": "STS-2" }, "geometry": { "type": "Point", "coordinates": [ 137.5297, 35.9872 ] } },
{ "type": "Feature", "properties": { "観測の種類": "広帯域（TYPE2）", "name": "牧尾", "観測点名ローマ字": null, "観測点コード": "NU.MKO1", "緯度（度）": 35.825, "経度（度）": 137.6018, "高さ（ｍ）": "885", "測器の深度（ｍ）": null, "維持管理機関名": "名古屋大学大学院環境学研究科", "維持管理機関名（英語）": null, "観測開始年（西暦）": 1979, "同月": 7, "観測機器名または観測項目": "CMG-3T" }, "geometry": { "type": "Point", "coordinates": [ 137.6018, 35.825 ] } },
{ "type": "Feature", "properties": { "観測の種類": "広帯域（TYPE2）", "name": "宇賀渓", "観測点名ローマ字": null, "観測点コード": "NU.UGKC", "緯度（度）": 35.1084, "経度（度）": 136.4692, "高さ（ｍ）": "301", "測器の深度（ｍ）": null, "維持管理機関名": "名古屋大学大学院環境学研究科", "維持管理機関名（英語）": null, "観測開始年（西暦）": 1978, "同月": 4, "観測機器名または観測項目": "CMG-3T" }, "geometry": { "type": "Point", "coordinates": [ 136.4692, 35.1084 ] } },
{ "type": "Feature", "properties": { "観測の種類": "広帯域（TYPE2）", "name": "清見", "観測点名ローマ字": null, "観測点コード": "NU.KYM2", "緯度（度）": 36.1156, "経度（度）": 137.1689, "高さ（ｍ）": "664", "測器の深度（ｍ）": null, "維持管理機関名": "名古屋大学大学院環境学研究科", "維持管理機関名（英語）": null, "観測開始年（西暦）": 2003, "同月": 4, "観測機器名または観測項目": "CMG-3T" }, "geometry": { "type": "Point", "coordinates": [ 137.1689, 36.1156 ] } },
{ "type": "Feature", "properties": { "観測の種類": "広帯域（TYPE2）", "name": "王滝の湯", "観測点名ローマ字": null, "観測点コード": "NU.OTY", "緯度（度）": 35.8399, "経度（度）": 137.5294, "高さ（ｍ）": "1232", "測器の深度（ｍ）": null, "維持管理機関名": "名古屋大学大学院環境学研究科", "維持管理機関名（英語）": null, "観測開始年（西暦）": 2016, "同月": 3, "観測機器名または観測項目": "CMG-3T" }, "geometry": { "type": "Point", "coordinates": [ 137.5294, 35.8399 ] } },
{ "type": "Feature", "properties": { "観測の種類": "広帯域（TYPE2）", "name": "中の湯", "観測点名ローマ字": null, "観測点コード": "NU.NKY", "緯度（度）": 35.8956, "経度（度）": 137.5205, "高さ（ｍ）": "1810", "測器の深度（ｍ）": null, "維持管理機関名": "名古屋大学大学院環境学研究科", "維持管理機関名（英語）": null, "観測開始年（西暦）": 2016, "同月": 3, "観測機器名または観測項目": "CMG-3T" }, "geometry": { "type": "Point", "coordinates": [ 137.5205, 35.8956 ] } },
{ "type": "Feature", "properties": { "観測の種類": "広帯域（TYPE2）", "name": "濁河SRC", "観測点名ローマ字": null, "観測点コード": "NU.NSRC", "緯度（度）": 35.9283, "経度（度）": 137.437, "高さ（ｍ）": "1575", "測器の深度（ｍ）": null, "維持管理機関名": "名古屋大学大学院環境学研究科", "維持管理機関名（英語）": null, "観測開始年（西暦）": 2017, "同月": 8, "観測機器名または観測項目": "CMG-3T/BH" }, "geometry": { "type": "Point", "coordinates": [ 137.437, 35.9283 ] } },
{ "type": "Feature", "properties": { "観測の種類": "広帯域（TYPE1）", "name": "上宝", "観測点名ローマ字": null, "観測点コード": "DP.KTJ", "緯度（度）": 36.2831, "経度（度）": 137.3239, "高さ（ｍ）": "760", "測器の深度（ｍ）": null, "維持管理機関名": "京都大学防災研究所", "維持管理機関名（英語）": null, "観測開始年（西暦）": 1969, "同月": 2, "観測機器名または観測項目": "PK-110（勝島製作所），1988.08.STS1併設" }, "geometry": { "type": "Point", "coordinates": [ 137.3239, 36.2831 ] } },
{ "type": "Feature", "properties": { "観測の種類": "広帯域（TYPE1）", "name": "鳥取", "観測点名ローマ字": null, "観測点コード": "DP.TTT", "緯度（度）": 35.5179, "経度（度）": 134.2351, "高さ（ｍ）": "10", "測器の深度（ｍ）": null, "維持管理機関名": "京都大学防災研究所", "維持管理機関名（英語）": null, "観測開始年（西暦）": 1971, "同月": 8, "観測機器名または観測項目": "Sercel L4C-3D，1988.07.STS1併設" }, "geometry": { "type": "Point", "coordinates": [ 134.2351, 35.5179 ] } },
{ "type": "Feature", "properties": { "観測の種類": "広帯域（TYPE2）", "name": "栖本", "観測点名ローマ字": null, "観測点コード": "SMT", "緯度（度）": 32.4327, "経度（度）": 130.311, "高さ（ｍ）": "340", "測器の深度（ｍ）": null, "維持管理機関名": "九州大学大学院理学研究院", "維持管理機関名（英語）": null, "観測開始年（西暦）": 1989, "同月": 3, "観測機器名または観測項目": "1Hz振動技研MTD，広帯域STS2" }, "geometry": { "type": "Point", "coordinates": [ 130.311, 32.4327 ] } },
{ "type": "Feature", "properties": { "観測の種類": "広帯域（TYPE2）", "name": "平戸", "観測点名ローマ字": null, "観測点コード": "HIR", "緯度（度）": 33.3497, "経度（度）": 129.49, "高さ（ｍ）": "85", "測器の深度（ｍ）": null, "維持管理機関名": "九州大学大学院理学研究院", "維持管理機関名（英語）": null, "観測開始年（西暦）": 1994, "同月": 3, "観測機器名または観測項目": "1Hz振動技研MTD，広帯域STS2" }, "geometry": { "type": "Point", "coordinates": [ 129.49, 33.3497 ] } },
{ "type": "Feature", "properties": { "観測の種類": "広帯域（TYPE2）", "name": "西都", "観測点名ローマ字": null, "観測点コード": "STO", "緯度（度）": 32.2753, "経度（度）": 131.5007, "高さ（ｍ）": "230", "測器の深度（ｍ）": null, "維持管理機関名": "九州大学大学院理学研究院", "維持管理機関名（英語）": null, "観測開始年（西暦）": 1996, "同月": 3, "観測機器名または観測項目": "1Hz振動技研MTD，広帯域STS2" }, "geometry": { "type": "Point", "coordinates": [ 131.5007, 32.2753 ] } },
{ "type": "Feature", "properties": { "観測の種類": "広帯域（TYPE2）", "name": "北九州", "観測点名ローマ字": null, "観測点コード": "KTK", "緯度（度）": 33.7433, "経度（度）": 130.8345, "高さ（ｍ）": "210", "測器の深度（ｍ）": null, "維持管理機関名": "九州大学大学院理学研究院", "維持管理機関名（英語）": null, "観測開始年（西暦）": 1996, "同月": 4, "観測機器名または観測項目": "1Hz振動技研MTD，広帯域STS2" }, "geometry": { "type": "Point", "coordinates": [ 130.8345, 33.7433 ] } },
{ "type": "Feature", "properties": { "観測の種類": "広帯域（TYPE2）", "name": "日高", "観測点名ローマ字": "Hidaka", "観測点コード": "HIDF", "緯度（度）": 42.8208, "経度（度）": 142.4145, "高さ（ｍ）": "229", "測器の深度（ｍ）": 0, "維持管理機関名": "防災科学技術研究所", "維持管理機関名（英語）": "NIED", "観測開始年（西暦）": 2001, "同月": 3, "観測機器名または観測項目": "STS-2" }, "geometry": { "type": "Point", "coordinates": [ 142.4145, 42.8208 ] } },
{ "type": "Feature", "properties": { "観測の種類": "広帯域（TYPE1）", "name": "札幌", "観測点名ローマ字": "Sapporo", "観測点コード": "HSSF", "緯度（度）": 42.9672, "経度（度）": 141.2286, "高さ（ｍ）": "195", "測器の深度（ｍ）": 0, "維持管理機関名": "防災科学技術研究所", "維持管理機関名（英語）": "NIED", "観測開始年（西暦）": 1997, "同月": 3, "観測機器名または観測項目": "STS-1" }, "geometry": { "type": "Point", "coordinates": [ 141.2286, 42.9672 ] } },
{ "type": "Feature", "properties": { "観測の種類": "広帯域（TYPE2）", "name": "今金", "観測点名ローマ字": "Imakane", "観測点コード": "IMGF", "緯度（度）": 42.3928, "経度（度）": 140.1406, "高さ（ｍ）": "50", "測器の深度（ｍ）": 0, "維持管理機関名": "防災科学技術研究所", "維持管理機関名（英語）": "NIED", "観測開始年（西暦）": 2000, "同月": 3, "観測機器名または観測項目": "STS-2" }, "geometry": { "type": "Point", "coordinates": [ 140.1406, 42.3928 ] } },
{ "type": "Feature", "properties": { "観測の種類": "広帯域（TYPE2）", "name": "上杵臼", "観測点名ローマ字": "Kamikineusu", "観測点コード": "KMUF", "緯度（度）": 42.2391, "経度（度）": 142.9625, "高さ（ｍ）": "177", "測器の深度（ｍ）": 0, "維持管理機関名": "防災科学技術研究所", "維持管理機関名（英語）": "NIED", "観測開始年（西暦）": 2000, "同月": 3, "観測機器名または観測項目": "STS-2" }, "geometry": { "type": "Point", "coordinates": [ 142.9625, 42.2391 ] } },
{ "type": "Feature", "properties": { "観測の種類": "広帯域（TYPE2）", "name": "訓子府", "観測点名ローマ字": "Kunneppu", "観測点コード": "KNPF", "緯度（度）": 43.7625, "経度（度）": 143.7084, "高さ（ｍ）": "158", "測器の深度（ｍ）": 0, "維持管理機関名": "防災科学技術研究所", "維持管理機関名（英語）": "NIED", "観測開始年（西暦）": 2001, "同月": 3, "観測機器名または観測項目": "STS-2" }, "geometry": { "type": "Point", "coordinates": [ 143.7084, 43.7625 ] } },
{ "type": "Feature", "properties": { "観測の種類": "広帯域（TYPE2）", "name": "釧路", "観測点名ローマ字": "Kushiro", "観測点コード": "KSRF", "緯度（度）": 42.982, "経度（度）": 144.4851, "高さ（ｍ）": "18", "測器の深度（ｍ）": 0, "維持管理機関名": "防災科学技術研究所", "維持管理機関名（英語）": "NIED", "観測開始年（西暦）": 2003, "同月": 3, "観測機器名または観測項目": "STS-2" }, "geometry": { "type": "Point", "coordinates": [ 144.4851, 42.982 ] } },
{ "type": "Feature", "properties": { "観測の種類": "広帯域（TYPE2）", "name": "中川", "観測点名ローマ字": "Nakagawa", "観測点コード": "NKGF", "緯度（度）": 44.8017, "経度（度）": 142.0849, "高さ（ｍ）": "31", "測器の深度（ｍ）": 0, "維持管理機関名": "防災科学技術研究所", "維持管理機関名（英語）": "NIED", "観測開始年（西暦）": 2002, "同月": 3, "観測機器名または観測項目": "STS-2" }, "geometry": { "type": "Point", "coordinates": [ 142.0849, 44.8017 ] } },
{ "type": "Feature", "properties": { "観測の種類": "広帯域（TYPE2）", "name": "根室", "観測点名ローマ字": "Nemuro", "観測点コード": "NMRF", "緯度（度）": 43.3673, "経度（度）": 145.7379, "高さ（ｍ）": "20", "測器の深度（ｍ）": 0, "維持管理機関名": "防災科学技術研究所", "維持管理機関名（英語）": "NIED", "観測開始年（西暦）": 1996, "同月": 9, "観測機器名または観測項目": "広帯域（TYPE2）" }, "geometry": { "type": "Point", "coordinates": [ 145.7379, 43.3673 ] } },
{ "type": "Feature", "properties": { "観測の種類": "広帯域（TYPE2）", "name": "西興部", "観測点名ローマ字": "Nishiokoppe", "観測点コード": "NOPF", "緯度（度）": 44.3218, "経度（度）": 142.9384, "高さ（ｍ）": "126", "測器の深度（ｍ）": 0, "維持管理機関名": "防災科学技術研究所", "維持管理機関名（英語）": "NIED", "観測開始年（西暦）": 2003, "同月": 3, "観測機器名または観測項目": "広帯域（TYPE2）" }, "geometry": { "type": "Point", "coordinates": [ 142.9384, 44.3218 ] } },
{ "type": "Feature", "properties": { "観測の種類": "広帯域（TYPE2）", "name": "斜里", "観測点名ローマ字": "Shari", "観測点コード": "SHRF", "緯度（度）": 44.0563, "経度（度）": 144.9944, "高さ（ｍ）": "111", "測器の深度（ｍ）": 0, "維持管理機関名": "防災科学技術研究所", "維持管理機関名（英語）": "NIED", "観測開始年（西暦）": 2002, "同月": 3, "観測機器名または観測項目": "広帯域（TYPE2）" }, "geometry": { "type": "Point", "coordinates": [ 144.9944, 44.0563 ] } },
{ "type": "Feature", "properties": { "観測の種類": "広帯域（TYPE1）", "name": "浦幌", "観測点名ローマ字": "Urahoro", "観測点コード": "URHF", "緯度（度）": 42.9298, "経度（度）": 143.6711, "高さ（ｍ）": "80", "測器の深度（ｍ）": 0, "維持管理機関名": "防災科学技術研究所", "維持管理機関名（英語）": "NIED", "観測開始年（西暦）": 1999, "同月": 3, "観測機器名または観測項目": "STS-1" }, "geometry": { "type": "Point", "coordinates": [ 143.6711, 42.9298 ] } },
{ "type": "Feature", "properties": { "観測の種類": "広帯域（TYPE1）", "name": "泊", "観測点名ローマ字": "Tomari", "観測点コード": "TMRF", "緯度（度）": 41.1016, "経度（度）": 141.3831, "高さ（ｍ）": "120", "測器の深度（ｍ）": 0, "維持管理機関名": "防災科学技術研究所", "維持管理機関名（英語）": "NIED", "観測開始年（西暦）": 1998, "同月": 3, "観測機器名または観測項目": "STS-1" }, "geometry": { "type": "Point", "coordinates": [ 141.3831, 41.1016 ] } },
{ "type": "Feature", "properties": { "観測の種類": "広帯域（TYPE2）", "name": "大鰐", "観測点名ローマ字": "Owani", "観測点コード": "OOWF", "緯度（度）": 40.4689, "経度（度）": 140.5097, "高さ（ｍ）": "205", "測器の深度（ｍ）": 0, "維持管理機関名": "防災科学技術研究所", "維持管理機関名（英語）": "NIED", "観測開始年（西暦）": 2011, "同月": 3, "観測機器名または観測項目": "広帯域（TYPE2）" }, "geometry": { "type": "Point", "coordinates": [ 140.5097, 40.4689 ] } },
{ "type": "Feature", "properties": { "観測の種類": "広帯域（TYPE2）", "name": "山形", "観測点名ローマ字": "Yamagata", "観測点コード": "IYGF", "緯度（度）": 40.1217, "経度（度）": 141.5833, "高さ（ｍ）": "429", "測器の深度（ｍ）": 0, "維持管理機関名": "防災科学技術研究所", "維持管理機関名（英語）": "NIED", "観測開始年（西暦）": 2000, "同月": 3, "観測機器名または観測項目": "STS-2" }, "geometry": { "type": "Point", "coordinates": [ 141.5833, 40.1217 ] } },
{ "type": "Feature", "properties": { "観測の種類": "広帯域（TYPE2）", "name": "遠野山崎", "観測点名ローマ字": "Tonoyamasaki", "観測点コード": "TYSF", "緯度（度）": 39.3772, "経度（度）": 141.5932, "高さ（ｍ）": "346", "測器の深度（ｍ）": 0, "維持管理機関名": "防災科学技術研究所", "維持管理機関名（英語）": "NIED", "観測開始年（西暦）": 2002, "同月": 3, "観測機器名または観測項目": "STS-2" }, "geometry": { "type": "Point", "coordinates": [ 141.5932, 39.3772 ] } },
{ "type": "Feature", "properties": { "観測の種類": "広帯域（TYPE2）", "name": "川崎", "観測点名ローマ字": "Kawasaki", "観測点コード": "KSKF", "緯度（度）": 38.2585, "経度（度）": 140.5833, "高さ（ｍ）": "319", "測器の深度（ｍ）": 0, "維持管理機関名": "防災科学技術研究所", "維持管理機関名（英語）": "NIED", "観測開始年（西暦）": 2000, "同月": 3, "観測機器名または観測項目": "広帯域（TYPE2）" }, "geometry": { "type": "Point", "coordinates": [ 140.5833, 38.2585 ] } },
{ "type": "Feature", "properties": { "観測の種類": "広帯域（TYPE2）", "name": "気仙沼", "観測点名ローマ字": "Kesennuma", "観測点コード": "KSNF", "緯度（度）": 38.9762, "経度（度）": 141.5301, "高さ（ｍ）": "260", "測器の深度（ｍ）": 0, "維持管理機関名": "防災科学技術研究所", "維持管理機関名（英語）": "NIED", "観測開始年（西暦）": 2000, "同月": 3, "観測機器名または観測項目": "STS-2" }, "geometry": { "type": "Point", "coordinates": [ 141.5301, 38.9762 ] } },
{ "type": "Feature", "properties": { "観測の種類": "広帯域（TYPE1）", "name": "五城目", "観測点名ローマ字": "Gojome", "観測点コード": "GJMF", "緯度（度）": 39.9555, "経度（度）": 140.1113, "高さ（ｍ）": "105", "測器の深度（ｍ）": 0, "維持管理機関名": "防災科学技術研究所", "維持管理機関名（英語）": "NIED", "観測開始年（西暦）": 1998, "同月": 3, "観測機器名または観測項目": "STS-1" }, "geometry": { "type": "Point", "coordinates": [ 140.1113, 39.9555 ] } },
{ "type": "Feature", "properties": { "観測の種類": "広帯域（TYPE2）", "name": "広野", "観測点名ローマ字": "Hirono", "観測点コード": "HROF", "緯度（度）": 37.2246, "経度（度）": 140.8777, "高さ（ｍ）": "615", "測器の深度（ｍ）": 0, "維持管理機関名": "防災科学技術研究所", "維持管理機関名（英語）": "NIED", "観測開始年（西暦）": 2000, "同月": 3, "観測機器名または観測項目": "STS-2" }, "geometry": { "type": "Point", "coordinates": [ 140.8777, 37.2246 ] } },
{ "type": "Feature", "properties": { "観測の種類": "広帯域（TYPE1）", "name": "つくば", "観測点名ローマ字": "Tsukuba", "観測点コード": "TSKF", "緯度（度）": 36.2141, "経度（度）": 140.0898, "高さ（ｍ）": "174", "測器の深度（ｍ）": 0, "維持管理機関名": "防災科学技術研究所", "維持管理機関名（英語）": "NIED", "観測開始年（西暦）": 2005, "同月": 3, "観測機器名または観測項目": "STS-1" }, "geometry": { "type": "Point", "coordinates": [ 140.0898, 36.2141 ] } },
{ "type": "Feature", "properties": { "観測の種類": "広帯域（TYPE2）", "name": "足尾", "観測点名ローマ字": "Ashio", "観測点コード": "ASIF", "緯度（度）": 36.6342, "経度（度）": 139.4206, "高さ（ｍ）": "664", "測器の深度（ｍ）": 0, "維持管理機関名": "防災科学技術研究所", "維持管理機関名（英語）": "NIED", "観測開始年（西暦）": 2001, "同月": 3, "観測機器名または観測項目": "STS-2" }, "geometry": { "type": "Point", "coordinates": [ 139.4206, 36.6342 ] } },
{ "type": "Feature", "properties": { "観測の種類": "広帯域（TYPE1）", "name": "八溝", "観測点名ローマ字": "Yamizo", "観測点コード": "YMZF", "緯度（度）": 36.9267, "経度（度）": 140.2445, "高さ（ｍ）": "520", "測器の深度（ｍ）": 0, "維持管理機関名": "防災科学技術研究所", "維持管理機関名（英語）": "NIED", "観測開始年（西暦）": 1998, "同月": 3, "観測機器名または観測項目": "STS-1" }, "geometry": { "type": "Point", "coordinates": [ 140.2445, 36.9267 ] } },
{ "type": "Feature", "properties": { "観測の種類": "広帯域（TYPE2）", "name": "鬼石", "観測点名ローマ字": "Onishi", "観測点コード": "ONSF", "緯度（度）": 36.1557, "経度（度）": 138.9822, "高さ（ｍ）": "480", "測器の深度（ｍ）": 0, "維持管理機関名": "防災科学技術研究所", "維持管理機関名（英語）": "NIED", "観測開始年（西暦）": 2000, "同月": 3, "観測機器名または観測項目": "STS-2" }, "geometry": { "type": "Point", "coordinates": [ 138.9822, 36.1557 ] } },
{ "type": "Feature", "properties": { "観測の種類": "広帯域（TYPE2）", "name": "青ヶ島", "観測点名ローマ字": "Aogashima", "観測点コード": "AOGF", "緯度（度）": 32.4508, "経度（度）": 139.774, "高さ（ｍ）": "85", "測器の深度（ｍ）": 0, "維持管理機関名": "防災科学技術研究所", "維持管理機関名（英語）": "NIED", "観測開始年（西暦）": 2002, "同月": 3, "観測機器名または観測項目": "STS-2" }, "geometry": { "type": "Point", "coordinates": [ 139.774, 32.4508 ] } },
{ "type": "Feature", "properties": { "観測の種類": "広帯域（TYPE2）", "name": "八丈", "観測点名ローマ字": "Hachijo", "観測点コード": "HJOF", "緯度（度）": 33.1048, "経度（度）": 139.8024, "高さ（ｍ）": "87", "測器の深度（ｍ）": 0, "維持管理機関名": "防災科学技術研究所", "維持管理機関名（英語）": "NIED", "観測開始年（西暦）": 2002, "同月": 3, "観測機器名または観測項目": "STS-2" }, "geometry": { "type": "Point", "coordinates": [ 139.8024, 33.1048 ] } },
{ "type": "Feature", "properties": { "観測の種類": "広帯域（TYPE2）", "name": "神津島", "観測点名ローマ字": "Kozushima", "観測点コード": "KZSF", "緯度（度）": 34.2056, "経度（度）": 139.1485, "高さ（ｍ）": "193", "測器の深度（ｍ）": 0, "維持管理機関名": "防災科学技術研究所", "維持管理機関名（英語）": "NIED", "観測開始年（西暦）": 2003, "同月": 3, "観測機器名または観測項目": "STS-2" }, "geometry": { "type": "Point", "coordinates": [ 139.1485, 34.2056 ] } },
{ "type": "Feature", "properties": { "観測の種類": "広帯域（TYPE2）", "name": "小笠原", "観測点名ローマ字": "Ogasawara", "観測点コード": "OSWF", "緯度（度）": 27.0983, "経度（度）": 142.1961, "高さ（ｍ）": "11", "測器の深度（ｍ）": 0, "維持管理機関名": "防災科学技術研究所", "維持管理機関名（英語）": "NIED", "観測開始年（西暦）": 2002, "同月": 3, "観測機器名または観測項目": "STS-2" }, "geometry": { "type": "Point", "coordinates": [ 142.1961, 27.0983 ] } },
{ "type": "Feature", "properties": { "観測の種類": "広帯域（TYPE2）", "name": "赤泊", "観測点名ローマ字": "Akadomari", "観測点コード": "ADMF", "緯度（度）": 37.9046, "経度（度）": 138.4303, "高さ（ｍ）": "276", "測器の深度（ｍ）": 0, "維持管理機関名": "防災科学技術研究所", "維持管理機関名（英語）": "NIED", "観測開始年（西暦）": 2002, "同月": 3, "観測機器名または観測項目": "広帯域（TYPE2）" }, "geometry": { "type": "Point", "coordinates": [ 138.4303, 37.9046 ] } },
{ "type": "Feature", "properties": { "観測の種類": "広帯域（TYPE1）", "name": "柏崎", "観測点名ローマ字": "Kashiwazaki", "観測点コード": "KZKF", "緯度（度）": 37.2977, "経度（度）": 138.5143, "高さ（ｍ）": "250", "測器の深度（ｍ）": 0, "維持管理機関名": "防災科学技術研究所", "維持管理機関名（英語）": "NIED", "観測開始年（西暦）": 1996, "同月": 3, "観測機器名または観測項目": "STS-1" }, "geometry": { "type": "Point", "coordinates": [ 138.5143, 37.2977 ] } },
{ "type": "Feature", "properties": { "観測の種類": "広帯域（TYPE1）", "name": "新発田", "観測点名ローマ字": "Shibata", "観測点コード": "SBTF", "緯度（度）": 37.9683, "経度（度）": 139.4501, "高さ（ｍ）": "130", "測器の深度（ｍ）": 0, "維持管理機関名": "防災科学技術研究所", "維持管理機関名（英語）": "NIED", "観測開始年（西暦）": 1998, "同月": 3, "観測機器名または観測項目": "STS-1" }, "geometry": { "type": "Point", "coordinates": [ 139.4501, 37.9683 ] } },
{ "type": "Feature", "properties": { "観測の種類": "広帯域（TYPE2）", "name": "白峰", "観測点名ローマ字": "Shiramine", "観測点コード": "SRNF", "緯度（度）": 36.2018, "経度（度）": 136.6303, "高さ（ｍ）": "473", "測器の深度（ｍ）": 0, "維持管理機関名": "防災科学技術研究所", "維持管理機関名（英語）": "NIED", "観測開始年（西暦）": 2003, "同月": 3, "観測機器名または観測項目": "STS-2" }, "geometry": { "type": "Point", "coordinates": [ 136.6303, 36.2018 ] } },
{ "type": "Feature", "properties": { "観測の種類": "広帯域（TYPE2）", "name": "輪島", "観測点名ローマ字": "Wajima", "観測点コード": "WJMF", "緯度（度）": 37.4021, "経度（度）": 137.0257, "高さ（ｍ）": "201", "測器の深度（ｍ）": 0, "維持管理機関名": "防災科学技術研究所", "維持管理機関名（英語）": "NIED", "観測開始年（西暦）": 2004, "同月": 3, "観測機器名または観測項目": "STS-2" }, "geometry": { "type": "Point", "coordinates": [ 137.0257, 37.4021 ] } },
{ "type": "Feature", "properties": { "観測の種類": "広帯域（TYPE1）", "name": "富士川", "観測点名ローマ字": "Fujigawa", "観測点コード": "FUJF", "緯度（度）": 35.2307, "経度（度）": 138.4181, "高さ（ｍ）": "618", "測器の深度（ｍ）": 0, "維持管理機関名": "防災科学技術研究所", "維持管理機関名（英語）": "NIED", "観測開始年（西暦）": 1996, "同月": 6, "観測機器名または観測項目": "STS-1" }, "geometry": { "type": "Point", "coordinates": [ 138.4181, 35.2307 ] } },
{ "type": "Feature", "properties": { "観測の種類": "広帯域（TYPE1）", "name": "都留菅野", "観測点名ローマ字": "Tsurusugeno", "観測点コード": "SGNF", "緯度（度）": 35.5096, "経度（度）": 138.9444, "高さ（ｍ）": "785", "測器の深度（ｍ）": 0, "維持管理機関名": "防災科学技術研究所", "維持管理機関名（英語）": "NIED", "観測開始年（西暦）": 1995, "同月": 3, "観測機器名または観測項目": "STS-1" }, "geometry": { "type": "Point", "coordinates": [ 138.9444, 35.5096 ] } },
{ "type": "Feature", "properties": { "観測の種類": "広帯域（TYPE1）", "name": "高遠", "観測点名ローマ字": "Takato", "観測点コード": "TTOF", "緯度（度）": 35.8363, "経度（度）": 138.1209, "高さ（ｍ）": "1150", "測器の深度（ｍ）": 0, "維持管理機関名": "防災科学技術研究所", "維持管理機関名（英語）": "NIED", "観測開始年（西暦）": 1999, "同月": 3, "観測機器名または観測項目": "STS-1" }, "geometry": { "type": "Point", "coordinates": [ 138.1209, 35.8363 ] } },
{ "type": "Feature", "properties": { "観測の種類": "広帯域（TYPE2）", "name": "金山", "観測点名ローマ字": "Kanayama", "観測点コード": "KNMF", "緯度（度）": 35.7168, "経度（度）": 137.1781, "高さ（ｍ）": "339", "測器の深度（ｍ）": 0, "維持管理機関名": "防災科学技術研究所", "維持管理機関名（英語）": "NIED", "観測開始年（西暦）": 2001, "同月": 3, "観測機器名または観測項目": "広帯域（TYPE2）" }, "geometry": { "type": "Point", "coordinates": [ 137.1781, 35.7168 ] } },
{ "type": "Feature", "properties": { "観測の種類": "広帯域（TYPE2）", "name": "中伊豆", "観測点名ローマ字": "Nakaizu", "観測点コード": "JIZF", "緯度（度）": 34.9167, "経度（度）": 138.9938, "高さ（ｍ）": "263", "測器の深度（ｍ）": 0, "維持管理機関名": "防災科学技術研究所", "維持管理機関名（英語）": "NIED", "観測開始年（西暦）": 1995, "同月": 3, "観測機器名または観測項目": "広帯域（TYPE2）" }, "geometry": { "type": "Point", "coordinates": [ 138.9938, 34.9167 ] } },
{ "type": "Feature", "properties": { "観測の種類": "広帯域（TYPE2）", "name": "金谷", "観測点名ローマ字": "Kanaya", "観測点コード": "KNYF", "緯度（度）": 34.8738, "経度（度）": 138.0628, "高さ（ｍ）": "259", "測器の深度（ｍ）": 0, "維持管理機関名": "防災科学技術研究所", "維持管理機関名（英語）": "NIED", "観測開始年（西暦）": 2001, "同月": 3, "観測機器名または観測項目": "STS-2" }, "geometry": { "type": "Point", "coordinates": [ 138.0628, 34.8738 ] } },
{ "type": "Feature", "properties": { "観測の種類": "広帯域（TYPE1）", "name": "旭", "観測点名ローマ字": "Asahi", "観測点コード": "NAAF", "緯度（度）": 35.2239, "経度（度）": 137.3622, "高さ（ｍ）": "200", "測器の深度（ｍ）": 0, "維持管理機関名": "防災科学技術研究所", "維持管理機関名（英語）": "NIED", "観測開始年（西暦）": 1997, "同月": 2, "観測機器名または観測項目": "STS-1" }, "geometry": { "type": "Point", "coordinates": [ 137.3622, 35.2239 ] } },
{ "type": "Feature", "properties": { "観測の種類": "広帯域（TYPE1）", "name": "紀和", "観測点名ローマ字": "Kiwa", "観測点コード": "KISF", "緯度（度）": 33.8651, "経度（度）": 135.8906, "高さ（ｍ）": "70", "測器の深度（ｍ）": 0, "維持管理機関名": "防災科学技術研究所", "維持管理機関名（英語）": "NIED", "観測開始年（西暦）": 1996, "同月": 3, "観測機器名または観測項目": "STS-1" }, "geometry": { "type": "Point", "coordinates": [ 135.8906, 33.8651 ] } },
{ "type": "Feature", "properties": { "観測の種類": "広帯域（TYPE2）", "name": "度会", "観測点名ローマ字": "Watarai", "観測点コード": "WTRF", "緯度（度）": 34.3739, "経度（度）": 136.5748, "高さ（ｍ）": "95", "測器の深度（ｍ）": 0, "維持管理機関名": "防災科学技術研究所", "維持管理機関名（英語）": "NIED", "観測開始年（西暦）": 2001, "同月": 3, "観測機器名または観測項目": "広帯域（TYPE2）" }, "geometry": { "type": "Point", "coordinates": [ 136.5748, 34.3739 ] } },
{ "type": "Feature", "properties": { "観測の種類": "広帯域（TYPE2）", "name": "多賀", "観測点名ローマ字": "Taga", "観測点コード": "TGAF", "緯度（度）": 35.1847, "経度（度）": 136.3383, "高さ（ｍ）": "299", "測器の深度（ｍ）": 0, "維持管理機関名": "防災科学技術研究所", "維持管理機関名（英語）": "NIED", "観測開始年（西暦）": 2001, "同月": 3, "観測機器名または観測項目": "STS-2" }, "geometry": { "type": "Point", "coordinates": [ 136.3383, 35.1847 ] } },
{ "type": "Feature", "properties": { "観測の種類": "広帯域（TYPE2）", "name": "弥栄", "観測点名ローマ字": "Yasaka", "観測点コード": "YASF", "緯度（度）": 35.657, "経度（度）": 135.1605, "高さ（ｍ）": "232", "測器の深度（ｍ）": 0, "維持管理機関名": "防災科学技術研究所", "維持管理機関名（英語）": "NIED", "観測開始年（西暦）": 2001, "同月": 3, "観測機器名または観測項目": "広帯域（TYPE2）" }, "geometry": { "type": "Point", "coordinates": [ 135.1605, 35.657 ] } },
{ "type": "Feature", "properties": { "観測の種類": "広帯域（TYPE2）", "name": "阿武山", "観測点名ローマ字": "Abuyama", "観測点コード": "ABUF", "緯度（度）": 34.8635, "経度（度）": 135.5706, "高さ（ｍ）": "139", "測器の深度（ｍ）": 0, "維持管理機関名": "防災科学技術研究所", "維持管理機関名（英語）": "NIED", "観測開始年（西暦）": 1998, "同月": 3, "観測機器名または観測項目": "STS-2" }, "geometry": { "type": "Point", "coordinates": [ 135.5706, 34.8635 ] } },
{ "type": "Feature", "properties": { "観測の種類": "広帯域（TYPE2）", "name": "山崎", "観測点名ローマ字": "Yamasaki", "観測点コード": "YZKF", "緯度（度）": 35.0888, "経度（度）": 134.4594, "高さ（ｍ）": "330", "測器の深度（ｍ）": 0, "維持管理機関名": "防災科学技術研究所", "維持管理機関名（英語）": "NIED", "観測開始年（西暦）": 2000, "同月": 3, "観測機器名または観測項目": "広帯域（TYPE2）" }, "geometry": { "type": "Point", "coordinates": [ 134.4594, 35.0888 ] } },
{ "type": "Feature", "properties": { "観測の種類": "広帯域（TYPE2）", "name": "上富田", "観測点名ローマ字": "Kamitonda", "観測点コード": "KMTF", "緯度（度）": 33.6782, "経度（度）": 135.4899, "高さ（ｍ）": "153", "測器の深度（ｍ）": 0, "維持管理機関名": "防災科学技術研究所", "維持管理機関名（英語）": "NIED", "観測開始年（西暦）": 2004, "同月": 3, "観測機器名または観測項目": "STS-2" }, "geometry": { "type": "Point", "coordinates": [ 135.4899, 33.6782 ] } },
{ "type": "Feature", "properties": { "観測の種類": "広帯域（TYPE2）", "name": "野上", "観測点名ローマ字": "Nokami", "観測点コード": "NOKF", "緯度（度）": 34.1656, "経度（度）": 135.3478, "高さ（ｍ）": "95", "測器の深度（ｍ）": 0, "維持管理機関名": "防災科学技術研究所", "維持管理機関名（英語）": "NIED", "観測開始年（西暦）": 2001, "同月": 3, "観測機器名または観測項目": "STS-2" }, "geometry": { "type": "Point", "coordinates": [ 135.3478, 34.1656 ] } },
{ "type": "Feature", "properties": { "観測の種類": "広帯域（TYPE2）", "name": "西郷", "観測点名ローマ字": "Saigo", "観測点コード": "SAGF", "緯度（度）": 36.2553, "経度（度）": 133.305, "高さ（ｍ）": "72", "測器の深度（ｍ）": 0, "維持管理機関名": "防災科学技術研究所", "維持管理機関名（英語）": "NIED", "観測開始年（西暦）": 2002, "同月": 3, "観測機器名または観測項目": "STS-2" }, "geometry": { "type": "Point", "coordinates": [ 133.305, 36.2553 ] } },
{ "type": "Feature", "properties": { "観測の種類": "広帯域（TYPE2）", "name": "吉田", "観測点名ローマ字": "Yoshida", "観測点コード": "YSIF", "緯度（度）": 35.1942, "経度（度）": 132.8862, "高さ（ｍ）": "386", "測器の深度（ｍ）": 0, "維持管理機関名": "防災科学技術研究所", "維持管理機関名（英語）": "NIED", "観測開始年（西暦）": 2001, "同月": 3, "観測機器名または観測項目": "STS-2" }, "geometry": { "type": "Point", "coordinates": [ 132.8862, 35.1942 ] } },
{ "type": "Feature", "properties": { "観測の種類": "広帯域（TYPE2）", "name": "成羽", "観測点名ローマ字": "Nariwa", "観測点コード": "NRWF", "緯度（度）": 34.7682, "経度（度）": 133.5325, "高さ（ｍ）": "201", "測器の深度（ｍ）": 0, "維持管理機関名": "防災科学技術研究所", "維持管理機関名（英語）": "NIED", "観測開始年（西暦）": 2000, "同月": 3, "観測機器名または観測項目": "広帯域（TYPE2）" }, "geometry": { "type": "Point", "coordinates": [ 133.5325, 34.7682 ] } },
{ "type": "Feature", "properties": { "観測の種類": "広帯域（TYPE2）", "name": "錦", "観測点名ローマ字": "Nishiki", "観測点コード": "NSKF", "緯度（度）": 34.3403, "経度（度）": 132.0018, "高さ（ｍ）": "205", "測器の深度（ｍ）": 0, "維持管理機関名": "防災科学技術研究所", "維持管理機関名（英語）": "NIED", "観測開始年（西暦）": 2001, "同月": 3, "観測機器名または観測項目": "STS-2" }, "geometry": { "type": "Point", "coordinates": [ 132.0018, 34.3403 ] } },
{ "type": "Feature", "properties": { "観測の種類": "広帯域（TYPE2）", "name": "豊田", "観測点名ローマ字": "Toyota", "観測点コード": "YTYF", "緯度（度）": 34.2835, "経度（度）": 131.0364, "高さ（ｍ）": "157", "測器の深度（ｍ）": 0, "維持管理機関名": "防災科学技術研究所", "維持管理機関名（英語）": "NIED", "観測開始年（西暦）": 2000, "同月": 3, "観測機器名または観測項目": "STS-2" }, "geometry": { "type": "Point", "coordinates": [ 131.0364, 34.2835 ] } },
{ "type": "Feature", "properties": { "観測の種類": "広帯域（TYPE2）", "name": "徳島", "観測点名ローマ字": "Tokushima", "観測点コード": "ISIF", "緯度（度）": 34.0606, "経度（度）": 134.4554, "高さ（ｍ）": "27", "測器の深度（ｍ）": 0, "維持管理機関名": "防災科学技術研究所", "維持管理機関名（英語）": "NIED", "観測開始年（西暦）": 1996, "同月": 3, "観測機器名または観測項目": "広帯域（TYPE2）" }, "geometry": { "type": "Point", "coordinates": [ 134.4554, 34.0606 ] } },
{ "type": "Feature", "properties": { "観測の種類": "広帯域（TYPE2）", "name": "玉川", "観測点名ローマ字": "Tamagawa", "観測点コード": "TGWF", "緯度（度）": 33.9734, "経度（度）": 132.9319, "高さ（ｍ）": "300", "測器の深度（ｍ）": 0, "維持管理機関名": "防災科学技術研究所", "維持管理機関名（英語）": "NIED", "観測開始年（西暦）": 2001, "同月": 3, "観測機器名または観測項目": "広帯域（TYPE2）" }, "geometry": { "type": "Point", "coordinates": [ 132.9319, 33.9734 ] } },
{ "type": "Feature", "properties": { "観測の種類": "広帯域（TYPE2）", "name": "西土佐", "観測点名ローマ字": "Nishitosa", "観測点コード": "TSAF", "緯度（度）": 33.1781, "経度（度）": 132.82, "高さ（ｍ）": "143", "測器の深度（ｍ）": 0, "維持管理機関名": "防災科学技術研究所", "維持管理機関名（英語）": "NIED", "観測開始年（西暦）": 2000, "同月": 3, "観測機器名または観測項目": "広帯域（TYPE2）" }, "geometry": { "type": "Point", "coordinates": [ 132.82, 33.1781 ] } },
{ "type": "Feature", "properties": { "観測の種類": "広帯域（TYPE2）", "name": "馬路", "観測点名ローマ字": "Umaji", "観測点コード": "UMJF", "緯度（度）": 33.5795, "経度（度）": 134.0367, "高さ（ｍ）": "363", "測器の深度（ｍ）": 0, "維持管理機関名": "防災科学技術研究所", "維持管理機関名（英語）": "NIED", "観測開始年（西暦）": 2000, "同月": 3, "観測機器名または観測項目": "広帯域（TYPE2）" }, "geometry": { "type": "Point", "coordinates": [ 134.0367, 33.5795 ] } },
{ "type": "Feature", "properties": { "観測の種類": "広帯域（TYPE1）", "name": "大川", "観測点名ローマ字": "Ookawa", "観測点コード": "OKWF", "緯度（度）": 33.8272, "経度（度）": 133.4691, "高さ（ｍ）": "828", "測器の深度（ｍ）": 0, "維持管理機関名": "防災科学技術研究所", "維持管理機関名（英語）": "NIED", "観測開始年（西暦）": 2005, "同月": 3, "観測機器名または観測項目": "STS-1" }, "geometry": { "type": "Point", "coordinates": [ 133.4691, 33.8272 ] } },
{ "type": "Feature", "properties": { "観測の種類": "広帯域（TYPE1）", "name": "背振", "観測点名ローマ字": "Sefuri", "観測点コード": "SBRF", "緯度（度）": 33.5052, "経度（度）": 130.253, "高さ（ｍ）": "260", "測器の深度（ｍ）": 0, "維持管理機関名": "防災科学技術研究所", "維持管理機関名（英語）": "NIED", "観測開始年（西暦）": 1999, "同月": 3, "観測機器名または観測項目": "STS-1" }, "geometry": { "type": "Point", "coordinates": [ 130.253, 33.5052 ] } },
{ "type": "Feature", "properties": { "観測の種類": "広帯域（TYPE2）", "name": "福江", "観測点名ローマ字": "Fukue", "観測点コード": "FUKF", "緯度（度）": 32.7177, "経度（度）": 128.7572, "高さ（ｍ）": "75", "測器の深度（ｍ）": 0, "維持管理機関名": "防災科学技術研究所", "維持管理機関名（英語）": "NIED", "観測開始年（西暦）": 1999, "同月": 3, "観測機器名または観測項目": "広帯域（TYPE2）" }, "geometry": { "type": "Point", "coordinates": [ 128.7572, 32.7177 ] } },
{ "type": "Feature", "properties": { "観測の種類": "広帯域（TYPE2）", "name": "厳原", "観測点名ローマ字": "Izuhara", "観測点コード": "IZHF", "緯度（度）": 34.1359, "経度（度）": 129.2066, "高さ（ｍ）": "386", "測器の深度（ｍ）": 0, "維持管理機関名": "防災科学技術研究所", "維持管理機関名（英語）": "NIED", "観測開始年（西暦）": 2001, "同月": 3, "観測機器名または観測項目": "広帯域（TYPE2）" }, "geometry": { "type": "Point", "coordinates": [ 129.2066, 34.1359 ] } },
{ "type": "Feature", "properties": { "観測の種類": "広帯域（TYPE2）", "name": "外海", "観測点名ローマ字": "Sotome", "観測点コード": "STMF", "緯度（度）": 32.887, "経度（度）": 129.7237, "高さ（ｍ）": "145", "測器の深度（ｍ）": 0, "維持管理機関名": "防災科学技術研究所", "維持管理機関名（英語）": "NIED", "観測開始年（西暦）": 2003, "同月": 3, "観測機器名または観測項目": "広帯域（TYPE2）" }, "geometry": { "type": "Point", "coordinates": [ 129.7237, 32.887 ] } },
{ "type": "Feature", "properties": { "観測の種類": "広帯域（TYPE2）", "name": "砥用", "観測点名ローマ字": "Tomochi", "観測点コード": "TMCF", "緯度（度）": 32.6063, "経度（度）": 130.9151, "高さ（ｍ）": "285", "測器の深度（ｍ）": 0, "維持管理機関名": "防災科学技術研究所", "維持管理機関名（英語）": "NIED", "観測開始年（西暦）": 2001, "同月": 3, "観測機器名または観測項目": "STS-2" }, "geometry": { "type": "Point", "coordinates": [ 130.9151, 32.6063 ] } },
{ "type": "Feature", "properties": { "観測の種類": "広帯域（TYPE2）", "name": "中津", "観測点名ローマ字": "Nakatsu", "観測点コード": "INNF", "緯度（度）": 33.4701, "経度（度）": 131.3062, "高さ（ｍ）": "169", "測器の深度（ｍ）": 0, "維持管理機関名": "防災科学技術研究所", "維持管理機関名（英語）": "NIED", "観測開始年（西暦）": 2001, "同月": 3, "観測機器名または観測項目": "広帯域（TYPE2）" }, "geometry": { "type": "Point", "coordinates": [ 131.3062, 33.4701 ] } },
{ "type": "Feature", "properties": { "観測の種類": "広帯域（TYPE2）", "name": "竹田", "観測点名ローマ字": "Takeda", "観測点コード": "TKDF", "緯度（度）": 32.8176, "経度（度）": 131.3873, "高さ（ｍ）": "760", "測器の深度（ｍ）": 0, "維持管理機関名": "防災科学技術研究所", "維持管理機関名（英語）": "NIED", "観測開始年（西暦）": 1996, "同月": 3, "観測機器名または観測項目": "広帯域（TYPE2）" }, "geometry": { "type": "Point", "coordinates": [ 131.3873, 32.8176 ] } },
{ "type": "Feature", "properties": { "観測の種類": "広帯域（TYPE2）", "name": "高岡", "観測点名ローマ字": "Takaoka", "観測点コード": "TKOF", "緯度（度）": 31.8931, "経度（度）": 131.2321, "高さ（ｍ）": "88", "測器の深度（ｍ）": 0, "維持管理機関名": "防災科学技術研究所", "維持管理機関名（英語）": "NIED", "観測開始年（西暦）": 2001, "同月": 3, "観測機器名または観測項目": "STS-2" }, "geometry": { "type": "Point", "coordinates": [ 131.2321, 31.8931 ] } },
{ "type": "Feature", "properties": { "観測の種類": "広帯域（TYPE1）", "name": "奄美大島", "観測点名ローマ字": "Amamioshima", "観測点コード": "AMMF", "緯度（度）": 28.1571, "経度（度）": 129.3001, "高さ（ｍ）": "12", "測器の深度（ｍ）": 0, "維持管理機関名": "防災科学技術研究所", "維持管理機関名（英語）": "NIED", "観測開始年（西暦）": 1999, "同月": 3, "観測機器名または観測項目": "STS-1" }, "geometry": { "type": "Point", "coordinates": [ 129.3001, 28.1571 ] } },
{ "type": "Feature", "properties": { "観測の種類": "広帯域（TYPE2）", "name": "永田", "観測点名ローマ字": "Nagata", "観測点コード": "KYKF", "緯度（度）": 30.3781, "経度（度）": 130.4099, "高さ（ｍ）": "310", "測器の深度（ｍ）": 0, "維持管理機関名": "防災科学技術研究所", "維持管理機関名（英語）": "NIED", "観測開始年（西暦）": 2001, "同月": 3, "観測機器名または観測項目": "STS-2" }, "geometry": { "type": "Point", "coordinates": [ 130.4099, 30.3781 ] } },
{ "type": "Feature", "properties": { "観測の種類": "広帯域（TYPE2）", "name": "紫尾山", "観測点名ローマ字": "Shibisan", "観測点コード": "SIBF", "緯度（度）": 31.9698, "経度（度）": 130.3486, "高さ（ｍ）": "655", "測器の深度（ｍ）": 0, "維持管理機関名": "防災科学技術研究所", "維持管理機関名（英語）": "NIED", "観測開始年（西暦）": 2002, "同月": 3, "観測機器名または観測項目": "STS-2" }, "geometry": { "type": "Point", "coordinates": [ 130.3486, 31.9698 ] } },
{ "type": "Feature", "properties": { "観測の種類": "広帯域（TYPE2）", "name": "田代", "観測点名ローマ字": "Tashiro", "観測点コード": "TASF", "緯度（度）": 31.1946, "経度（度）": 130.9093, "高さ（ｍ）": "506", "測器の深度（ｍ）": 0, "維持管理機関名": "防災科学技術研究所", "維持管理機関名（英語）": "NIED", "観測開始年（西暦）": 2001, "同月": 3, "観測機器名または観測項目": "STS-2" }, "geometry": { "type": "Point", "coordinates": [ 130.9093, 31.1946 ] } },
{ "type": "Feature", "properties": { "観測の種類": "広帯域（TYPE2）", "name": "石垣", "観測点名ローマ字": "Ishigaki", "観測点コード": "IGKF", "緯度（度）": 24.4119, "経度（度）": 124.1789, "高さ（ｍ）": "78", "測器の深度（ｍ）": 0, "維持管理機関名": "防災科学技術研究所", "維持管理機関名（英語）": "NIED", "観測開始年（西暦）": 2000, "同月": 3, "観測機器名または観測項目": "STS-2" }, "geometry": { "type": "Point", "coordinates": [ 124.1789, 24.4119 ] } },
{ "type": "Feature", "properties": { "観測の種類": "広帯域（TYPE2）", "name": "国頭", "観測点名ローマ字": "Kunigami", "観測点コード": "KGMF", "緯度（度）": 26.7567, "経度（度）": 128.2153, "高さ（ｍ）": "104", "測器の深度（ｍ）": 0, "維持管理機関名": "防災科学技術研究所", "維持管理機関名（英語）": "NIED", "観測開始年（西暦）": 2000, "同月": 3, "観測機器名または観測項目": "STS-2" }, "geometry": { "type": "Point", "coordinates": [ 128.2153, 26.7567 ] } },
{ "type": "Feature", "properties": { "観測の種類": "広帯域（TYPE2）", "name": "与那国", "観測点名ローマ字": "Yonaguni", "観測点コード": "YNGF", "緯度（度）": 24.455, "経度（度）": 123.007, "高さ（ｍ）": "84", "測器の深度（ｍ）": 0, "維持管理機関名": "防災科学技術研究所", "維持管理機関名（英語）": "NIED", "観測開始年（西暦）": 2002, "同月": 3, "観測機器名または観測項目": "STS-2" }, "geometry": { "type": "Point", "coordinates": [ 123.007, 24.455 ] } },
{ "type": "Feature", "properties": { "観測の種類": "広帯域（TYPE2）", "name": "座間味", "観測点名ローマ字": "Zamami", "観測点コード": "ZMMF", "緯度（度）": 26.2328, "経度（度）": 127.3038, "高さ（ｍ）": "22", "測器の深度（ｍ）": 0, "維持管理機関名": "防災科学技術研究所", "維持管理機関名（英語）": "NIED", "観測開始年（西暦）": 2001, "同月": 3, "観測機器名または観測項目": "広帯域（TYPE2）" }, "geometry": { "type": "Point", "coordinates": [ 127.3038, 26.2328 ] } },
{ "type": "Feature", "properties": { "観測の種類": "広帯域（TYPE2）", "name": "DONET A3 広帯域", "観測点名ローマ字": "DONET A3BOBS", "観測点コード": "KMA03.HH", "緯度（度）": 33.6484, "経度（度）": 136.6037, "高さ（ｍ）": "-2063", "測器の深度（ｍ）": 1, "維持管理機関名": "防災科学技術研究所", "維持管理機関名（英語）": "NIED", "観測開始年（西暦）": 2010, "同月": 3, "観測機器名または観測項目": "Guralp CMG3T" }, "geometry": { "type": "Point", "coordinates": [ 136.6037, 33.6484 ] } },
{ "type": "Feature", "properties": { "観測の種類": "広帯域（TYPE2）", "name": "DONET A2 広帯域", "観測点名ローマ字": "DONET A2BOBS", "観測点コード": "KMA02.HH", "緯度（度）": 33.7524, "経度（度）": 136.6488, "高さ（ｍ）": "-2011", "測器の深度（ｍ）": 1, "維持管理機関名": "防災科学技術研究所", "維持管理機関名（英語）": "NIED", "観測開始年（西暦）": 2010, "同月": 10, "観測機器名または観測項目": "Guralp CMG3T" }, "geometry": { "type": "Point", "coordinates": [ 136.6488, 33.7524 ] } },
{ "type": "Feature", "properties": { "観測の種類": "広帯域（TYPE2）", "name": "DONET A4 広帯域", "観測点名ローマ字": "DONET A4BOBS", "観測点コード": "KMA04.HH", "緯度（度）": 33.6781, "経度（度）": 136.4674, "高さ（ｍ）": "-2054", "測器の深度（ｍ）": 1, "維持管理機関名": "防災科学技術研究所", "維持管理機関名（英語）": "NIED", "観測開始年（西暦）": 2010, "同月": 10, "観測機器名または観測項目": "Guralp CMG3T" }, "geometry": { "type": "Point", "coordinates": [ 136.4674, 33.6781 ] } },
{ "type": "Feature", "properties": { "観測の種類": "広帯域（TYPE2）", "name": "DONET D16 広帯域", "観測点名ローマ字": "DONET D16BOBS", "観測点コード": "KMD16.HH", "緯度（度）": 33.3045, "経度（度）": 136.5958, "高さ（ｍ）": "-1970", "測器の深度（ｍ）": 1, "維持管理機関名": "防災科学技術研究所", "維持管理機関名（英語）": "NIED", "観測開始年（西暦）": 2010, "同月": 10, "観測機器名または観測項目": "Guralp CMG3T" }, "geometry": { "type": "Point", "coordinates": [ 136.5958, 33.3045 ] } },
{ "type": "Feature", "properties": { "観測の種類": "広帯域（TYPE2）", "name": "DONET E17 広帯域", "観測点名ローマ字": "DONET E17BOBS", "観測点コード": "KME17.HH", "緯度（度）": 33.485, "経度（度）": 136.4451, "高さ（ｍ）": "-2054", "測器の深度（ｍ）": 1, "維持管理機関名": "防災科学技術研究所", "維持管理機関名（英語）": "NIED", "観測開始年（西暦）": 2010, "同月": 10, "観測機器名または観測項目": "Guralp CMG3T" }, "geometry": { "type": "Point", "coordinates": [ 136.4451, 33.485 ] } },
{ "type": "Feature", "properties": { "観測の種類": "広帯域（TYPE2）", "name": "DONET B6 広帯域", "観測点名ローマ字": "DONET B6BOBS", "観測点コード": "KMB06.HH", "緯度（度）": 33.3584, "経度（度）": 136.9216, "高さ（ｍ）": "-2499", "測器の深度（ｍ）": 1, "維持管理機関名": "防災科学技術研究所", "維持管理機関名（英語）": "NIED", "観測開始年（西暦）": 2011, "同月": 1, "観測機器名または観測項目": "Guralp CMG3T" }, "geometry": { "type": "Point", "coordinates": [ 136.9216, 33.3584 ] } },
{ "type": "Feature", "properties": { "観測の種類": "広帯域（TYPE2）", "name": "DONET B8 広帯域", "観測点名ローマ字": "DONET B8BOBS", "観測点コード": "KMB08.HH", "緯度（度）": 33.4664, "経度（度）": 136.8039, "高さ（ｍ）": "-1924", "測器の深度（ｍ）": 1, "維持管理機関名": "防災科学技術研究所", "維持管理機関名（英語）": "NIED", "観測開始年（西暦）": 2011, "同月": 1, "観測機器名または観測項目": "Guralp CMG3T" }, "geometry": { "type": "Point", "coordinates": [ 136.8039, 33.4664 ] } },
{ "type": "Feature", "properties": { "観測の種類": "広帯域（TYPE2）", "name": "DONET E18 広帯域", "観測点名ローマ字": "DONET E18BOBS", "観測点コード": "KME18.HH", "緯度（度）": 33.386, "経度（度）": 136.3828, "高さ（ｍ）": "-2052", "測器の深度（ｍ）": 1, "維持管理機関名": "防災科学技術研究所", "維持管理機関名（英語）": "NIED", "観測開始年（西暦）": 2011, "同月": 1, "観測機器名または観測項目": "Guralp CMG3T" }, "geometry": { "type": "Point", "coordinates": [ 136.3828, 33.386 ] } },
{ "type": "Feature", "properties": { "観測の種類": "広帯域（TYPE2）", "name": "DONET B5 広帯域", "観測点名ローマ字": "DONET B5BOBS", "観測点コード": "KMB05.HH", "緯度（度）": 33.4772, "経度（度）": 136.9264, "高さ（ｍ）": "-1998", "測器の深度（ｍ）": 1, "維持管理機関名": "防災科学技術研究所", "維持管理機関名（英語）": "NIED", "観測開始年（西暦）": 2011, "同月": 3, "観測機器名または観測項目": "Guralp CMG3T" }, "geometry": { "type": "Point", "coordinates": [ 136.9264, 33.4772 ] } },
{ "type": "Feature", "properties": { "観測の種類": "広帯域（TYPE2）", "name": "DONET C9 広帯域", "観測点名ローマ字": "DONET C9BOBS", "観測点コード": "KMC09.HH", "緯度（度）": 33.0584, "経度（度）": 136.8313, "高さ（ｍ）": "-3511", "測器の深度（ｍ）": 1, "維持管理機関名": "防災科学技術研究所", "維持管理機関名（英語）": "NIED", "観測開始年（西暦）": 2011, "同月": 3, "観測機器名または観測項目": "Guralp CMG3T" }, "geometry": { "type": "Point", "coordinates": [ 136.8313, 33.0584 ] } },
{ "type": "Feature", "properties": { "観測の種類": "広帯域（TYPE2）", "name": "DONET D14 広帯域", "観測点名ローマ字": "DONET D14BOBS", "観測点コード": "KMD14.HH", "緯度（度）": 33.1727, "経度（度）": 136.577, "高さ（ｍ）": "-2350", "測器の深度（ｍ）": 1, "維持管理機関名": "防災科学技術研究所", "維持管理機関名（英語）": "NIED", "観測開始年（西暦）": 2011, "同月": 3, "観測機器名または観測項目": "Guralp CMG3T" }, "geometry": { "type": "Point", "coordinates": [ 136.577, 33.1727 ] } },
{ "type": "Feature", "properties": { "観測の種類": "広帯域（TYPE2）", "name": "DONET A1 広帯域", "観測点名ローマ字": "DONET A1BOBS", "観測点コード": "KMA01.HH", "緯度（度）": 33.8048, "経度（度）": 136.557, "高さ（ｍ）": "-2039", "測器の深度（ｍ）": 1, "維持管理機関名": "防災科学技術研究所", "維持管理機関名（英語）": "NIED", "観測開始年（西暦）": 2011, "同月": 5, "観測機器名または観測項目": "Guralp CMG3T" }, "geometry": { "type": "Point", "coordinates": [ 136.557, 33.8048 ] } },
{ "type": "Feature", "properties": { "観測の種類": "広帯域（TYPE2）", "name": "DONET B7 広帯域", "観測点名ローマ字": "DONET B7BOBS", "観測点コード": "KMB07.HH", "緯度（度）": 33.3613, "経度（度）": 136.8072, "高さ（ｍ）": "-1980", "測器の深度（ｍ）": 1, "維持管理機関名": "防災科学技術研究所", "維持管理機関名（英語）": "NIED", "観測開始年（西暦）": 2011, "同月": 5, "観測機器名または観測項目": "Guralp CMG3T" }, "geometry": { "type": "Point", "coordinates": [ 136.8072, 33.3613 ] } },
{ "type": "Feature", "properties": { "観測の種類": "広帯域（TYPE2）", "name": "DONET D13 広帯域", "観測点名ローマ字": "DONET D13BOBS", "観測点コード": "KMD13.HH", "緯度（度）": 33.2201, "経度（度）": 136.6903, "高さ（ｍ）": "-2441", "測器の深度（ｍ）": 1, "維持管理機関名": "防災科学技術研究所", "維持管理機関名（英語）": "NIED", "観測開始年（西暦）": 2011, "同月": 5, "観測機器名または観測項目": "Guralp CMG3T" }, "geometry": { "type": "Point", "coordinates": [ 136.6903, 33.2201 ] } },
{ "type": "Feature", "properties": { "観測の種類": "広帯域（TYPE2）", "name": "DONET D15 広帯域", "観測点名ローマ字": "DONET D15BOBS", "観測点コード": "KMD15.HH", "緯度（度）": 33.2331, "経度（度）": 136.5631, "高さ（ｍ）": "-1909", "測器の深度（ｍ）": 1, "維持管理機関名": "防災科学技術研究所", "維持管理機関名（英語）": "NIED", "観測開始年（西暦）": 2011, "同月": 5, "観測機器名または観測項目": "Guralp CMG3T" }, "geometry": { "type": "Point", "coordinates": [ 136.5631, 33.2331 ] } },
{ "type": "Feature", "properties": { "観測の種類": "広帯域（TYPE2）", "name": "DONET E19 広帯域", "観測点名ローマ字": "DONET E19BOBS", "観測点コード": "KME19.HH", "緯度（度）": 33.4459, "経度（度）": 136.2564, "高さ（ｍ）": "-1909", "測器の深度（ｍ）": 1, "維持管理機関名": "防災科学技術研究所", "維持管理機関名（英語）": "NIED", "観測開始年（西暦）": 2011, "同月": 5, "観測機器名または観測項目": "Guralp CMG3T" }, "geometry": { "type": "Point", "coordinates": [ 136.2564, 33.4459 ] } },
{ "type": "Feature", "properties": { "観測の種類": "広帯域（TYPE2）", "name": "DONET E20 広帯域", "観測点名ローマ字": "DONET E20BOBS", "観測点コード": "KME20.HH", "緯度（度）": 33.5444, "経度（度）": 136.3325, "高さ（ｍ）": "-1977", "測器の深度（ｍ）": 1, "維持管理機関名": "防災科学技術研究所", "維持管理機関名（英語）": "NIED", "観測開始年（西暦）": 2011, "同月": 5, "観測機器名または観測項目": "Guralp CMG3T" }, "geometry": { "type": "Point", "coordinates": [ 136.3325, 33.5444 ] } },
{ "type": "Feature", "properties": { "観測の種類": "広帯域（TYPE2）", "name": "DONET C10 広帯域", "観測点名ローマ字": "DONET C10BOBS", "観測点コード": "KMC10.HH", "緯度（度）": 33.0533, "経度（度）": 136.9335, "高さ（ｍ）": "-4247", "測器の深度（ｍ）": null, "維持管理機関名": "防災科学技術研究所", "維持管理機関名（英語）": "NIED", "観測開始年（西暦）": 2011, "同月": 7, "観測機器名または観測項目": "Guralp CMG3T" }, "geometry": { "type": "Point", "coordinates": [ 136.9335, 33.0533 ] } },
{ "type": "Feature", "properties": { "観測の種類": "広帯域（TYPE2）", "name": "DONET C11 広帯域", "観測点名ローマ字": "DONET C11BOBS", "観測点コード": "KMC11.HH", "緯度（度）": 33.0033, "経度（度）": 136.779, "高さ（ｍ）": "-4378", "測器の深度（ｍ）": null, "維持管理機関名": "防災科学技術研究所", "維持管理機関名（英語）": "NIED", "観測開始年（西暦）": 2011, "同月": 7, "観測機器名または観測項目": "Guralp CMG3T" }, "geometry": { "type": "Point", "coordinates": [ 136.779, 33.0033 ] } },
{ "type": "Feature", "properties": { "観測の種類": "広帯域（TYPE2）", "name": "DONET C12 広帯域", "観測点名ローマ字": "DONET C12BOBS", "観測点コード": "KMC12.HH", "緯度（度）": 33.1279, "経度（度）": 136.8188, "高さ（ｍ）": "-3784", "測器の深度（ｍ）": 1, "維持管理機関名": "防災科学技術研究所", "維持管理機関名（英語）": "NIED", "観測開始年（西暦）": 2011, "同月": 7, "観測機器名または観測項目": "Guralp CMG3T" }, "geometry": { "type": "Point", "coordinates": [ 136.8188, 33.1279 ] } },
{ "type": "Feature", "properties": { "観測の種類": "広帯域（TYPE2）", "name": "DONET2 A1 広帯域", "観測点名ローマ字": "DONET2 A1BOBS", "観測点コード": "MRA01.HH", "緯度（度）": 33.4085, "経度（度）": 134.7449, "高さ（ｍ）": "-1375", "測器の深度（ｍ）": 1, "維持管理機関名": "防災科学技術研究所", "維持管理機関名（英語）": "NIED", "観測開始年（西暦）": 2014, "同月": 9, "観測機器名または観測項目": "Guralp CMG3T" }, "geometry": { "type": "Point", "coordinates": [ 134.7449, 33.4085 ] } },
{ "type": "Feature", "properties": { "観測の種類": "広帯域（TYPE2）", "name": "DONET2 A2 広帯域", "観測点名ローマ字": "DONET2 A2BOBS", "観測点コード": "MRA02.HH", "緯度（度）": 33.3393, "経度（度）": 134.8641, "高さ（ｍ）": "-1360", "測器の深度（ｍ）": 1, "維持管理機関名": "防災科学技術研究所", "維持管理機関名（英語）": "NIED", "観測開始年（西暦）": 2015, "同月": 4, "観測機器名または観測項目": "Guralp CMG3T" }, "geometry": { "type": "Point", "coordinates": [ 134.8641, 33.3393 ] } },
{ "type": "Feature", "properties": { "観測の種類": "広帯域（TYPE2）", "name": "DONET2 A3 広帯域", "観測点名ローマ字": "DONET2 A3BOBS", "観測点コード": "MRA03.HH", "緯度（度）": 33.249, "経度（度）": 134.7691, "高さ（ｍ）": "-1352", "測器の深度（ｍ）": 1, "維持管理機関名": "防災科学技術研究所", "維持管理機関名（英語）": "NIED", "観測開始年（西暦）": 2014, "同月": 3, "観測機器名または観測項目": "Guralp CMG3T" }, "geometry": { "type": "Point", "coordinates": [ 134.7691, 33.249 ] } },
{ "type": "Feature", "properties": { "観測の種類": "広帯域（TYPE2）", "name": "DONET2 A4 広帯域", "観測点名ローマ字": "DONET2 A4BOBS", "観測点コード": "MRA04.HH", "緯度（度）": 33.3205, "経度（度）": 134.6724, "高さ（ｍ）": "-1372", "測器の深度（ｍ）": 1, "維持管理機関名": "防災科学技術研究所", "維持管理機関名（英語）": "NIED", "観測開始年（西暦）": 2014, "同月": 9, "観測機器名または観測項目": "Guralp CMG3T" }, "geometry": { "type": "Point", "coordinates": [ 134.6724, 33.3205 ] } },
{ "type": "Feature", "properties": { "観測の種類": "広帯域（TYPE2）", "name": "DONET2 B5 広帯域", "観測点名ローマ字": "DONET2 B5BOBS", "観測点コード": "MRB05.HH", "緯度（度）": 33.3222, "経度（度）": 135.0667, "高さ（ｍ）": "-1470", "測器の深度（ｍ）": 1, "維持管理機関名": "防災科学技術研究所", "維持管理機関名（英語）": "NIED", "観測開始年（西暦）": 2014, "同月": 9, "観測機器名または観測項目": "Guralp CMG3T" }, "geometry": { "type": "Point", "coordinates": [ 135.0667, 33.3222 ] } },
{ "type": "Feature", "properties": { "観測の種類": "広帯域（TYPE2）", "name": "DONET2 B6 広帯域", "観測点名ローマ字": "DONET2 B6BOBS", "観測点コード": "MRB06.HH", "緯度（度）": 33.2252, "経度（度）": 135.1698, "高さ（ｍ）": "-1388", "測器の深度（ｍ）": null, "維持管理機関名": "防災科学技術研究所", "維持管理機関名（英語）": "NIED", "観測開始年（西暦）": 2015, "同月": 4, "観測機器名または観測項目": "Guralp CMG3T" }, "geometry": { "type": "Point", "coordinates": [ 135.1698, 33.2252 ] } },
{ "type": "Feature", "properties": { "観測の種類": "広帯域（TYPE2）", "name": "DONET2 B7 広帯域", "観測点名ローマ字": "DONET2 B7BOBS", "観測点コード": "MRB07.HH", "緯度（度）": 33.1755, "経度（度）": 135.0964, "高さ（ｍ）": "-1077", "測器の深度（ｍ）": null, "維持管理機関名": "防災科学技術研究所", "維持管理機関名（英語）": "NIED", "観測開始年（西暦）": 2015, "同月": 6, "観測機器名または観測項目": "Guralp CMG3T" }, "geometry": { "type": "Point", "coordinates": [ 135.0964, 33.1755 ] } },
{ "type": "Feature", "properties": { "観測の種類": "広帯域（TYPE2）", "name": "DONET2 B8 広帯域", "観測点名ローマ字": "DONET2 B8BOBS", "観測点コード": "MRB08.HH", "緯度（度）": 33.275, "経度（度）": 134.9869, "高さ（ｍ）": "-1262", "測器の深度（ｍ）": 1, "維持管理機関名": "防災科学技術研究所", "維持管理機関名（英語）": "NIED", "観測開始年（西暦）": 2014, "同月": 9, "観測機器名または観測項目": "Guralp CMG3T" }, "geometry": { "type": "Point", "coordinates": [ 134.9869, 33.275 ] } },
{ "type": "Feature", "properties": { "観測の種類": "広帯域（TYPE2）", "name": "DONET2 C9 広帯域", "観測点名ローマ字": "DONET2 C9BOBS", "観測点コード": "MRC09.HH", "緯度（度）": 33.228, "経度（度）": 135.4585, "高さ（ｍ）": "-1555", "測器の深度（ｍ）": null, "維持管理機関名": "防災科学技術研究所", "維持管理機関名（英語）": "NIED", "観測開始年（西暦）": 2015, "同月": 6, "観測機器名または観測項目": "Guralp CMG3T" }, "geometry": { "type": "Point", "coordinates": [ 135.4585, 33.228 ] } },
{ "type": "Feature", "properties": { "観測の種類": "広帯域（TYPE2）", "name": "DONET2 C10 広帯域", "観測点名ローマ字": "DONET2 C10BOBS", "観測点コード": "MRC10.HH", "緯度（度）": 33.1251, "経度（度）": 135.5249, "高さ（ｍ）": "-1720", "測器の深度（ｍ）": null, "維持管理機関名": "防災科学技術研究所", "維持管理機関名（英語）": "NIED", "観測開始年（西暦）": 2015, "同月": 7, "観測機器名または観測項目": "Guralp CMG3T" }, "geometry": { "type": "Point", "coordinates": [ 135.5249, 33.1251 ] } },
{ "type": "Feature", "properties": { "観測の種類": "広帯域（TYPE2）", "name": "DONET2 C11 広帯域", "観測点名ローマ字": "DONET2 C11BOBS", "観測点コード": "MRC11.HH", "緯度（度）": 33.0837, "経度（度）": 135.4121, "高さ（ｍ）": "-2001", "測器の深度（ｍ）": null, "維持管理機関名": "防災科学技術研究所", "維持管理機関名（英語）": "NIED", "観測開始年（西暦）": 2014, "同月": 9, "観測機器名または観測項目": "Guralp CMG3T" }, "geometry": { "type": "Point", "coordinates": [ 135.4121, 33.0837 ] } },
{ "type": "Feature", "properties": { "観測の種類": "広帯域（TYPE2）", "name": "DONET2 C12 広帯域", "観測点名ローマ字": "DONET2 C12BOBS", "観測点コード": "MRC12.HH", "緯度（度）": 33.1752, "経度（度）": 135.3414, "高さ（ｍ）": "-1317", "測器の深度（ｍ）": null, "維持管理機関名": "防災科学技術研究所", "維持管理機関名（英語）": "NIED", "観測開始年（西暦）": 2015, "同月": 6, "観測機器名または観測項目": "Guralp CMG3T" }, "geometry": { "type": "Point", "coordinates": [ 135.3414, 33.1752 ] } },
{ "type": "Feature", "properties": { "観測の種類": "広帯域（TYPE2）", "name": "DONET2 D13 広帯域", "観測点名ローマ字": "DONET2 D13BOBS", "観測点コード": "MRD13.HH", "緯度（度）": 33.1594, "経度（度）": 135.7557, "高さ（ｍ）": "-2353", "測器の深度（ｍ）": null, "維持管理機関名": "防災科学技術研究所", "維持管理機関名（英語）": "NIED", "観測開始年（西暦）": 2015, "同月": 11, "観測機器名または観測項目": "Guralp CMG3T" }, "geometry": { "type": "Point", "coordinates": [ 135.7557, 33.1594 ] } },
{ "type": "Feature", "properties": { "観測の種類": "広帯域（TYPE2）", "name": "DONET2 D14 広帯域", "観測点名ローマ字": "DONET2 D14BOBS", "観測点コード": "MRD14.HH", "緯度（度）": 33.1359, "経度（度）": 135.8584, "高さ（ｍ）": "-2398", "測器の深度（ｍ）": 1, "維持管理機関名": "防災科学技術研究所", "維持管理機関名（英語）": "NIED", "観測開始年（西暦）": 2015, "同月": 11, "観測機器名または観測項目": "Guralp CMG3T" }, "geometry": { "type": "Point", "coordinates": [ 135.8584, 33.1359 ] } },
{ "type": "Feature", "properties": { "観測の種類": "広帯域（TYPE2）", "name": "DONET2 D15 広帯域", "観測点名ローマ字": "DONET2 D15BOBS", "観測点コード": "MRD15.HH", "緯度（度）": 33.142, "経度（度）": 135.9586, "高さ（ｍ）": "-2244", "測器の深度（ｍ）": 1, "維持管理機関名": "防災科学技術研究所", "維持管理機関名（英語）": "NIED", "観測開始年（西暦）": 2015, "同月": 11, "観測機器名または観測項目": "Guralp CMG3T" }, "geometry": { "type": "Point", "coordinates": [ 135.9586, 33.142 ] } },
{ "type": "Feature", "properties": { "観測の種類": "広帯域（TYPE2）", "name": "DONET2 D16 広帯域", "観測点名ローマ字": "DONET2 D16BOBS", "観測点コード": "MRD16.HH", "緯度（度）": 33.0299, "経度（度）": 135.8401, "高さ（ｍ）": "-2415", "測器の深度（ｍ）": 1, "維持管理機関名": "防災科学技術研究所", "維持管理機関名（英語）": "NIED", "観測開始年（西暦）": 2016, "同月": 2, "観測機器名または観測項目": "Guralp CMG3T" }, "geometry": { "type": "Point", "coordinates": [ 135.8401, 33.0299 ] } },
{ "type": "Feature", "properties": { "観測の種類": "広帯域（TYPE2）", "name": "DONET2 D17 広帯域", "観測点名ローマ字": "DONET2 D17BOBS", "観測点コード": "MRD17.HH", "緯度（度）": 33.0915, "経度（度）": 135.7144, "高さ（ｍ）": "-2700", "測器の深度（ｍ）": null, "維持管理機関名": "防災科学技術研究所", "維持管理機関名（英語）": "NIED", "観測開始年（西暦）": 2016, "同月": 2, "観測機器名または観測項目": "Guralp CMG3T" }, "geometry": { "type": "Point", "coordinates": [ 135.7144, 33.0915 ] } },
{ "type": "Feature", "properties": { "観測の種類": "広帯域（TYPE2）", "name": "DONET2 E18 広帯域", "観測点名ローマ字": "DONET2 E18BOBS", "観測点コード": "MRE18.HH", "緯度（度）": 32.927, "経度（度）": 135.7747, "高さ（ｍ）": "-3548", "測器の深度（ｍ）": 1, "維持管理機関名": "防災科学技術研究所", "維持管理機関名（英語）": "NIED", "観測開始年（西暦）": 2015, "同月": 3, "観測機器名または観測項目": "Guralp CMG3T" }, "geometry": { "type": "Point", "coordinates": [ 135.7747, 32.927 ] } },
{ "type": "Feature", "properties": { "観測の種類": "広帯域（TYPE2）", "name": "DONET2 E19 広帯域", "観測点名ローマ字": "DONET2 E19BOBS", "観測点コード": "MRE19.HH", "緯度（度）": 32.892, "経度（度）": 135.8336, "高さ（ｍ）": "-3456", "測器の深度（ｍ）": 1, "維持管理機関名": "防災科学技術研究所", "維持管理機関名（英語）": "NIED", "観測開始年（西暦）": 2015, "同月": 5, "観測機器名または観測項目": "Guralp CMG3T" }, "geometry": { "type": "Point", "coordinates": [ 135.8336, 32.892 ] } },
{ "type": "Feature", "properties": { "観測の種類": "広帯域（TYPE2）", "name": "DONET2 E20 広帯域", "観測点名ローマ字": "DONET2 E20BOBS", "観測点コード": "MRE20.HH", "緯度（度）": 32.8017, "経度（度）": 135.7733, "高さ（ｍ）": "-3603", "測器の深度（ｍ）": 1, "維持管理機関名": "防災科学技術研究所", "維持管理機関名（英語）": "NIED", "観測開始年（西暦）": 2015, "同月": 11, "観測機器名または観測項目": "Guralp CMG3T" }, "geometry": { "type": "Point", "coordinates": [ 135.7733, 32.8017 ] } },
{ "type": "Feature", "properties": { "観測の種類": "広帯域（TYPE2）", "name": "DONET2 E21 広帯域", "観測点名ローマ字": "DONET2 E21BOBS", "観測点コード": "MRE21.HH", "緯度（度）": 32.8603, "経度（度）": 135.667, "高さ（ｍ）": "-3534", "測器の深度（ｍ）": null, "維持管理機関名": "防災科学技術研究所", "維持管理機関名（英語）": "NIED", "観測開始年（西暦）": 2015, "同月": 6, "観測機器名または観測項目": "Guralp CMG3T" }, "geometry": { "type": "Point", "coordinates": [ 135.667, 32.8603 ] } },
{ "type": "Feature", "properties": { "観測の種類": "広帯域（TYPE2）", "name": "DONET2 F22 広帯域", "観測点名ローマ字": "DONET2 F22BOBS", "観測点コード": "MRF22.HH", "緯度（度）": 32.988, "経度（度）": 135.225, "高さ（ｍ）": "-2104", "測器の深度（ｍ）": null, "維持管理機関名": "防災科学技術研究所", "維持管理機関名（英語）": "NIED", "観測開始年（西暦）": 2015, "同月": 5, "観測機器名または観測項目": "Guralp CMG3T" }, "geometry": { "type": "Point", "coordinates": [ 135.225, 32.988 ] } },
{ "type": "Feature", "properties": { "観測の種類": "広帯域（TYPE2）", "name": "DONET2 F23広帯域", "観測点名ローマ字": "DONET2 F23BOBS", "観測点コード": "MRF23.HH", "緯度（度）": 32.8827, "経度（度）": 135.3082, "高さ（ｍ）": "-2646", "測器の深度（ｍ）": 1, "維持管理機関名": "防災科学技術研究所", "維持管理機関名（英語）": "NIED", "観測開始年（西暦）": 2015, "同月": 6, "観測機器名または観測項目": "Guralp CMG3T" }, "geometry": { "type": "Point", "coordinates": [ 135.3082, 32.8827 ] } },
{ "type": "Feature", "properties": { "観測の種類": "広帯域（TYPE2）", "name": "DONET2 F24広帯域", "観測点名ローマ字": "DONET2 F24BOBS", "観測点コード": "MRF24.HH", "緯度（度）": 32.8545, "経度（度）": 135.1916, "高さ（ｍ）": "-2393", "測器の深度（ｍ）": 1, "維持管理機関名": "防災科学技術研究所", "維持管理機関名（英語）": "NIED", "観測開始年（西暦）": 2015, "同月": 11, "観測機器名または観測項目": "Guralp CMG3T" }, "geometry": { "type": "Point", "coordinates": [ 135.1916, 32.8545 ] } },
{ "type": "Feature", "properties": { "観測の種類": "広帯域（TYPE2）", "name": "DONET2 F25広帯域", "観測点名ローマ字": "DONET2 F25BOBS", "観測点コード": "MRF25.HH", "緯度（度）": 32.8919, "経度（度）": 135.1538, "高さ（ｍ）": "-2278", "測器の深度（ｍ）": 1, "維持管理機関名": "防災科学技術研究所", "維持管理機関名（英語）": "NIED", "観測開始年（西暦）": 2015, "同月": 3, "観測機器名または観測項目": "Guralp CMG3T" }, "geometry": { "type": "Point", "coordinates": [ 135.1538, 32.8919 ] } },
{ "type": "Feature", "properties": { "観測の種類": "広帯域（TYPE2）", "name": "DONET2 G26広帯域", "観測点名ローマ字": "DONET2 G26BOBS", "観測点コード": "MRG26.HH", "緯度（度）": 32.7615, "経度（度）": 134.5167, "高さ（ｍ）": "-1855", "測器の深度（ｍ）": 1, "維持管理機関名": "防災科学技術研究所", "維持管理機関名（英語）": "NIED", "観測開始年（西暦）": 2015, "同月": 5, "観測機器名または観測項目": "Guralp CMG3T" }, "geometry": { "type": "Point", "coordinates": [ 134.5167, 32.7615 ] } },
{ "type": "Feature", "properties": { "観測の種類": "広帯域（TYPE2）", "name": "DONET2 G27広帯域", "観測点名ローマ字": "DONET2 G27BOBS", "観測点コード": "MRG27.HH", "緯度（度）": 32.7089, "経度（度）": 134.5996, "高さ（ｍ）": "-2494", "測器の深度（ｍ）": 1, "維持管理機関名": "防災科学技術研究所", "維持管理機関名（英語）": "NIED", "観測開始年（西暦）": 2015, "同月": 10, "観測機器名または観測項目": "Guralp CMG3T" }, "geometry": { "type": "Point", "coordinates": [ 134.5996, 32.7089 ] } },
{ "type": "Feature", "properties": { "観測の種類": "広帯域（TYPE2）", "name": "DONET2 G28広帯域", "観測点名ローマ字": "DONET2 G28BOBS", "観測点コード": "MRG28.HH", "緯度（度）": 32.6251, "経度（度）": 134.5164, "高さ（ｍ）": "-2499", "測器の深度（ｍ）": 1, "維持管理機関名": "防災科学技術研究所", "維持管理機関名（英語）": "NIED", "観測開始年（西暦）": 2015, "同月": 11, "観測機器名または観測項目": "Guralp CMG3T" }, "geometry": { "type": "Point", "coordinates": [ 134.5164, 32.6251 ] } },
{ "type": "Feature", "properties": { "観測の種類": "広帯域（TYPE2）", "name": "DONET2 G29広帯域", "観測点名ローマ字": "DONET2 G29BOBS", "観測点コード": "MRG29.HH", "緯度（度）": 32.6752, "経度（度）": 134.4334, "高さ（ｍ）": "-2141", "測器の深度（ｍ）": 1, "維持管理機関名": "防災科学技術研究所", "維持管理機関名（英語）": "NIED", "観測開始年（西暦）": 2015, "同月": 6, "観測機器名または観測項目": "Guralp CMG3T" }, "geometry": { "type": "Point", "coordinates": [ 134.4334, 32.6752 ] } },
{ "type": "Feature", "properties": { "観測の種類": "広帯域（TYPE2）", "name": "DONET1 C21広帯域", "観測点名ローマ字": "DONET C21BOBS", "観測点コード": "KMC21.HH", "緯度（度）": 32.9506, "経度（度）": 136.7417, "高さ（ｍ）": "-4449", "測器の深度（ｍ）": null, "維持管理機関名": "防災科学技術研究所", "維持管理機関名（英語）": "NIED", "観測開始年（西暦）": 2016, "同月": 6, "観測機器名または観測項目": "Guralp CMG3T" }, "geometry": { "type": "Point", "coordinates": [ 136.7417, 32.9506 ] } },
{ "type": "Feature", "properties": { "観測の種類": "広帯域（TYPE2）", "name": "DONET1E22広帯域", "観測点名ローマ字": "DONET E22BOBS", "観測点コード": "KME22.HH", "緯度（度）": 33.3303, "経度（度）": 136.2702, "高さ（ｍ）": "-1841", "測器の深度（ｍ）": null, "維持管理機関名": "防災科学技術研究所", "維持管理機関名（英語）": "NIED", "観測開始年（西暦）": 2015, "同月": 11, "観測機器名または観測項目": "Guralp CMG3T" }, "geometry": { "type": "Point", "coordinates": [ 136.2702, 33.3303 ] } },
{ "type": "Feature", "properties": { "観測の種類": "広帯域（TYPE2）", "name": "C0002", "観測点名ローマ字": "C0002", "観測点コード": "C0002", "緯度（度）": 33.3002, "経度（度）": 136.6358, "高さ（ｍ）": "-1,938", "測器の深度（ｍ）": -900, "維持管理機関名": "海洋研究開発機構", "維持管理機関名（英語）": "JAMSTEC", "観測開始年（西暦）": 2013, "同月": 1, "観測機器名または観測項目": "Guralp CMG3T" }, "geometry": { "type": "Point", "coordinates": [ 136.6358, 33.3002 ] } },
{ "type": "Feature", "properties": { "観測の種類": "広帯域（TYPE2）", "name": "C0010", "観測点名ローマ字": "C0010", "観測点コード": "C0010", "緯度（度）": 33.21, "経度（度）": 136.6865, "高さ（ｍ）": "-2,523", "測器の深度（ｍ）": -600, "維持管理機関名": "海洋研究開発機構", "維持管理機関名（英語）": "JAMSTEC", "観測開始年（西暦）": 2016, "同月": 6, "観測機器名または観測項目": "Guralp CMG3T" }, "geometry": { "type": "Point", "coordinates": [ 136.6865, 33.21 ] } },
{ "type": "Feature", "properties": { "観測の種類": "広帯域（TYPE2）", "name": "C0006", "観測点名ローマ字": "C0006", "観測点コード": "C0006", "緯度（度）": 33.0273, "経度（度）": 136.7941, "高さ（ｍ）": "-3,874", "測器の深度（ｍ）": -415, "維持管理機関名": "海洋研究開発機構", "維持管理機関名（英語）": "JAMSTEC", "観測開始年（西暦）": 2018, "同月": 3, "観測機器名または観測項目": "Guralp CMG3T" }, "geometry": { "type": "Point", "coordinates": [ 136.7941, 33.0273 ] } },
{ "type": "Feature", "properties": { "観測の種類": "広帯域（TYPE2）", "name": "上川朝日      ", "観測点名ローマ字": "Kamikawa-asahi", "観測点コード": "KAMIAS", "緯度（度）": 44.1188, "経度（度）": 142.593, "高さ（ｍ）": "220", "測器の深度（ｍ）": 0, "維持管理機関名": "気象庁", "維持管理機関名（英語）": "JMA", "観測開始年（西暦）": 1994, "同月": 4, "観測機器名または観測項目": null }, "geometry": { "type": "Point", "coordinates": [ 142.593, 44.1188 ] } },
{ "type": "Feature", "properties": { "観測の種類": "広帯域（TYPE2）", "name": "恵庭          ", "観測点名ローマ字": "Eniwa", "観測点コード": "ENIWA ", "緯度（度）": 42.8427, "経度（度）": 141.4462, "高さ（ｍ）": "185", "測器の深度（ｍ）": 0, "維持管理機関名": "気象庁", "維持管理機関名（英語）": "JMA", "観測開始年（西暦）": 1994, "同月": 4, "観測機器名または観測項目": null }, "geometry": { "type": "Point", "coordinates": [ 141.4462, 42.8427 ] } },
{ "type": "Feature", "properties": { "観測の種類": "広帯域（TYPE2）", "name": "えりも        ", "観測点名ローマ字": "Erimo", "観測点コード": "ERIMO ", "緯度（度）": 42.0185, "経度（度）": 143.1535, "高さ（ｍ）": "40", "測器の深度（ｍ）": 0, "維持管理機関名": "気象庁", "維持管理機関名（英語）": "JMA", "観測開始年（西暦）": 1994, "同月": 4, "観測機器名または観測項目": null }, "geometry": { "type": "Point", "coordinates": [ 143.1535, 42.0185 ] } },
{ "type": "Feature", "properties": { "観測の種類": "広帯域（TYPE2）", "name": "青森天間林", "観測点名ローマ字": "Aomori-tenmabayashi", "観測点コード": "TENMAB", "緯度（度）": 40.7895, "経度（度）": 141.0647, "高さ（ｍ）": "130", "測器の深度（ｍ）": 0, "維持管理機関名": "気象庁", "維持管理機関名（英語）": "JMA", "観測開始年（西暦）": 1994, "同月": 4, "観測機器名または観測項目": null }, "geometry": { "type": "Point", "coordinates": [ 141.0647, 40.7895 ] } },
{ "type": "Feature", "properties": { "観測の種類": "広帯域（TYPE2）", "name": "宮城丸森      ", "観測点名ローマ字": "Miyagi-marumori", "観測点コード": "MARUMO", "緯度（度）": 37.869, "経度（度）": 140.7897, "高さ（ｍ）": "100", "測器の深度（ｍ）": 0, "維持管理機関名": "気象庁", "維持管理機関名（英語）": "JMA", "観測開始年（西暦）": 1994, "同月": 4, "観測機器名または観測項目": null }, "geometry": { "type": "Point", "coordinates": [ 140.7897, 37.869 ] } },
{ "type": "Feature", "properties": { "観測の種類": "広帯域（TYPE2）", "name": "茨城八郷      ", "観測点名ローマ字": "Ibaraki-yasato", "観測点コード": "IYASAT", "緯度（度）": 36.2308, "経度（度）": 140.1907, "高さ（ｍ）": "31", "測器の深度（ｍ）": 0, "維持管理機関名": "気象庁", "維持管理機関名（英語）": "JMA", "観測開始年（西暦）": 1994, "同月": 4, "観測機器名または観測項目": null }, "geometry": { "type": "Point", "coordinates": [ 140.1907, 36.2308 ] } },
{ "type": "Feature", "properties": { "観測の種類": "広帯域（TYPE2）", "name": "八丈島三根", "観測点名ローマ字": "Hachijojima-mitsune", "観測点コード": "HACHJ3", "緯度（度）": 33.1153, "経度（度）": 139.8138, "高さ（ｍ）": "70", "測器の深度（ｍ）": 0, "維持管理機関名": "気象庁", "維持管理機関名（英語）": "JMA", "観測開始年（西暦）": 1996, "同月": 12, "観測機器名または観測項目": null }, "geometry": { "type": "Point", "coordinates": [ 139.8138, 33.1153 ] } },
{ "type": "Feature", "properties": { "観測の種類": "広帯域（TYPE2）", "name": "父島三日月山", "観測点名ローマ字": "Chichijima-mikazukiyama", "観測点コード": "CHIJI3", "緯度（度）": 27.0957, "経度（度）": 142.1845, "高さ（ｍ）": "145", "測器の深度（ｍ）": 0, "維持管理機関名": "気象庁", "維持管理機関名（英語）": "JMA", "観測開始年（西暦）": 1994, "同月": 4, "観測機器名または観測項目": null }, "geometry": { "type": "Point", "coordinates": [ 142.1845, 27.0957 ] } },
{ "type": "Feature", "properties": { "観測の種類": "広帯域（TYPE2）", "name": "佐渡島銀山", "観測点名ローマ字": "Sadogashima-ginzan", "観測点コード": "SADO  ", "緯度（度）": 38.04, "経度（度）": 138.2572, "高さ（ｍ）": "146", "測器の深度（ｍ）": 0, "維持管理機関名": "気象庁", "維持管理機関名（英語）": "JMA", "観測開始年（西暦）": 1994, "同月": 4, "観測機器名または観測項目": null }, "geometry": { "type": "Point", "coordinates": [ 138.2572, 38.04 ] } },
{ "type": "Feature", "properties": { "観測の種類": "広帯域（TYPE2）", "name": "岐阜黒川      ", "観測点名ローマ字": "Gifu-kurokawa", "観測点コード": "KUROKA", "緯度（度）": 35.604, "経度（度）": 137.3542, "高さ（ｍ）": "580", "測器の深度（ｍ）": 0, "維持管理機関名": "気象庁", "維持管理機関名（英語）": "JMA", "観測開始年（西暦）": 1994, "同月": 4, "観測機器名または観測項目": null }, "geometry": { "type": "Point", "coordinates": [ 137.3542, 35.604 ] } },
{ "type": "Feature", "properties": { "観測の種類": "広帯域（TYPE2）", "name": "静岡相良      ", "観測点名ローマ字": "Shizuoka-sagara", "観測点コード": "SAGARA", "緯度（度）": 34.6777, "経度（度）": 138.183, "高さ（ｍ）": "107", "測器の深度（ｍ）": 0, "維持管理機関名": "気象庁", "維持管理機関名（英語）": "JMA", "観測開始年（西暦）": 1994, "同月": 4, "観測機器名または観測項目": null }, "geometry": { "type": "Point", "coordinates": [ 138.183, 34.6777 ] } },
{ "type": "Feature", "properties": { "観測の種類": "広帯域（TYPE2）", "name": "京都和知      ", "観測点名ローマ字": "Kyoto-wachi", "観測点コード": "WACHI ", "緯度（度）": 35.2857, "経度（度）": 135.3987, "高さ（ｍ）": "172", "測器の深度（ｍ）": 0, "維持管理機関名": "気象庁", "維持管理機関名（英語）": "JMA", "観測開始年（西暦）": 1994, "同月": 4, "観測機器名または観測項目": null }, "geometry": { "type": "Point", "coordinates": [ 135.3987, 35.2857 ] } },
{ "type": "Feature", "properties": { "観測の種類": "広帯域（TYPE2）", "name": "広島西城      ", "観測点名ローマ字": "Hiroshima-saijo", "観測点コード": "SAIJYO", "緯度（度）": 35.0018, "経度（度）": 133.1137, "高さ（ｍ）": "470", "測器の深度（ｍ）": 0, "維持管理機関名": "気象庁", "維持管理機関名（英語）": "JMA", "観測開始年（西暦）": 1994, "同月": 4, "観測機器名または観測項目": null }, "geometry": { "type": "Point", "coordinates": [ 133.1137, 35.0018 ] } },
{ "type": "Feature", "properties": { "観測の種類": "広帯域（TYPE2）", "name": "高知物部      ", "観測点名ローマ字": "Kochi-monobe", "観測点コード": "MONOBE", "緯度（度）": 33.7315, "経度（度）": 133.8763, "高さ（ｍ）": "550", "測器の深度（ｍ）": 0, "維持管理機関名": "気象庁", "維持管理機関名（英語）": "JMA", "観測開始年（西暦）": 1994, "同月": 4, "観測機器名または観測項目": null }, "geometry": { "type": "Point", "coordinates": [ 133.8763, 33.7315 ] } },
{ "type": "Feature", "properties": { "観測の種類": "広帯域（TYPE2）", "name": "対馬上県      ", "観測点名ローマ字": "Tsushima-kamiagata", "観測点コード": "TSUSHM", "緯度（度）": 34.5275, "経度（度）": 129.3963, "高さ（ｍ）": "70", "測器の深度（ｍ）": 0, "維持管理機関名": "気象庁", "維持管理機関名（英語）": "JMA", "観測開始年（西暦）": 1994, "同月": 4, "観測機器名または観測項目": null }, "geometry": { "type": "Point", "coordinates": [ 129.3963, 34.5275 ] } },
{ "type": "Feature", "properties": { "観測の種類": "広帯域（TYPE2）", "name": "大分中津江", "観測点名ローマ字": "Ooita-nakatsue", "観測点コード": "NAKATS", "緯度（度）": 33.125, "経度（度）": 130.8767, "高さ（ｍ）": "540", "測器の深度（ｍ）": 0, "維持管理機関名": "気象庁", "維持管理機関名（英語）": "JMA", "観測開始年（西暦）": 1994, "同月": 4, "観測機器名または観測項目": null }, "geometry": { "type": "Point", "coordinates": [ 130.8767, 33.125 ] } },
{ "type": "Feature", "properties": { "観測の種類": "広帯域（TYPE2）", "name": "鹿児島錫山", "観測点名ローマ字": "Kagoshima-suzuyama", "観測点コード": "SUZUYA", "緯度（度）": 31.5093, "経度（度）": 130.4527, "高さ（ｍ）": "400", "測器の深度（ｍ）": 0, "維持管理機関名": "気象庁", "維持管理機関名（英語）": "JMA", "観測開始年（西暦）": 1994, "同月": 4, "観測機器名または観測項目": null }, "geometry": { "type": "Point", "coordinates": [ 130.4527, 31.5093 ] } },
{ "type": "Feature", "properties": { "観測の種類": "広帯域（TYPE2）", "name": "沖縄国頭      ", "観測点名ローマ字": "Okinawa-kunigami", "観測点コード": "KUNIGA", "緯度（度）": 26.836, "経度（度）": 128.2725, "高さ（ｍ）": "220", "測器の深度（ｍ）": 0, "維持管理機関名": "気象庁", "維持管理機関名（英語）": "JMA", "観測開始年（西暦）": 1994, "同月": 4, "観測機器名または観測項目": null }, "geometry": { "type": "Point", "coordinates": [ 128.2725, 26.836 ] } },
{ "type": "Feature", "properties": { "観測の種類": "広帯域（TYPE2）", "name": "南大東池之沢", "観測点名ローマ字": "Minamidaitojima-ikenosawa", "観測点コード": "MINAM2", "緯度（度）": 25.8198, "経度（度）": 131.2237, "高さ（ｍ）": "50", "測器の深度（ｍ）": 0, "維持管理機関名": "気象庁", "維持管理機関名（英語）": "JMA", "観測開始年（西暦）": 1994, "同月": 4, "観測機器名または観測項目": null }, "geometry": { "type": "Point", "coordinates": [ 131.2237, 25.8198 ] } },
{ "type": "Feature", "properties": { "観測の種類": "広帯域（TYPE2）", "name": "与那国島      ", "観測点名ローマ字": "Yonagunijima", "観測点コード": "YONAGU", "緯度（度）": 24.4672, "経度（度）": 123.0113, "高さ（ｍ）": "32", "測器の深度（ｍ）": 0, "維持管理機関名": "気象庁", "維持管理機関名（英語）": "JMA", "観測開始年（西暦）": 1999, "同月": 3, "観測機器名または観測項目": null }, "geometry": { "type": "Point", "coordinates": [ 123.0113, 24.4672 ] } }
]
}
