{
"type": "FeatureCollection",
"name": "歪計・傾斜計等",
"crs": { "type": "name", "properties": { "name": "urn:ogc:def:crs:OGC:1.3:CRS84" } },
"features": [
{ "type": "Feature", "properties": { "観測の種類": "地殻変動", "name": "えりも", "観測点名ローマ字": null, "観測点コード": "ERM", "緯度（度）": 42.0175, "経度（度）": 143.1533, "高さ（ｍ）": "40", "測器の深度（ｍ）": null, "維持管理機関名": "北海道大学大学院理学研究院", "維持管理機関名（英語）": null, "観測開始年（西暦）": 1971, "同月": null, "観測機器名または観測項目": "Tw，E" }, "geometry": { "type": "Point", "coordinates": [ 143.1533, 42.0175 ] } },
{ "type": "Feature", "properties": { "観測の種類": "地殻変動", "name": "広尾", "観測点名ローマ字": null, "観測点コード": "MYR", "緯度（度）": 42.2942, "経度（度）": 143.2797, "高さ（ｍ）": "80", "測器の深度（ｍ）": null, "維持管理機関名": "北海道大学大学院理学研究院", "維持管理機関名（英語）": null, "観測開始年（西暦）": 1983, "同月": null, "観測機器名または観測項目": "Tw，E" }, "geometry": { "type": "Point", "coordinates": [ 143.2797, 42.2942 ] } },
{ "type": "Feature", "properties": { "観測の種類": "地殻変動", "name": "弟子屈", "観測点名ローマ字": null, "観測点コード": "TES", "緯度（度）": 43.4858, "経度（度）": 144.3989, "高さ（ｍ）": "230", "測器の深度（ｍ）": null, "維持管理機関名": "北海道大学大学院理学研究院", "維持管理機関名（英語）": null, "観測開始年（西暦）": 1983, "同月": null, "観測機器名または観測項目": "Tw，E" }, "geometry": { "type": "Point", "coordinates": [ 144.3989, 43.4858 ] } },
{ "type": "Feature", "properties": { "観測の種類": "地殻変動", "name": "今金", "観測点名ローマ字": null, "観測点コード": "IMG", "緯度（度）": 42.3928, "経度（度）": 140.1403, "高さ（ｍ）": "90", "測器の深度（ｍ）": null, "維持管理機関名": "北海道大学大学院理学研究院", "維持管理機関名（英語）": null, "観測開始年（西暦）": 1984, "同月": null, "観測機器名または観測項目": "Tw，E" }, "geometry": { "type": "Point", "coordinates": [ 140.1403, 42.3928 ] } },
{ "type": "Feature", "properties": { "観測の種類": "地殻変動", "name": "上ノ国", "観測点名ローマ字": null, "観測点コード": "KKJ", "緯度（度）": 41.78, "経度（度）": 140.1403, "高さ（ｍ）": "70", "測器の深度（ｍ）": null, "維持管理機関名": "北海道大学大学院理学研究院", "維持管理機関名（英語）": null, "観測開始年（西暦）": 1984, "同月": null, "観測機器名または観測項目": "Tw，E" }, "geometry": { "type": "Point", "coordinates": [ 140.1403, 41.78 ] } },
{ "type": "Feature", "properties": { "観測の種類": "地殻変動", "name": "根室", "観測点名ローマ字": null, "観測点コード": "NMR", "緯度（度）": 43.3675, "経度（度）": 145.7383, "高さ（ｍ）": "20", "測器の深度（ｍ）": null, "維持管理機関名": "北海道大学大学院理学研究院", "維持管理機関名（英語）": null, "観測開始年（西暦）": 1984, "同月": null, "観測機器名または観測項目": "Tw，E" }, "geometry": { "type": "Point", "coordinates": [ 145.7383, 43.3675 ] } },
{ "type": "Feature", "properties": { "観測の種類": "地殻変動", "name": "三石", "観測点名ローマ字": null, "観測点コード": "MUT", "緯度（度）": 42.2856, "経度（度）": 142.5822, "高さ（ｍ）": "35", "測器の深度（ｍ）": null, "維持管理機関名": "北海道大学大学院理学研究院", "維持管理機関名（英語）": null, "観測開始年（西暦）": 1984, "同月": null, "観測機器名または観測項目": "Tw，E" }, "geometry": { "type": "Point", "coordinates": [ 142.5822, 42.2856 ] } },
{ "type": "Feature", "properties": { "観測の種類": "地殻変動", "name": "浦幌", "観測点名ローマ字": null, "観測点コード": "URH", "緯度（度）": 42.9294, "経度（度）": 143.6675, "高さ（ｍ）": "80", "測器の深度（ｍ）": null, "維持管理機関名": "北海道大学大学院理学研究院", "維持管理機関名（英語）": null, "観測開始年（西暦）": 1984, "同月": null, "観測機器名または観測項目": "Tw，E" }, "geometry": { "type": "Point", "coordinates": [ 143.6675, 42.9294 ] } },
{ "type": "Feature", "properties": { "観測の種類": "地殻変動", "name": "上杵臼", "観測点名ローマ字": null, "観測点コード": "KMU", "緯度（度）": 42.2411, "経度（度）": 142.9633, "高さ（ｍ）": "185", "測器の深度（ｍ）": "100", "維持管理機関名": "北海道大学大学院理学研究院", "維持管理機関名（英語）": null, "観測開始年（西暦）": 1983, "同月": null, "観測機器名または観測項目": "V" }, "geometry": { "type": "Point", "coordinates": [ 142.9633, 42.2411 ] } },
{ "type": "Feature", "properties": { "観測の種類": "地殻変動", "name": "苫前", "観測点名ローマ字": null, "観測点コード": "TOI", "緯度（度）": 44.2244, "経度（度）": 141.6694, "高さ（ｍ）": "35", "測器の深度（ｍ）": null, "維持管理機関名": "北海道大学大学院理学研究院", "維持管理機関名（英語）": null, "観測開始年（西暦）": 1985, "同月": "3", "観測機器名または観測項目": "Tw，E" }, "geometry": { "type": "Point", "coordinates": [ 141.6694, 44.2244 ] } },
{ "type": "Feature", "properties": { "観測の種類": "地殻変動", "name": "愛別", "観測点名ローマ字": null, "観測点コード": "AIB", "緯度（度）": 43.8931, "経度（度）": 142.6419, "高さ（ｍ）": "265", "測器の深度（ｍ）": null, "維持管理機関名": "北海道大学大学院理学研究院", "維持管理機関名（英語）": null, "観測開始年（西暦）": 1985, "同月": "3", "観測機器名または観測項目": "Tw，E" }, "geometry": { "type": "Point", "coordinates": [ 142.6419, 43.8931 ] } },
{ "type": "Feature", "properties": { "観測の種類": "地殻変動", "name": "訓子府", "観測点名ローマ字": null, "観測点コード": "KNP", "緯度（度）": 43.7628, "経度（度）": 143.7083, "高さ（ｍ）": "180", "測器の深度（ｍ）": null, "維持管理機関名": "北海道大学大学院理学研究院", "維持管理機関名（英語）": null, "観測開始年（西暦）": 1985, "同月": "3", "観測機器名または観測項目": "Tw，E" }, "geometry": { "type": "Point", "coordinates": [ 143.7083, 43.7628 ] } },
{ "type": "Feature", "properties": { "観測の種類": "地殻変動", "name": "厚岸", "観測点名ローマ字": null, "観測点コード": "AKK", "緯度（度）": 43.0194, "経度（度）": 144.8383, "高さ（ｍ）": "60", "測器の深度（ｍ）": "300", "維持管理機関名": "北海道大学大学院理学研究院", "維持管理機関名（英語）": null, "観測開始年（西暦）": 1978, "同月": "6", "観測機器名または観測項目": "S3" }, "geometry": { "type": "Point", "coordinates": [ 144.8383, 43.0194 ] } },
{ "type": "Feature", "properties": { "観測の種類": "地殻変動", "name": "恵山", "観測点名ローマ字": null, "観測点コード": "ESH", "緯度（度）": 41.8867, "経度（度）": 141.0075, "高さ（ｍ）": "40", "測器の深度（ｍ）": null, "維持管理機関名": "北海道大学大学院理学研究院", "維持管理機関名（英語）": null, "観測開始年（西暦）": 1980, "同月": "3", "観測機器名または観測項目": "Tw，E" }, "geometry": { "type": "Point", "coordinates": [ 141.0075, 41.8867 ] } },
{ "type": "Feature", "properties": { "観測の種類": "地殻変動", "name": "天塩中川", "観測点名ローマ字": null, "観測点コード": "TNK", "緯度（度）": 44.7808, "経度（度）": 142.08, "高さ（ｍ）": "60", "測器の深度（ｍ）": null, "維持管理機関名": "北海道大学大学院理学研究院", "維持管理機関名（英語）": null, "観測開始年（西暦）": 1994, "同月": "8", "観測機器名または観測項目": "Tw，E" }, "geometry": { "type": "Point", "coordinates": [ 142.08, 44.7808 ] } },
{ "type": "Feature", "properties": { "観測の種類": "地殻変動", "name": "積丹", "観測点名ローマ字": null, "観測点コード": "SYJ", "緯度（度）": 43.3658, "経度（度）": 140.4828, "高さ（ｍ）": "10", "測器の深度（ｍ）": "500", "維持管理機関名": "北海道大学大学院理学研究院", "維持管理機関名（英語）": null, "観測開始年（西暦）": 1996, "同月": "6", "観測機器名または観測項目": "Tb，S3" }, "geometry": { "type": "Point", "coordinates": [ 140.4828, 43.3658 ] } },
{ "type": "Feature", "properties": { "観測の種類": "地殻変動", "name": "屈斜路", "観測点名ローマ字": null, "観測点コード": "KUT", "緯度（度）": 43.5436, "経度（度）": 144.3383, "高さ（ｍ）": "-180", "測器の深度（ｍ）": "180", "維持管理機関名": "北海道大学大学院理学研究院", "維持管理機関名（英語）": null, "観測開始年（西暦）": 1997, "同月": "5", "観測機器名または観測項目": "V" }, "geometry": { "type": "Point", "coordinates": [ 144.3383, 43.5436 ] } },
{ "type": "Feature", "properties": { "観測の種類": "地殻変動", "name": "仁多", "観測点名ローマ字": null, "観測点コード": "NIT", "緯度（度）": 43.4975, "経度（度）": 144.5028, "高さ（ｍ）": "-180", "測器の深度（ｍ）": "180", "維持管理機関名": "北海道大学大学院理学研究院", "維持管理機関名（英語）": null, "観測開始年（西暦）": 1997, "同月": "5", "観測機器名または観測項目": "V" }, "geometry": { "type": "Point", "coordinates": [ 144.5028, 43.4975 ] } },
{ "type": "Feature", "properties": { "観測の種類": "地殻変動", "name": "男鹿", "観測点名ローマ字": null, "観測点コード": "OGA", "緯度（度）": 39.902, "経度（度）": 139.7704, "高さ（ｍ）": "170", "測器の深度（ｍ）": "200", "維持管理機関名": "東北大学大学院理学研究科", "維持管理機関名（英語）": null, "観測開始年（西暦）": 1985, "同月": "12", "観測機器名または観測項目": "V" }, "geometry": { "type": "Point", "coordinates": [ 139.7704, 39.902 ] } },
{ "type": "Feature", "properties": { "観測の種類": "地殻変動", "name": "仁別", "観測点名ローマ字": null, "観測点コード": "NIB", "緯度（度）": 39.8038, "経度（度）": 140.2637, "高さ（ｍ）": "40", "測器の深度（ｍ）": "200", "維持管理機関名": "東北大学大学院理学研究科", "維持管理機関名（英語）": null, "観測開始年（西暦）": 1985, "同月": "12", "観測機器名または観測項目": "V" }, "geometry": { "type": "Point", "coordinates": [ 140.2637, 39.8038 ] } },
{ "type": "Feature", "properties": { "観測の種類": "地殻変動", "name": "五城目", "観測点名ローマ字": null, "観測点コード": "GJM", "緯度（度）": 39.9548, "経度（度）": 140.1126, "高さ（ｍ）": "105，(5)", "測器の深度（ｍ）": "-100", "維持管理機関名": "東北大学大学院理学研究科", "維持管理機関名（英語）": null, "観測開始年（西暦）": 1982, "同月": "9", "観測機器名または観測項目": "Tw，E，(V)" }, "geometry": { "type": "Point", "coordinates": [ 140.1126, 39.9548 ] } },
{ "type": "Feature", "properties": { "観測の種類": "地殻変動", "name": "西木", "観測点名ローマ字": null, "観測点コード": "NSK", "緯度（度）": 39.7312, "経度（度）": 140.542, "高さ（ｍ）": "260", "測器の深度（ｍ）": null, "維持管理機関名": "東北大学大学院理学研究科", "維持管理機関名（英語）": null, "観測開始年（西暦）": 1982, "同月": "9", "観測機器名または観測項目": "Tw，E" }, "geometry": { "type": "Point", "coordinates": [ 140.542, 39.7312 ] } },
{ "type": "Feature", "properties": { "観測の種類": "地殻変動", "name": "沢内川舟", "観測点名ローマ字": null, "観測点コード": "SWU", "緯度（度）": 39.4889, "経度（度）": 140.7889, "高さ（ｍ）": "445，(360)", "測器の深度（ｍ）": "-100", "維持管理機関名": "東北大学大学院理学研究科", "維持管理機関名（英語）": null, "観測開始年（西暦）": 1982, "同月": "9", "観測機器名または観測項目": "Tw，E，(V)" }, "geometry": { "type": "Point", "coordinates": [ 140.7889, 39.4889 ] } },
{ "type": "Feature", "properties": { "観測の種類": "地殻変動", "name": "黒沢尻", "観測点名ローマ字": null, "観測点コード": "KRS", "緯度（度）": 39.2662, "経度（度）": 141.1501, "高さ（ｍ）": "150", "測器の深度（ｍ）": null, "維持管理機関名": "東北大学大学院理学研究科", "維持管理機関名（英語）": null, "観測開始年（西暦）": 1983, "同月": "1", "観測機器名または観測項目": "Tw，E" }, "geometry": { "type": "Point", "coordinates": [ 141.1501, 39.2662 ] } },
{ "type": "Feature", "properties": { "観測の種類": "地殻変動", "name": "大東", "観測点名ローマ字": null, "観測点コード": "DIT", "緯度（度）": 39.064, "経度（度）": 141.4221, "高さ（ｍ）": "400", "測器の深度（ｍ）": null, "維持管理機関名": "東北大学大学院理学研究科", "維持管理機関名（英語）": null, "観測開始年（西暦）": 1982, "同月": "1", "観測機器名または観測項目": "Tw，E" }, "geometry": { "type": "Point", "coordinates": [ 141.4221, 39.064 ] } },
{ "type": "Feature", "properties": { "観測の種類": "地殻変動", "name": "気仙沼", "観測点名ローマ字": null, "観測点コード": "KSN", "緯度（度）": 38.9765, "経度（度）": 141.5301, "高さ（ｍ）": "280", "測器の深度（ｍ）": null, "維持管理機関名": "東北大学大学院理学研究科", "維持管理機関名（英語）": null, "観測開始年（西暦）": 1982, "同月": "1", "観測機器名または観測項目": "Tw，E" }, "geometry": { "type": "Point", "coordinates": [ 141.5301, 38.9765 ] } },
{ "type": "Feature", "properties": { "観測の種類": "地殻変動", "name": "田沢湖", "観測点名ローマ字": null, "観測点コード": "TAZ", "緯度（度）": 39.6144, "経度（度）": 140.651, "高さ（ｍ）": "170，(70)", "測器の深度（ｍ）": "-100", "維持管理機関名": "東北大学大学院理学研究科", "維持管理機関名（英語）": null, "観測開始年（西暦）": 1982, "同月": "9", "観測機器名または観測項目": "Tw，E，(V)" }, "geometry": { "type": "Point", "coordinates": [ 140.651, 39.6144 ] } },
{ "type": "Feature", "properties": { "観測の種類": "地殻変動", "name": "北阿武隈", "観測点名ローマ字": null, "観測点コード": "KTA", "緯度（度）": 37.6966, "経度（度）": 140.892, "高さ（ｍ）": "160", "測器の深度（ｍ）": null, "維持管理機関名": "東北大学大学院理学研究科", "維持管理機関名（英語）": null, "観測開始年（西暦）": 1981, "同月": "7", "観測機器名または観測項目": "Tw，E" }, "geometry": { "type": "Point", "coordinates": [ 140.892, 37.6966 ] } },
{ "type": "Feature", "properties": { "観測の種類": "地殻変動", "name": "本荘", "観測点名ローマ字": null, "観測点コード": "HOJ", "緯度（度）": 39.3434, "経度（度）": 140.1679, "高さ（ｍ）": "-115", "測器の深度（ｍ）": "200", "維持管理機関名": "東北大学大学院理学研究科", "維持管理機関名（英語）": null, "観測開始年（西暦）": 1985, "同月": "12", "観測機器名または観測項目": "V" }, "geometry": { "type": "Point", "coordinates": [ 140.1679, 39.3434 ] } },
{ "type": "Feature", "properties": { "観測の種類": "地殻変動", "name": "若柳", "観測点名ローマ字": null, "観測点コード": "WYG", "緯度（度）": 38.7423, "経度（度）": 141.1197, "高さ（ｍ）": "-490", "測器の深度（ｍ）": "500", "維持管理機関名": "東北大学大学院理学研究科", "維持管理機関名（英語）": null, "観測開始年（西暦）": 1993, "同月": "4", "観測機器名または観測項目": "Tb，V" }, "geometry": { "type": "Point", "coordinates": [ 141.1197, 38.7423 ] } },
{ "type": "Feature", "properties": { "観測の種類": "地殻変動", "name": "深浦", "観測点名ローマ字": null, "観測点コード": "FKU", "緯度（度）": 40.6343, "経度（度）": 139.9116, "高さ（ｍ）": "-310", "測器の深度（ｍ）": "500", "維持管理機関名": "東北大学大学院理学研究科", "維持管理機関名（英語）": null, "観測開始年（西暦）": 1994, "同月": "11", "観測機器名または観測項目": "Tb，V" }, "geometry": { "type": "Point", "coordinates": [ 139.9116, 40.6343 ] } },
{ "type": "Feature", "properties": { "観測の種類": "地殻変動", "name": "階上", "観測点名ローマ字": null, "観測点コード": "HSK", "緯度（度）": 40.4148, "経度（度）": 141.58, "高さ（ｍ）": "-145", "測器の深度（ｍ）": "500", "維持管理機関名": "東北大学大学院理学研究科", "維持管理機関名（英語）": null, "観測開始年（西暦）": 1995, "同月": "4", "観測機器名または観測項目": "Tb，V" }, "geometry": { "type": "Point", "coordinates": [ 141.58, 40.4148 ] } },
{ "type": "Feature", "properties": { "観測の種類": "地殻変動", "name": "陸中普代", "観測点名ローマ字": null, "観測点コード": "FDA", "緯度（度）": 40.0119, "経度（度）": 141.8548, "高さ（ｍ）": "-245", "測器の深度（ｍ）": "500", "維持管理機関名": "東北大学大学院理学研究科", "維持管理機関名（英語）": null, "観測開始年（西暦）": 1994, "同月": "12", "観測機器名または観測項目": "Tb，V" }, "geometry": { "type": "Point", "coordinates": [ 141.8548, 40.0119 ] } },
{ "type": "Feature", "properties": { "観測の種類": "地殻変動", "name": "北上", "観測点名ローマ字": null, "観測点コード": "KGJ", "緯度（度）": 39.3892, "経度（度）": 141.5617, "高さ（ｍ）": "-120", "測器の深度（ｍ）": "500", "維持管理機関名": "東北大学大学院理学研究科", "維持管理機関名（英語）": null, "観測開始年（西暦）": 1994, "同月": "11", "観測機器名または観測項目": "Tb，V" }, "geometry": { "type": "Point", "coordinates": [ 141.5617, 39.3892 ] } },
{ "type": "Feature", "properties": { "観測の種類": "地殻変動", "name": "飛島", "観測点名ローマ字": null, "観測点コード": "TBS", "緯度（度）": 39.198, "経度（度）": 139.5534, "高さ（ｍ）": "-440，(-40)", "測器の深度（ｍ）": "500，(100)", "維持管理機関名": "東北大学大学院理学研究科", "維持管理機関名（英語）": null, "観測開始年（西暦）": 1994, "同月": "12", "観測機器名または観測項目": "Tb，V，(S3)" }, "geometry": { "type": "Point", "coordinates": [ 139.5534, 39.198 ] } },
{ "type": "Feature", "properties": { "観測の種類": "地殻変動", "name": "東通", "観測点名ローマ字": null, "観測点コード": "HD3", "緯度（度）": 41.3666, "経度（度）": 141.4146, "高さ（ｍ）": "-235", "測器の深度（ｍ）": "300", "維持管理機関名": "東北大学大学院理学研究科", "維持管理機関名（英語）": null, "観測開始年（西暦）": 1996, "同月": "3", "観測機器名または観測項目": "Tb，S3" }, "geometry": { "type": "Point", "coordinates": [ 141.4146, 41.3666 ] } },
{ "type": "Feature", "properties": { "観測の種類": "地殻変動", "name": "宮古", "観測点名ローマ字": null, "観測点コード": "MY3", "緯度（度）": 39.5931, "経度（度）": 141.9766, "高さ（ｍ）": "-220", "測器の深度（ｍ）": "300", "維持管理機関名": "東北大学大学院理学研究科", "維持管理機関名（英語）": null, "観測開始年（西暦）": 1996, "同月": "4", "観測機器名または観測項目": "Tb，S3" }, "geometry": { "type": "Point", "coordinates": [ 141.9766, 39.5931 ] } },
{ "type": "Feature", "properties": { "観測の種類": "地殻変動", "name": "江島", "観測点名ローマ字": null, "観測点コード": "EN3", "緯度（度）": 38.3979, "経度（度）": 141.5976, "高さ（ｍ）": "-265", "測器の深度（ｍ）": "300", "維持管理機関名": "東北大学大学院理学研究科", "維持管理機関名（英語）": null, "観測開始年（西暦）": 1996, "同月": "4", "観測機器名または観測項目": "Tb，S3" }, "geometry": { "type": "Point", "coordinates": [ 141.5976, 38.3979 ] } },
{ "type": "Feature", "properties": { "観測の種類": "地殻変動", "name": "岩城", "観測点名ローマ字": null, "観測点コード": "IW3", "緯度（度）": 39.5552, "経度（度）": 140.1109, "高さ（ｍ）": "-255", "測器の深度（ｍ）": "300", "維持管理機関名": "東北大学大学院理学研究科", "維持管理機関名（英語）": null, "観測開始年（西暦）": 1996, "同月": "3", "観測機器名または観測項目": "Tb，S3" }, "geometry": { "type": "Point", "coordinates": [ 140.1109, 39.5552 ] } },
{ "type": "Feature", "properties": { "観測の種類": "地殻変動", "name": "村山", "観測点名ローマ字": null, "観測点コード": "MR3", "緯度（度）": 38.498, "経度（度）": 140.4224, "高さ（ｍ）": "-40", "測器の深度（ｍ）": "300", "維持管理機関名": "東北大学大学院理学研究科", "維持管理機関名（英語）": null, "観測開始年（西暦）": 1996, "同月": "3", "観測機器名または観測項目": "Tb，S3" }, "geometry": { "type": "Point", "coordinates": [ 140.4224, 38.498 ] } },
{ "type": "Feature", "properties": { "観測の種類": "地殻変動", "name": "新三陸", "観測点名ローマ字": null, "観測点コード": "SR3", "緯度（度）": 39.1401, "経度（度）": 141.7636, "高さ（ｍ）": "110", "測器の深度（ｍ）": "300", "維持管理機関名": "東北大学大学院理学研究科", "維持管理機関名（英語）": null, "観測開始年（西暦）": 1996, "同月": "8", "観測機器名または観測項目": "Tb，S3" }, "geometry": { "type": "Point", "coordinates": [ 141.7636, 39.1401 ] } },
{ "type": "Feature", "properties": { "観測の種類": "地殻変動", "name": "金華山", "観測点名ローマ字": null, "観測点コード": "KNK", "緯度（度）": 38.2765, "経度（度）": 141.5823, "高さ（ｍ）": "-435", "測器の深度（ｍ）": "500", "維持管理機関名": "東北大学大学院理学研究科", "維持管理機関名（英語）": null, "観測開始年（西暦）": 1995, "同月": "5", "観測機器名または観測項目": "Tb，V" }, "geometry": { "type": "Point", "coordinates": [ 141.5823, 38.2765 ] } },
{ "type": "Feature", "properties": { "観測の種類": "地殻変動", "name": "鋸山", "観測点名ローマ字": null, "観測点コード": "NGY", "緯度（度）": 35.1592, "経度（度）": 139.8254, "高さ（ｍ）": "62", "測器の深度（ｍ）": null, "維持管理機関名": "東京大学地震研究所", "維持管理機関名（英語）": null, "観測開始年（西暦）": 1959, "同月": null, "観測機器名または観測項目": "Tw，E" }, "geometry": { "type": "Point", "coordinates": [ 139.8254, 35.1592 ] } },
{ "type": "Feature", "properties": { "観測の種類": "地殻変動", "name": "油壷", "観測点名ローマ字": null, "観測点コード": "ABR", "緯度（度）": 35.1598, "経度（度）": 139.6134, "高さ（ｍ）": "3", "測器の深度（ｍ）": null, "維持管理機関名": "東京大学地震研究所", "維持管理機関名（英語）": null, "観測開始年（西暦）": 1948, "同月": null, "観測機器名または観測項目": "Tw，E" }, "geometry": { "type": "Point", "coordinates": [ 139.6134, 35.1598 ] } },
{ "type": "Feature", "properties": { "観測の種類": "地殻変動", "name": "小田原", "観測点名ローマ字": null, "観測点コード": "ODW", "緯度（度）": 35.2897, "経度（度）": 139.2076, "高さ（ｍ）": "-90", "測器の深度（ｍ）": "150", "維持管理機関名": "東京大学地震研究所", "維持管理機関名（英語）": null, "観測開始年（西暦）": 1973, "同月": null, "観測機器名または観測項目": "Tb，S3" }, "geometry": { "type": "Point", "coordinates": [ 139.2076, 35.2897 ] } },
{ "type": "Feature", "properties": { "観測の種類": "地殻変動", "name": "富士川", "観測点名ローマ字": null, "観測点コード": "FUJ", "緯度（度）": 35.2304, "経度（度）": 138.4182, "高さ（ｍ）": "620", "測器の深度（ｍ）": null, "維持管理機関名": "東京大学地震研究所", "維持管理機関名（英語）": null, "観測開始年（西暦）": 1970, "同月": null, "観測機器名または観測項目": "Tw，E" }, "geometry": { "type": "Point", "coordinates": [ 138.4182, 35.2304 ] } },
{ "type": "Feature", "properties": { "観測の種類": "地殻変動", "name": "室戸", "観測点名ローマ字": null, "観測点コード": "MRTO", "緯度（度）": 33.248, "経度（度）": 134.1779, "高さ（ｍ）": "10", "測器の深度（ｍ）": null, "維持管理機関名": "東京大学地震研究所", "維持管理機関名（英語）": null, "観測開始年（西暦）": 1995, "同月": "3", "観測機器名または観測項目": "Tw，E" }, "geometry": { "type": "Point", "coordinates": [ 134.1779, 33.248 ] } },
{ "type": "Feature", "properties": { "観測の種類": "地殻変動", "name": "伊東", "観測点名ローマ字": null, "観測点コード": "ITO", "緯度（度）": 34.9724, "経度（度）": 139.12, "高さ（ｍ）": "-145", "測器の深度（ｍ）": "150.5", "維持管理機関名": "東京大学地震研究所", "維持管理機関名（英語）": null, "観測開始年（西暦）": 1994, "同月": "12", "観測機器名または観測項目": "Tb，S3" }, "geometry": { "type": "Point", "coordinates": [ 139.12, 34.9724 ] } },
{ "type": "Feature", "properties": { "観測の種類": "地殻変動", "name": "犬山", "観測点名ローマ字": null, "観測点コード": "NAIN", "緯度（度）": 35.3525, "経度（度）": 137.0253, "高さ（ｍ）": "132", "測器の深度（ｍ）": null, "維持管理機関名": "名古屋大学大学院環境学研究科", "維持管理機関名（英語）": null, "観測開始年（西暦）": 1967, "同月": "6", "観測機器名または観測項目": "Tw，E" }, "geometry": { "type": "Point", "coordinates": [ 137.0253, 35.3525 ] } },
{ "type": "Feature", "properties": { "観測の種類": "地殻変動", "name": "豊橋", "観測点名ローマ字": null, "観測点コード": "NATY", "緯度（度）": 34.7644, "経度（度）": 137.4669, "高さ（ｍ）": "76", "測器の深度（ｍ）": null, "維持管理機関名": "名古屋大学大学院環境学研究科", "維持管理機関名（英語）": null, "観測開始年（西暦）": 1973, "同月": "1", "観測機器名または観測項目": "Tw，E" }, "geometry": { "type": "Point", "coordinates": [ 137.4669, 34.7644 ] } },
{ "type": "Feature", "properties": { "観測の種類": "地殻変動", "name": "旭", "観測点名ローマ字": null, "観測点コード": "NAAS", "緯度（度）": 35.2219, "経度（度）": 137.3608, "高さ（ｍ）": "200", "測器の深度（ｍ）": null, "維持管理機関名": "名古屋大学大学院環境学研究科", "維持管理機関名（英語）": null, "観測開始年（西暦）": 1986, "同月": "2", "観測機器名または観測項目": "Tw，E" }, "geometry": { "type": "Point", "coordinates": [ 137.3608, 35.2219 ] } },
{ "type": "Feature", "properties": { "観測の種類": "地殻変動", "name": "稲武", "観測点名ローマ字": null, "観測点コード": "NAIB", "緯度（度）": 35.2019, "経度（度）": 137.5331, "高さ（ｍ）": "690", "測器の深度（ｍ）": null, "維持管理機関名": "名古屋大学大学院環境学研究科", "維持管理機関名（英語）": null, "観測開始年（西暦）": 1986, "同月": "2", "観測機器名または観測項目": "Tw，E" }, "geometry": { "type": "Point", "coordinates": [ 137.5331, 35.2019 ] } },
{ "type": "Feature", "properties": { "観測の種類": "地殻変動", "name": "六甲高雄", "観測点名ローマ字": null, "観測点コード": null, "緯度（度）": 34.7271, "経度（度）": 135.1758, "高さ（ｍ）": "127", "測器の深度（ｍ）": null, "維持管理機関名": "京都大学理学研究科", "維持管理機関名（英語）": null, "観測開始年（西暦）": 1988, "同月": null, "観測機器名または観測項目": "Tw，E" }, "geometry": { "type": "Point", "coordinates": [ 135.1758, 34.7271 ] } },
{ "type": "Feature", "properties": { "観測の種類": "地殻変動", "name": "阿武山１", "観測点名ローマ字": null, "観測点コード": null, "緯度（度）": 34.8799, "経度（度）": 135.5705, "高さ（ｍ）": "138", "測器の深度（ｍ）": null, "維持管理機関名": "京都大学防災研究所", "維持管理機関名（英語）": null, "観測開始年（西暦）": 1972, "同月": null, "観測機器名または観測項目": "Tw，E，else" }, "geometry": { "type": "Point", "coordinates": [ 135.5705, 34.8799 ] } },
{ "type": "Feature", "properties": { "観測の種類": "地殻変動", "name": "宮崎", "観測点名ローマ字": null, "観測点コード": null, "緯度（度）": 31.8101, "経度（度）": 131.4346, "高さ（ｍ）": "13", "測器の深度（ｍ）": null, "維持管理機関名": "京都大学防災研究所", "維持管理機関名（英語）": null, "観測開始年（西暦）": 1976, "同月": "11", "観測機器名または観測項目": "E，else" }, "geometry": { "type": "Point", "coordinates": [ 131.4346, 31.8101 ] } },
{ "type": "Feature", "properties": { "観測の種類": "地殻変動", "name": "伊佐", "観測点名ローマ字": null, "観測点コード": null, "緯度（度）": 32.004, "経度（度）": 130.7254, "高さ（ｍ）": "325", "測器の深度（ｍ）": null, "維持管理機関名": "京都大学防災研究所", "維持管理機関名（英語）": null, "観測開始年（西暦）": 1987, "同月": "4", "観測機器名または観測項目": "E，else" }, "geometry": { "type": "Point", "coordinates": [ 130.7254, 32.004 ] } },
{ "type": "Feature", "properties": { "観測の種類": "地殻変動", "name": "八郷", "観測点名ローマ字": "YASATO", "観測点コード": "N.YSTH", "緯度（度）": 36.2558, "経度（度）": 140.2028, "高さ（ｍ）": "20", "測器の深度（ｍ）": "98", "維持管理機関名": "防災科学技術研究所", "維持管理機関名（英語）": "NIED", "観測開始年（西暦）": 1982, "同月": "4", "観測機器名または観測項目": "３成分歪み計" }, "geometry": { "type": "Point", "coordinates": [ 140.2028, 36.2558 ] } },
{ "type": "Feature", "properties": { "観測の種類": "地殻変動", "name": "餅ヶ瀬", "観測点名ローマ字": "MOCHIGASE", "観測点コード": "N.MTGH", "緯度（度）": 36.6275, "経度（度）": 139.3718, "高さ（ｍ）": "920", "測器の深度（ｍ）": "50", "維持管理機関名": "防災科学技術研究所", "維持管理機関名（英語）": "NIED", "観測開始年（西暦）": 1991, "同月": "3", "観測機器名または観測項目": "傾斜計" }, "geometry": { "type": "Point", "coordinates": [ 139.3718, 36.6275 ] } },
{ "type": "Feature", "properties": { "観測の種類": "地殻変動", "name": "銚子", "観測点名ローマ字": "CHOSHI", "観測点コード": "N.CHSH", "緯度（度）": 35.7056, "経度（度）": 140.8517, "高さ（ｍ）": "50", "測器の深度（ｍ）": "94", "維持管理機関名": "防災科学技術研究所", "維持管理機関名（英語）": "NIED", "観測開始年（西暦）": 1980, "同月": "5", "観測機器名または観測項目": "傾斜計" }, "geometry": { "type": "Point", "coordinates": [ 140.8517, 35.7056 ] } },
{ "type": "Feature", "properties": { "観測の種類": "地殻変動", "name": "岩井北", "観測点名ローマ字": "IWAI-KITA", "観測点コード": "N.IWKH", "緯度（度）": 35.1015, "経度（度）": 139.8679, "高さ（ｍ）": "45", "測器の深度（ｍ）": "50", "維持管理機関名": "防災科学技術研究所", "維持管理機関名（英語）": "NIED", "観測開始年（西暦）": 1979, "同月": "7", "観測機器名または観測項目": "傾斜計" }, "geometry": { "type": "Point", "coordinates": [ 139.8679, 35.1015 ] } },
{ "type": "Feature", "properties": { "観測の種類": "地殻変動", "name": "勝浦", "観測点名ローマ字": "KATSUURA", "観測点コード": "N.KTUH", "緯度（度）": 35.1803, "経度（度）": 140.2656, "高さ（ｍ）": "96", "測器の深度（ｍ）": "108", "維持管理機関名": "防災科学技術研究所", "維持管理機関名（英語）": "NIED", "観測開始年（西暦）": 1983, "同月": "4", "観測機器名または観測項目": "傾斜計" }, "geometry": { "type": "Point", "coordinates": [ 140.2656, 35.1803 ] } },
{ "type": "Feature", "properties": { "観測の種類": "地殻変動", "name": "白子", "観測点名ローマ字": "SHIRAKO", "観測点コード": "N.SRKH", "緯度（度）": 35.4425, "経度（度）": 140.3677, "高さ（ｍ）": "4", "測器の深度（ｍ）": "185", "維持管理機関名": "防災科学技術研究所", "維持管理機関名（英語）": "NIED", "観測開始年（西暦）": 1998, "同月": "3", "観測機器名または観測項目": "傾斜計" }, "geometry": { "type": "Point", "coordinates": [ 140.3677, 35.4425 ] } },
{ "type": "Feature", "properties": { "観測の種類": "地殻変動", "name": "三宅", "観測点名ローマ字": "MIYAKE", "観測点コード": "N.MKEH", "緯度（度）": 34.1092, "経度（度）": 139.506, "高さ（ｍ）": "170", "測器の深度（ｍ）": "95", "維持管理機関名": "防災科学技術研究所", "維持管理機関名（英語）": "NIED", "観測開始年（西暦）": 1984, "同月": "4", "観測機器名または観測項目": "傾斜計" }, "geometry": { "type": "Point", "coordinates": [ 139.506, 34.1092 ] } },
{ "type": "Feature", "properties": { "観測の種類": "地殻変動", "name": "名組湾", "観測点名ローマ字": "NAGUMIWAN", "観測点コード": "N.NGMH", "緯度（度）": 34.2394, "経度（度）": 139.1379, "高さ（ｍ）": "20", "測器の深度（ｍ）": "41", "維持管理機関名": "防災科学技術研究所", "維持管理機関名（英語）": "NIED", "観測開始年（西暦）": 1996, "同月": "2", "観測機器名または観測項目": "傾斜計" }, "geometry": { "type": "Point", "coordinates": [ 139.1379, 34.2394 ] } },
{ "type": "Feature", "properties": { "観測の種類": "地殻変動", "name": "葱の場", "観測点名ローマ字": "NEGINOBA", "観測点コード": "N.NGNH", "緯度（度）": 34.194, "経度（度）": 139.1226, "高さ（ｍ）": "50", "測器の深度（ｍ）": "133", "維持管理機関名": "防災科学技術研究所", "維持管理機関名（英語）": "NIED", "観測開始年（西暦）": 2000, "同月": "11", "観測機器名または観測項目": "傾斜計，３成分歪み計" }, "geometry": { "type": "Point", "coordinates": [ 139.1226, 34.194 ] } },
{ "type": "Feature", "properties": { "観測の種類": "地殻変動", "name": "愛川", "観測点名ローマ字": "AIKAWA", "観測点コード": "N.AKWH", "緯度（度）": 35.5232, "経度（度）": 139.3149, "高さ（ｍ）": "80", "測器の深度（ｍ）": "88", "維持管理機関名": "防災科学技術研究所", "維持管理機関名（英語）": "NIED", "観測開始年（西暦）": 1983, "同月": "4", "観測機器名または観測項目": "傾斜計" }, "geometry": { "type": "Point", "coordinates": [ 139.3149, 35.5232 ] } },
{ "type": "Feature", "properties": { "観測の種類": "地殻変動", "name": "南足柄", "観測点名ローマ字": "MINAMIASHIGARA", "観測点コード": "N.ASGH", "緯度（度）": 35.3168, "経度（度）": 139.0247, "高さ（ｍ）": "480", "測器の深度（ｍ）": "94", "維持管理機関名": "防災科学技術研究所", "維持管理機関名（英語）": "NIED", "観測開始年（西暦）": 1979, "同月": "7", "観測機器名または観測項目": "傾斜計" }, "geometry": { "type": "Point", "coordinates": [ 139.0247, 35.3168 ] } },
{ "type": "Feature", "properties": { "観測の種類": "地殻変動", "name": "平塚", "観測点名ローマ字": "HIRATSUKA", "観測点コード": "N.HRTH", "緯度（度）": 35.3203, "経度（度）": 139.3088, "高さ（ｍ）": "175", "測器の深度（ｍ）": "189", "維持管理機関名": "防災科学技術研究所", "維持管理機関名（英語）": "NIED", "観測開始年（西暦）": 1992, "同月": "12", "観測機器名または観測項目": "傾斜計，３成分歪み計" }, "geometry": { "type": "Point", "coordinates": [ 139.3088, 35.3203 ] } },
{ "type": "Feature", "properties": { "観測の種類": "地殻変動", "name": "玄倉", "観測点名ローマ字": "KUROKURA", "観測点コード": "N.KRKH", "緯度（度）": 35.4443, "経度（度）": 139.1157, "高さ（ｍ）": "690", "測器の深度（ｍ）": "175", "維持管理機関名": "防災科学技術研究所", "維持管理機関名（英語）": "NIED", "観測開始年（西暦）": 1989, "同月": "3", "観測機器名または観測項目": "傾斜計，３成分歪み計" }, "geometry": { "type": "Point", "coordinates": [ 139.1157, 35.4443 ] } },
{ "type": "Feature", "properties": { "観測の種類": "地殻変動", "name": "真鶴", "観測点名ローマ字": "MANAZURU", "観測点コード": "N.MNZH", "緯度（度）": 35.1458, "経度（度）": 139.15, "高さ（ｍ）": "50", "測器の深度（ｍ）": "200", "維持管理機関名": "防災科学技術研究所", "維持管理機関名（英語）": "NIED", "観測開始年（西暦）": 1994, "同月": "5", "観測機器名または観測項目": "傾斜計，３成分歪み計" }, "geometry": { "type": "Point", "coordinates": [ 139.15, 35.1458 ] } },
{ "type": "Feature", "properties": { "観測の種類": "地殻変動", "name": "山北", "観測点名ローマ字": "YAMAKITA", "観測点コード": "N.YMKH", "緯度（度）": 35.4904, "経度（度）": 139.0594, "高さ（ｍ）": "665", "測器の深度（ｍ）": "101", "維持管理機関名": "防災科学技術研究所", "維持管理機関名（英語）": "NIED", "観測開始年（西暦）": 1984, "同月": "4", "観測機器名または観測項目": "傾斜計" }, "geometry": { "type": "Point", "coordinates": [ 139.0594, 35.4904 ] } },
{ "type": "Feature", "properties": { "観測の種類": "地殻変動", "name": "甲府", "観測点名ローマ字": "KOFU", "観測点コード": "N.KFUH", "緯度（度）": 35.7422, "経度（度）": 138.5656, "高さ（ｍ）": "590", "測器の深度（ｍ）": "142", "維持管理機関名": "防災科学技術研究所", "維持管理機関名（英語）": "NIED", "観測開始年（西暦）": 1987, "同月": "6", "観測機器名または観測項目": "３成分歪み計" }, "geometry": { "type": "Point", "coordinates": [ 138.5656, 35.7422 ] } },
{ "type": "Feature", "properties": { "観測の種類": "地殻変動", "name": "塩山", "観測点名ローマ字": "ENZAN", "観測点コード": "N.ENZH", "緯度（度）": 35.7392, "経度（度）": 138.8019, "高さ（ｍ）": "890", "測器の深度（ｍ）": "89", "維持管理機関名": "防災科学技術研究所", "維持管理機関名（英語）": "NIED", "観測開始年（西暦）": 1979, "同月": "7", "観測機器名または観測項目": "傾斜計" }, "geometry": { "type": "Point", "coordinates": [ 138.8019, 35.7392 ] } },
{ "type": "Feature", "properties": { "観測の種類": "地殻変動", "name": "王滝", "観測点名ローマ字": "OTAKI", "観測点コード": "N.OTKH", "緯度（度）": 35.813, "経度（度）": 137.5298, "高さ（ｍ）": "1010", "測器の深度（ｍ）": "90", "維持管理機関名": "防災科学技術研究所", "維持管理機関名（英語）": "NIED", "観測開始年（西暦）": 1995, "同月": "5", "観測機器名または観測項目": "傾斜計" }, "geometry": { "type": "Point", "coordinates": [ 137.5298, 35.813 ] } },
{ "type": "Feature", "properties": { "観測の種類": "地殻変動", "name": "近又", "観測点名ローマ字": "CHIKAMATA", "観測点コード": "N.CMTH", "緯度（度）": 34.9753, "経度（度）": 138.246, "高さ（ｍ）": "105", "測器の深度（ｍ）": "54", "維持管理機関名": "防災科学技術研究所", "維持管理機関名（英語）": "NIED", "観測開始年（西暦）": 1978, "同月": "3", "観測機器名または観測項目": "傾斜計" }, "geometry": { "type": "Point", "coordinates": [ 138.246, 34.9753 ] } },
{ "type": "Feature", "properties": { "観測の種類": "地殻変動", "name": "戸田", "観測点名ローマ字": "HEDA", "観測点コード": "N.HDAH", "緯度（度）": 34.9679, "経度（度）": 138.8017, "高さ（ｍ）": "55", "測器の深度（ｍ）": "101", "維持管理機関名": "防災科学技術研究所", "維持管理機関名（英語）": "NIED", "観測開始年（西暦）": 1984, "同月": "4", "観測機器名または観測項目": "傾斜計" }, "geometry": { "type": "Point", "coordinates": [ 138.8017, 34.9679 ] } },
{ "type": "Feature", "properties": { "観測の種類": "地殻変動", "name": "本川根", "観測点名ローマ字": "HONKAWANE", "観測点コード": "N.HKWH", "緯度（度）": 35.0966, "経度（度）": 138.1351, "高さ（ｍ）": "445", "測器の深度（ｍ）": "106", "維持管理機関名": "防災科学技術研究所", "維持管理機関名（英語）": "NIED", "観測開始年（西暦）": 1982, "同月": "4", "観測機器名または観測項目": "傾斜計" }, "geometry": { "type": "Point", "coordinates": [ 138.1351, 35.0966 ] } },
{ "type": "Feature", "properties": { "観測の種類": "地殻変動", "name": "浜岡", "観測点名ローマ字": "HAMAOKA", "観測点コード": "N.HMOH", "緯度（度）": 34.6342, "経度（度）": 138.1561, "高さ（ｍ）": "35", "測器の深度（ｍ）": "98", "維持管理機関名": "防災科学技術研究所", "維持管理機関名（英語）": "NIED", "観測開始年（西暦）": 1981, "同月": "10", "観測機器名または観測項目": "傾斜計" }, "geometry": { "type": "Point", "coordinates": [ 138.1561, 34.6342 ] } },
{ "type": "Feature", "properties": { "観測の種類": "地殻変動", "name": "伊東", "観測点名ローマ字": "ITO", "観測点コード": "N.ITOH", "緯度（度）": 34.9521, "経度（度）": 139.1379, "高さ（ｍ）": "10", "測器の深度（ｍ）": "92", "維持管理機関名": "防災科学技術研究所", "維持管理機関名（英語）": "NIED", "観測開始年（西暦）": 1989, "同月": "7", "観測機器名または観測項目": "傾斜計" }, "geometry": { "type": "Point", "coordinates": [ 139.1379, 34.9521 ] } },
{ "type": "Feature", "properties": { "観測の種類": "地殻変動", "name": "中伊豆", "観測点名ローマ字": "NAKAIZU", "観測点コード": "N.JIZH", "緯度（度）": 34.9161, "経度（度）": 138.9936, "高さ（ｍ）": "255", "測器の深度（ｍ）": "0", "維持管理機関名": "防災科学技術研究所", "維持管理機関名（英語）": "NIED", "観測開始年（西暦）": 1979, "同月": "7", "観測機器名または観測項目": "傾斜計" }, "geometry": { "type": "Point", "coordinates": [ 138.9936, 34.9161 ] } },
{ "type": "Feature", "properties": { "観測の種類": "地殻変動", "name": "掛川２", "観測点名ローマ字": "KAKEGAWA2", "観測点コード": "N.KG2H", "緯度（度）": 34.7522, "経度（度）": 138.001, "高さ（ｍ）": "110", "測器の深度（ｍ）": "534", "維持管理機関名": "防災科学技術研究所", "維持管理機関名（英語）": "NIED", "観測開始年（西暦）": 2003, "同月": "6", "観測機器名または観測項目": "傾斜計，３成分歪み計" }, "geometry": { "type": "Point", "coordinates": [ 138.001, 34.7522 ] } },
{ "type": "Feature", "properties": { "観測の種類": "地殻変動", "name": "黒俣", "観測点名ローマ字": "KUROMATA", "観測点コード": "N.KMTH", "緯度（度）": 35.0331, "経度（度）": 138.2146, "高さ（ｍ）": "220", "測器の深度（ｍ）": "178", "維持管理機関名": "防災科学技術研究所", "維持管理機関名（英語）": "NIED", "観測開始年（西暦）": 1999, "同月": "9", "観測機器名または観測項目": "傾斜計" }, "geometry": { "type": "Point", "coordinates": [ 138.2146, 35.0331 ] } },
{ "type": "Feature", "properties": { "観測の種類": "地殻変動", "name": "金谷", "観測点名ローマ字": "KANAYA", "観測点コード": "N.KNYH", "緯度（度）": 34.8739, "経度（度）": 138.0628, "高さ（ｍ）": "290", "測器の深度（ｍ）": "0", "維持管理機関名": "防災科学技術研究所", "維持管理機関名（英語）": "NIED", "観測開始年（西暦）": 2005, "同月": "3", "観測機器名または観測項目": "傾斜計" }, "geometry": { "type": "Point", "coordinates": [ 138.0628, 34.8739 ] } },
{ "type": "Feature", "properties": { "観測の種類": "地殻変動", "name": "三ケ日", "観測点名ローマ字": "MIKKABI", "観測点コード": "N.MKBH", "緯度（度）": 34.805, "経度（度）": 137.5109, "高さ（ｍ）": "60", "測器の深度（ｍ）": "99", "維持管理機関名": "防災科学技術研究所", "維持管理機関名（英語）": "NIED", "観測開始年（西暦）": 1981, "同月": "10", "観測機器名または観測項目": "傾斜計" }, "geometry": { "type": "Point", "coordinates": [ 137.5109, 34.805 ] } },
{ "type": "Feature", "properties": { "観測の種類": "地殻変動", "name": "森", "観測点名ローマ字": "MORI", "観測点コード": "N.MRIH", "緯度（度）": 34.8601, "経度（度）": 137.9424, "高さ（ｍ）": "55", "測器の深度（ｍ）": "197", "維持管理機関名": "防災科学技術研究所", "維持管理機関名（英語）": "NIED", "観測開始年（西暦）": 1999, "同月": "9", "観測機器名または観測項目": "傾斜計" }, "geometry": { "type": "Point", "coordinates": [ 137.9424, 34.8601 ] } },
{ "type": "Feature", "properties": { "観測の種類": "地殻変動", "name": "野田沢", "観測点名ローマ字": "NOTASAWA", "観測点コード": "N.NDZH", "緯度（度）": 34.9639, "経度（度）": 138.2764, "高さ（ｍ）": "140", "測器の深度（ｍ）": "53", "維持管理機関名": "防災科学技術研究所", "維持管理機関名（英語）": "NIED", "観測開始年（西暦）": 1978, "同月": "3", "観測機器名または観測項目": "傾斜計" }, "geometry": { "type": "Point", "coordinates": [ 138.2764, 34.9639 ] } },
{ "type": "Feature", "properties": { "観測の種類": "地殻変動", "name": "大須賀", "観測点名ローマ字": "OSUKA", "観測点コード": "N.OHSH", "緯度（度）": 34.6859, "経度（度）": 138.0124, "高さ（ｍ）": "70", "測器の深度（ｍ）": "135", "維持管理機関名": "防災科学技術研究所", "維持管理機関名（英語）": "NIED", "観測開始年（西暦）": 1984, "同月": "4", "観測機器名または観測項目": "傾斜計" }, "geometry": { "type": "Point", "coordinates": [ 138.0124, 34.6859 ] } },
{ "type": "Feature", "properties": { "観測の種類": "地殻変動", "name": "岡", "観測点名ローマ字": "OKA", "観測点コード": "N.OKAH", "緯度（度）": 34.9436, "経度（度）": 139.1034, "高さ（ｍ）": "135", "測器の深度（ｍ）": "223", "維持管理機関名": "防災科学技術研究所", "維持管理機関名（英語）": "NIED", "観測開始年（西暦）": 1997, "同月": "3", "観測機器名または観測項目": "傾斜計" }, "geometry": { "type": "Point", "coordinates": [ 139.1034, 34.9436 ] } },
{ "type": "Feature", "properties": { "観測の種類": "地殻変動", "name": "岡部", "観測点名ローマ字": "OKABE", "観測点コード": "N.OKBH", "緯度（度）": 34.9533, "経度（度）": 138.2506, "高さ（ｍ）": "70", "測器の深度（ｍ）": "101", "維持管理機関名": "防災科学技術研究所", "維持管理機関名（英語）": "NIED", "観測開始年（西暦）": 1979, "同月": "7", "観測機器名または観測項目": "傾斜計" }, "geometry": { "type": "Point", "coordinates": [ 138.2506, 34.9533 ] } },
{ "type": "Feature", "properties": { "観測の種類": "地殻変動", "name": "静岡", "観測点名ローマ字": "SHIZUOKA", "観測点コード": "N.SIZH", "緯度（度）": 35.1147, "経度（度）": 138.3267, "高さ（ｍ）": "180", "測器の深度（ｍ）": "103", "維持管理機関名": "防災科学技術研究所", "維持管理機関名（英語）": "NIED", "観測開始年（西暦）": 1981, "同月": "10", "観測機器名または観測項目": "傾斜計" }, "geometry": { "type": "Point", "coordinates": [ 138.3267, 35.1147 ] } },
{ "type": "Feature", "properties": { "観測の種類": "地殻変動", "name": "下田", "観測点名ローマ字": "SHIMODA", "観測点コード": "N.SMDH", "緯度（度）": 34.7409, "経度（度）": 138.9312, "高さ（ｍ）": "70", "測器の深度（ｍ）": "88", "維持管理機関名": "防災科学技術研究所", "維持管理機関名（英語）": "NIED", "観測開始年（西暦）": 1982, "同月": "4", "観測機器名または観測項目": "傾斜計" }, "geometry": { "type": "Point", "coordinates": [ 138.9312, 34.7409 ] } },
{ "type": "Feature", "properties": { "観測の種類": "地殻変動", "name": "寸又峡", "観測点名ローマ字": "SUMATAKYO", "観測点コード": "N.SUMH", "緯度（度）": 35.1724, "経度（度）": 138.1236, "高さ（ｍ）": "505", "測器の深度（ｍ）": "185", "維持管理機関名": "防災科学技術研究所", "維持管理機関名（英語）": "NIED", "観測開始年（西暦）": 2002, "同月": "3", "観測機器名または観測項目": "傾斜計，３成分歪み計" }, "geometry": { "type": "Point", "coordinates": [ 138.1236, 35.1724 ] } },
{ "type": "Feature", "properties": { "観測の種類": "地殻変動", "name": "龍山", "観測点名ローマ字": "TATSUYAMA", "観測点コード": "N.TATH", "緯度（度）": 35.005, "経度（度）": 137.7968, "高さ（ｍ）": "480", "測器の深度（ｍ）": "172", "維持管理機関名": "防災科学技術研究所", "維持管理機関名（英語）": "NIED", "観測開始年（西暦）": 2001, "同月": "4", "観測機器名または観測項目": "傾斜計，３成分歪み計" }, "geometry": { "type": "Point", "coordinates": [ 137.7968, 35.005 ] } },
{ "type": "Feature", "properties": { "観測の種類": "地殻変動", "name": "徳永", "観測点名ローマ字": "TOKUNAGA", "観測点コード": "N.TNGH", "緯度（度）": 34.9232, "経度（度）": 139.0443, "高さ（ｍ）": "335", "測器の深度（ｍ）": "96", "維持管理機関名": "防災科学技術研究所", "維持管理機関名（英語）": "NIED", "観測開始年（西暦）": 1995, "同月": "3", "観測機器名または観測項目": "傾斜計" }, "geometry": { "type": "Point", "coordinates": [ 139.0443, 34.9232 ] } },
{ "type": "Feature", "properties": { "観測の種類": "地殻変動", "name": "天竜", "観測点名ローマ字": "TENRYU", "観測点コード": "N.TNRH", "緯度（度）": 34.911, "経度（度）": 137.8821, "高さ（ｍ）": "160", "測器の深度（ｍ）": "75", "維持管理機関名": "防災科学技術研究所", "維持管理機関名（英語）": "NIED", "観測開始年（西暦）": 1979, "同月": "7", "観測機器名または観測項目": "傾斜計" }, "geometry": { "type": "Point", "coordinates": [ 137.8821, 34.911 ] } },
{ "type": "Feature", "properties": { "観測の種類": "地殻変動", "name": "吉田", "観測点名ローマ字": "YOSHIDA", "観測点コード": "N.YOSH", "緯度（度）": 34.9302, "経度（度）": 139.1356, "高さ（ｍ）": "105", "測器の深度（ｍ）": "173", "維持管理機関名": "防災科学技術研究所", "維持管理機関名（英語）": "NIED", "観測開始年（西暦）": 1999, "同月": "6", "観測機器名または観測項目": "傾斜計" }, "geometry": { "type": "Point", "coordinates": [ 139.1356, 34.9302 ] } },
{ "type": "Feature", "properties": { "観測の種類": "体積歪", "name": "田原福江", "観測点名ローマ字": "TAHARAFUKUE", "観測点コード": null, "緯度（度）": 34.6296, "経度（度）": 137.0936, "高さ（ｍ）": "6", "測器の深度（ｍ）": "268", "維持管理機関名": "気象庁", "維持管理機関名（英語）": "JMA", "観測開始年（西暦）": 1996, "同月": "1", "観測機器名または観測項目": "体積歪計" }, "geometry": { "type": "Point", "coordinates": [ 137.0936, 34.6296 ] } },
{ "type": "Feature", "properties": { "観測の種類": "体積歪", "name": "蒲郡清田", "観測点名ローマ字": "GAMAGORISEIDA", "観測点コード": null, "緯度（度）": 34.8411, "経度（度）": 137.2395, "高さ（ｍ）": "38", "測器の深度（ｍ）": "100", "維持管理機関名": "気象庁", "維持管理機関名（英語）": "JMA", "観測開始年（西暦）": 1980, "同月": "7", "観測機器名または観測項目": "体積歪計" }, "geometry": { "type": "Point", "coordinates": [ 137.2395, 34.8411 ] } },
{ "type": "Feature", "properties": { "観測の種類": "体積歪", "name": "浜松三ヶ日", "観測点名ローマ字": "HAMAMATSUMIKKABI", "観測点コード": null, "緯度（度）": 34.8078, "経度（度）": 137.5552, "高さ（ｍ）": "20", "測器の深度（ｍ）": "216", "維持管理機関名": "気象庁", "維持管理機関名（英語）": "JMA", "観測開始年（西暦）": 1994, "同月": "5", "観測機器名または観測項目": "体積歪計" }, "geometry": { "type": "Point", "coordinates": [ 137.5552, 34.8078 ] } },
{ "type": "Feature", "properties": { "観測の種類": "体積歪", "name": "浜松横川", "観測点名ローマ字": "HAMAMATSUYOKOKAWA", "観測点コード": null, "緯度（度）": 34.9111, "経度（度）": 137.8822, "高さ（ｍ）": "160", "測器の深度（ｍ）": "149", "維持管理機関名": "気象庁", "維持管理機関名（英語）": "JMA", "観測開始年（西暦）": 1980, "同月": "7", "観測機器名または観測項目": "体積歪計" }, "geometry": { "type": "Point", "coordinates": [ 137.8822, 34.9111 ] } },
{ "type": "Feature", "properties": { "観測の種類": "体積歪", "name": "島田川根", "観測点名ローマ字": "SHIMADAKAWANE", "観測点コード": null, "緯度（度）": 34.9386, "経度（度）": 138.087, "高さ（ｍ）": "173", "測器の深度（ｍ）": "101", "維持管理機関名": "気象庁", "維持管理機関名（英語）": "JMA", "観測開始年（西暦）": 1980, "同月": "7", "観測機器名または観測項目": "体積歪計" }, "geometry": { "type": "Point", "coordinates": [ 138.087, 34.9386 ] } },
{ "type": "Feature", "properties": { "観測の種類": "体積歪", "name": "御前崎佐倉", "観測点名ローマ字": "OMAEZAKISAKURA", "観測点コード": null, "緯度（度）": 34.6354, "経度（度）": 138.1557, "高さ（ｍ）": "35", "測器の深度（ｍ）": "286", "維持管理機関名": "気象庁", "維持管理機関名（英語）": "JMA", "観測開始年（西暦）": 1992, "同月": "9", "観測機器名または観測項目": "体積歪計" }, "geometry": { "type": "Point", "coordinates": [ 138.1557, 34.6354 ] } },
{ "type": "Feature", "properties": { "観測の種類": "体積歪", "name": "牧之原坂部", "観測点名ローマ字": "MAKINOHARASAKABE", "観測点コード": null, "緯度（度）": 34.7776, "経度（度）": 138.2087, "高さ（ｍ）": "16", "測器の深度（ｍ）": "254", "維持管理機関名": "気象庁", "維持管理機関名（英語）": "JMA", "観測開始年（西暦）": 1995, "同月": "2", "観測機器名または観測項目": "体積歪計" }, "geometry": { "type": "Point", "coordinates": [ 138.2087, 34.7776 ] } },
{ "type": "Feature", "properties": { "観測の種類": "体積歪", "name": "御前崎大山", "観測点名ローマ字": "OMAEZAKIOYAMA", "観測点コード": null, "緯度（度）": 34.6047, "経度（度）": 138.2131, "高さ（ｍ）": "46", "測器の深度（ｍ）": "242", "維持管理機関名": "気象庁", "維持管理機関名（英語）": "JMA", "観測開始年（西暦）": 1994, "同月": "4", "観測機器名または観測項目": "体積歪計" }, "geometry": { "type": "Point", "coordinates": [ 138.2131, 34.6047 ] } },
{ "type": "Feature", "properties": { "観測の種類": "傾斜", "name": "御前崎大山", "観測点名ローマ字": "OMAEZAKIOYAMA", "観測点コード": null, "緯度（度）": 34.6048, "経度（度）": 138.2134, "高さ（ｍ）": "45", "測器の深度（ｍ）": "214", "維持管理機関名": "気象庁", "維持管理機関名（英語）": "JMA", "観測開始年（西暦）": null, "同月": null, "観測機器名または観測項目": "傾斜計" }, "geometry": { "type": "Point", "coordinates": [ 138.2134, 34.6048 ] } },
{ "type": "Feature", "properties": { "観測の種類": "体積歪", "name": "藤枝花倉", "観測点名ローマ字": "FUJIEDAHANAGURA", "観測点コード": null, "緯度（度）": 34.8957, "経度（度）": 138.2283, "高さ（ｍ）": "45", "測器の深度（ｍ）": "101", "維持管理機関名": "気象庁", "維持管理機関名（英語）": "JMA", "観測開始年（西暦）": 1980, "同月": "7", "観測機器名または観測項目": "体積歪計" }, "geometry": { "type": "Point", "coordinates": [ 138.2283, 34.8957 ] } },
{ "type": "Feature", "properties": { "観測の種類": "体積歪", "name": "静岡漆山", "観測点名ローマ字": "SHIZUOKAURUSHIYAMA", "観測点コード": null, "緯度（度）": 35.0228, "経度（度）": 138.3987, "高さ（ｍ）": "8", "測器の深度（ｍ）": "198", "維持管理機関名": "気象庁", "維持管理機関名（英語）": "JMA", "観測開始年（西暦）": 1993, "同月": "2", "観測機器名または観測項目": "体積歪計" }, "geometry": { "type": "Point", "coordinates": [ 138.3987, 35.0228 ] } },
{ "type": "Feature", "properties": { "観測の種類": "体積歪", "name": "静岡但沼", "観測点名ローマ字": "SHIZUOKATADANUMA", "観測点コード": null, "緯度（度）": 35.102, "経度（度）": 138.511, "高さ（ｍ）": "60", "測器の深度（ｍ）": "125", "維持管理機関名": "気象庁", "維持管理機関名（英語）": "JMA", "観測開始年（西暦）": 1980, "同月": "7", "観測機器名または観測項目": "体積歪計" }, "geometry": { "type": "Point", "coordinates": [ 138.511, 35.102 ] } },
{ "type": "Feature", "properties": { "観測の種類": "体積歪", "name": "富士鵜無ケ淵", "観測点名ローマ字": "FUJIUNAIGAFUCHI", "観測点コード": null, "緯度（度）": 35.194, "経度（度）": 138.7255, "高さ（ｍ）": "206", "測器の深度（ｍ）": "92", "維持管理機関名": "気象庁", "維持管理機関名（英語）": "JMA", "観測開始年（西暦）": 1980, "同月": "7", "観測機器名または観測項目": "体積歪計" }, "geometry": { "type": "Point", "coordinates": [ 138.7255, 35.194 ] } },
{ "type": "Feature", "properties": { "観測の種類": "体積歪", "name": "伊豆小下田", "観測点名ローマ字": "IZUKOSHIMODA", "観測点コード": null, "緯度（度）": 34.8773, "経度（度）": 138.7606, "高さ（ｍ）": "100", "測器の深度（ｍ）": "152", "維持管理機関名": "気象庁", "維持管理機関名（英語）": "JMA", "観測開始年（西暦）": 1980, "同月": "7", "観測機器名または観測項目": "体積歪計" }, "geometry": { "type": "Point", "coordinates": [ 138.7606, 34.8773 ] } },
{ "type": "Feature", "properties": { "観測の種類": "体積歪", "name": "南伊豆入間", "観測点名ローマ字": "MINAMIIZUIRUMA", "観測点コード": null, "緯度（度）": 34.6417, "経度（度）": 138.8165, "高さ（ｍ）": "53", "測器の深度（ｍ）": "250", "維持管理機関名": "気象庁", "維持管理機関名（英語）": "JMA", "観測開始年（西暦）": 1996, "同月": "2", "観測機器名または観測項目": "体積歪計" }, "geometry": { "type": "Point", "coordinates": [ 138.8165, 34.6417 ] } },
{ "type": "Feature", "properties": { "観測の種類": "体積歪", "name": "東伊豆奈良本", "観測点名ローマ字": "HIGASHIIZUNARAMOTO", "観測点コード": null, "緯度（度）": 34.8157, "経度（度）": 139.0545, "高さ（ｍ）": "148", "測器の深度（ｍ）": "251", "維持管理機関名": "気象庁", "維持管理機関名（英語）": "JMA", "観測開始年（西暦）": 1990, "同月": "5", "観測機器名または観測項目": "体積歪計" }, "geometry": { "type": "Point", "coordinates": [ 139.0545, 34.8157 ] } },
{ "type": "Feature", "properties": { "観測の種類": "体積歪", "name": "熱海下多賀", "観測点名ローマ字": "ATAMISHIMOTAGA", "観測点コード": null, "緯度（度）": 35.0532, "経度（度）": 139.0666, "高さ（ｍ）": "70", "測器の深度（ｍ）": "260", "維持管理機関名": "気象庁", "維持管理機関名（英語）": "JMA", "観測開始年（西暦）": 1995, "同月": "3", "観測機器名または観測項目": "体積歪計" }, "geometry": { "type": "Point", "coordinates": [ 139.0666, 35.0532 ] } },
{ "type": "Feature", "properties": { "観測の種類": "体積歪", "name": "湯河原鍛冶屋", "観測点名ローマ字": "YUGAWARAKAJIYA", "観測点コード": null, "緯度（度）": 35.1665, "経度（度）": 139.0898, "高さ（ｍ）": "187", "測器の深度（ｍ）": "150", "維持管理機関名": "気象庁", "維持管理機関名（英語）": "JMA", "観測開始年（西暦）": 1981, "同月": "5", "観測機器名または観測項目": "体積歪計" }, "geometry": { "type": "Point", "coordinates": [ 139.0898, 35.1665 ] } },
{ "type": "Feature", "properties": { "観測の種類": "体積歪", "name": "秦野菩提", "観測点名ローマ字": "HADANOBODAI", "観測点コード": null, "緯度（度）": 35.3994, "経度（度）": 139.1901, "高さ（ｍ）": "206", "測器の深度（ｍ）": "148", "維持管理機関名": "気象庁", "維持管理機関名（英語）": "JMA", "観測開始年（西暦）": 1981, "同月": "5", "観測機器名または観測項目": "体積歪計" }, "geometry": { "type": "Point", "coordinates": [ 139.1901, 35.3994 ] } },
{ "type": "Feature", "properties": { "観測の種類": "体積歪", "name": "大島津倍付", "観測点名ローマ字": "OSHIMATSUBAITSUKI", "観測点コード": null, "緯度（度）": 34.7668, "経度（度）": 139.3742, "高さ（ｍ）": "187", "測器の深度（ｍ）": "291", "維持管理機関名": "気象庁", "維持管理機関名（英語）": "JMA", "観測開始年（西暦）": 1990, "同月": "10", "観測機器名または観測項目": "体積歪計" }, "geometry": { "type": "Point", "coordinates": [ 139.3742, 34.7668 ] } },
{ "type": "Feature", "properties": { "観測の種類": "体積歪", "name": "日野程久保", "観測点名ローマ字": "HINOHODOKUBO", "観測点コード": null, "緯度（度）": 35.6492, "経度（度）": 139.4136, "高さ（ｍ）": "125", "測器の深度（ｍ）": "148", "維持管理機関名": "気象庁", "維持管理機関名（英語）": "JMA", "観測開始年（西暦）": 1981, "同月": "5", "観測機器名または観測項目": "体積歪計" }, "geometry": { "type": "Point", "coordinates": [ 139.4136, 35.6492 ] } },
{ "type": "Feature", "properties": { "観測の種類": "体積歪", "name": "横浜川和", "観測点名ローマ字": "YOKOHAMAKAWAWA", "観測点コード": null, "緯度（度）": 35.5388, "経度（度）": 139.551, "高さ（ｍ）": "55", "測器の深度（ｍ）": "203", "維持管理機関名": "気象庁", "維持管理機関名（英語）": "JMA", "観測開始年（西暦）": 1981, "同月": "5", "観測機器名または観測項目": "体積歪計" }, "geometry": { "type": "Point", "coordinates": [ 139.551, 35.5388 ] } },
{ "type": "Feature", "properties": { "観測の種類": "体積歪", "name": "三浦三崎", "観測点名ローマ字": "MIURAMISAKI", "観測点コード": null, "緯度（度）": 35.1549, "経度（度）": 139.6393, "高さ（ｍ）": "50", "測器の深度（ｍ）": "150", "維持管理機関名": "気象庁", "維持管理機関名（英語）": "JMA", "観測開始年（西暦）": 1981, "同月": "5", "観測機器名または観測項目": "体積歪計" }, "geometry": { "type": "Point", "coordinates": [ 139.6393, 35.1549 ] } },
{ "type": "Feature", "properties": { "観測の種類": "体積歪", "name": "富津望井", "観測点名ローマ字": "FUTTSUMOCHII", "観測点コード": null, "緯度（度）": 35.218, "経度（度）": 139.9003, "高さ（ｍ）": "15", "測器の深度（ｍ）": "150", "維持管理機関名": "気象庁", "維持管理機関名（英語）": "JMA", "観測開始年（西暦）": 1981, "同月": "5", "観測機器名または観測項目": "体積歪計" }, "geometry": { "type": "Point", "coordinates": [ 139.9003, 35.218 ] } },
{ "type": "Feature", "properties": { "観測の種類": "体積歪", "name": "大多喜宇筒原", "観測点名ローマ字": "OTAKIUTOBARA", "観測点コード": null, "緯度（度）": 35.2362, "経度（度）": 140.2252, "高さ（ｍ）": "90", "測器の深度（ｍ）": "250", "維持管理機関名": "気象庁", "維持管理機関名（英語）": "JMA", "観測開始年（西暦）": 1981, "同月": "5", "観測機器名または観測項目": "体積歪計" }, "geometry": { "type": "Point", "coordinates": [ 140.2252, 35.2362 ] } },
{ "type": "Feature", "properties": { "観測の種類": "体積歪", "name": "長柄刑部", "観測点名ローマ字": "NAGARAOSAKABE", "観測点コード": null, "緯度（度）": 35.4253, "経度（度）": 140.1928, "高さ（ｍ）": "28", "測器の深度（ｍ）": "250", "維持管理機関名": "気象庁", "維持管理機関名（英語）": "JMA", "観測開始年（西暦）": 1981, "同月": "5", "観測機器名または観測項目": "体積歪計" }, "geometry": { "type": "Point", "coordinates": [ 140.1928, 35.4253 ] } },
{ "type": "Feature", "properties": { "観測の種類": "体積歪", "name": "勝浦墨名", "観測点名ローマ字": "KATSUURATONA", "観測点コード": null, "緯度（度）": 35.1506, "経度（度）": 140.3124, "高さ（ｍ）": "12", "測器の深度（ｍ）": "250", "維持管理機関名": "気象庁", "維持管理機関名（英語）": "JMA", "観測開始年（西暦）": 1997, "同月": "1", "観測機器名または観測項目": "体積歪計" }, "geometry": { "type": "Point", "coordinates": [ 140.3124, 35.1506 ] } },
{ "type": "Feature", "properties": { "観測の種類": "伸縮計", "name": "長野松代", "観測点名ローマ字": "NAGANOMATSUSHIRO", "観測点コード": null, "緯度（度）": 36.5464, "経度（度）": 138.2036, "高さ（ｍ）": "403", "測器の深度（ｍ）": null, "維持管理機関名": "気象庁", "維持管理機関名（英語）": "JMA", "観測開始年（西暦）": 1980, "同月": "6", "観測機器名または観測項目": "石英管伸縮計" }, "geometry": { "type": "Point", "coordinates": [ 138.2036, 36.5464 ] } },
{ "type": "Feature", "properties": { "観測の種類": "多成分歪", "name": "掛川富部", "観測点名ローマ字": "KAKEGAWATOMBE", "観測点コード": null, "緯度（度）": 34.7889, "経度（度）": 137.9713, "高さ（ｍ）": "43", "測器の深度（ｍ）": "500", "維持管理機関名": "気象庁", "維持管理機関名（英語）": "JMA", "観測開始年（西暦）": 1998, "同月": "4", "観測機器名または観測項目": "多成分歪" }, "geometry": { "type": "Point", "coordinates": [ 137.9713, 34.7889 ] } },
{ "type": "Feature", "properties": { "観測の種類": "多成分歪", "name": "浜松佐久間", "観測点名ローマ字": "HAMAMATSUSAKUMA", "観測点コード": null, "緯度（度）": 34.9986, "経度（度）": 137.7307, "高さ（ｍ）": "495", "測器の深度（ｍ）": "402", "維持管理機関名": "気象庁", "維持管理機関名（英語）": "JMA", "観測開始年（西暦）": 1999, "同月": "3", "観測機器名または観測項目": "多成分歪" }, "geometry": { "type": "Point", "coordinates": [ 137.7307, 34.9986 ] } },
{ "type": "Feature", "properties": { "観測の種類": "多成分歪", "name": "浜松宮口", "観測点名ローマ字": "HAMAMATSUMIYAGUCHI", "観測点コード": null, "緯度（度）": 34.8181, "経度（度）": 137.7554, "高さ（ｍ）": "65", "測器の深度（ｍ）": "765", "維持管理機関名": "気象庁", "維持管理機関名（英語）": "JMA", "観測開始年（西暦）": 2002, "同月": "1", "観測機器名または観測項目": "多成分歪" }, "geometry": { "type": "Point", "coordinates": [ 137.7554, 34.8181 ] } },
{ "type": "Feature", "properties": { "観測の種類": "多成分歪", "name": "静岡落合", "観測点名ローマ字": "SHIZUOKAOCHIAI", "観測点コード": null, "緯度（度）": 35.1198, "経度（度）": 138.3253, "高さ（ｍ）": "190", "測器の深度（ｍ）": "478", "維持管理機関名": "気象庁", "維持管理機関名（英語）": "JMA", "観測開始年（西暦）": 2010, "同月": "6", "観測機器名または観測項目": "多成分歪" }, "geometry": { "type": "Point", "coordinates": [ 138.3253, 35.1198 ] } },
{ "type": "Feature", "properties": { "観測の種類": "多成分歪", "name": "藤枝蔵田", "観測点名ローマ字": "FUJIEDAKURATA", "観測点コード": null, "緯度（度）": 34.9718, "経度（度）": 138.1947, "高さ（ｍ）": "404", "測器の深度（ｍ）": "497", "維持管理機関名": "気象庁", "維持管理機関名（英語）": "JMA", "観測開始年（西暦）": 2010, "同月": "8", "観測機器名または観測項目": "多成分歪" }, "geometry": { "type": "Point", "coordinates": [ 138.1947, 34.9718 ] } },
{ "type": "Feature", "properties": { "観測の種類": "多成分歪", "name": "掛川高天神", "観測点名ローマ字": "KAKEGAWATAKATENJIN", "観測点コード": null, "緯度（度）": 34.7011, "経度（度）": 138.0353, "高さ（ｍ）": "65", "測器の深度（ｍ）": "514", "維持管理機関名": "気象庁", "維持管理機関名（英語）": "JMA", "観測開始年（西暦）": 2010, "同月": "4", "観測機器名または観測項目": "多成分歪" }, "geometry": { "type": "Point", "coordinates": [ 138.0353, 34.7011 ] } },
{ "type": "Feature", "properties": { "観測の種類": "多成分歪", "name": "売木岩倉", "観測点名ローマ字": "URUGIIWAKURA", "観測点コード": null, "緯度（度）": 35.2884, "経度（度）": 137.6769, "高さ（ｍ）": "1041", "測器の深度（ｍ）": "504", "維持管理機関名": "気象庁", "維持管理機関名（英語）": "JMA", "観測開始年（西暦）": 2010, "同月": "8", "観測機器名または観測項目": "多成分歪" }, "geometry": { "type": "Point", "coordinates": [ 137.6769, 35.2884 ] } },
{ "type": "Feature", "properties": { "観測の種類": "多成分歪", "name": "新城浅谷", "観測点名ローマ字": "SHINSHIROASAYA", "観測点コード": null, "緯度（度）": 34.9386, "経度（度）": 137.5382, "高さ（ｍ）": "125", "測器の深度（ｍ）": "487", "維持管理機関名": "気象庁", "維持管理機関名（英語）": "JMA", "観測開始年（西暦）": 2010, "同月": "6", "観測機器名または観測項目": "多成分歪" }, "geometry": { "type": "Point", "coordinates": [ 137.5382, 34.9386 ] } },
{ "type": "Feature", "properties": { "観測の種類": "多成分歪", "name": "田原高松", "観測点名ローマ字": "TAHARATAKAMATSU", "観測点コード": null, "緯度（度）": 34.6273, "経度（度）": 137.2219, "高さ（ｍ）": "47", "測器の深度（ｍ）": "503", "維持管理機関名": "気象庁", "維持管理機関名（英語）": "JMA", "観測開始年（西暦）": 2010, "同月": "9", "観測機器名または観測項目": "多成分歪" }, "geometry": { "type": "Point", "coordinates": [ 137.2219, 34.6273 ] } },
{ "type": "Feature", "properties": { "観測の種類": "多成分歪計", "name": "大原", "観測点名ローマ字": "Ohara", "観測点コード": "OHR", "緯度（度）": 35.1104, "経度（度）": 135.8193, "高さ（ｍ）": "218", "測器の深度（ｍ）": "278", "維持管理機関名": "産業技術総合研究所/地質調査総合センター", "維持管理機関名（英語）": "GSJ", "観測開始年（西暦）": 1998, "同月": "NULL", "観測機器名または観測項目": "多成分歪計" }, "geometry": { "type": "Point", "coordinates": [ 135.8193, 35.1104 ] } },
{ "type": "Feature", "properties": { "観測の種類": "多成分歪計", "name": "天王寺", "観測点名ローマ字": "Ten'nouji", "観測点コード": "TNN", "緯度（度）": 34.6591, "経度（度）": 135.5118, "高さ（ｍ）": "15", "測器の深度（ｍ）": "542", "維持管理機関名": "産業技術総合研究所/地質調査総合センター", "維持管理機関名（英語）": "GSJ", "観測開始年（西暦）": 1996, "同月": "NULL", "観測機器名または観測項目": "多成分歪計" }, "geometry": { "type": "Point", "coordinates": [ 135.5118, 34.6591 ] } },
{ "type": "Feature", "properties": { "観測の種類": "多成分歪計", "name": "安富", "観測点名ローマ字": "Yasutomi", "観測点コード": "YST", "緯度（度）": 34.9854, "経度（度）": 134.6081, "高さ（ｍ）": "126", "測器の深度（ｍ）": "286", "維持管理機関名": "産業技術総合研究所/地質調査総合センター", "維持管理機関名（英語）": "GSJ", "観測開始年（西暦）": 1998, "同月": "NULL", "観測機器名または観測項目": "多成分歪計" }, "geometry": { "type": "Point", "coordinates": [ 134.6081, 34.9854 ] } },
{ "type": "Feature", "properties": { "観測の種類": "多成分歪計", "name": "板東(鳴門大麻)", "観測点名ローマ字": "Bando(Naruto-ooasa)", "観測点コード": "BND", "緯度（度）": 34.1445, "経度（度）": 134.514, "高さ（ｍ）": "3", "測器の深度（ｍ）": "497", "維持管理機関名": "産業技術総合研究所/地質調査総合センター", "維持管理機関名（英語）": "GSJ", "観測開始年（西暦）": 1996, "同月": "NULL", "観測機器名または観測項目": "多成分歪計" }, "geometry": { "type": "Point", "coordinates": [ 134.514, 34.1445 ] } },
{ "type": "Feature", "properties": { "観測の種類": "多成分歪計・傾斜計", "name": "豊橋東(豊橋多米)", "観測点名ローマ字": "Toyohashi-higashi(Toyohashi-Tame)", "観測点コード": "TYE", "緯度（度）": 34.7659, "経度（度）": 137.4695, "高さ（ｍ）": "93", "測器の深度（ｍ）": "267", "維持管理機関名": "産業技術総合研究所/地質調査総合センター", "維持管理機関名（英語）": "GSJ", "観測開始年（西暦）": 2004, "同月": "9", "観測機器名または観測項目": "多成分歪計・傾斜計" }, "geometry": { "type": "Point", "coordinates": [ 137.4695, 34.7659 ] } },
{ "type": "Feature", "properties": { "観測の種類": "多成分歪計・傾斜計", "name": "豊田下山(豊田神殿)", "観測点名ローマ字": "Toyota-shimoyama(Toyota-Kandono)", "観測点コード": "TYS", "緯度（度）": 35.0405, "経度（度）": 137.3578, "高さ（ｍ）": "480", "測器の深度（ｍ）": "587", "維持管理機関名": "産業技術総合研究所/地質調査総合センター", "維持管理機関名（英語）": "GSJ", "観測開始年（西暦）": 2008, "同月": "NULL", "観測機器名または観測項目": "多成分歪計・傾斜計" }, "geometry": { "type": "Point", "coordinates": [ 137.3578, 35.0405 ] } },
{ "type": "Feature", "properties": { "観測の種類": "多成分歪計・傾斜計", "name": "西尾善明", "観測点名ローマ字": "Nisho-zenmyo", "観測点コード": "NSZ", "緯度（度）": 34.8442, "経度（度）": 137.1057, "高さ（ｍ）": "39", "測器の深度（ｍ）": "583", "維持管理機関名": "産業技術総合研究所/地質調査総合センター", "維持管理機関名（英語）": "GSJ", "観測開始年（西暦）": 2013, "同月": "6", "観測機器名または観測項目": "多成分歪計・傾斜計" }, "geometry": { "type": "Point", "coordinates": [ 137.1057, 34.8442 ] } },
{ "type": "Feature", "properties": { "観測の種類": "多成分歪計・傾斜計", "name": "安濃(津安濃)", "観測点名ローマ字": "Anou(Tsu-Anou)", "観測点コード": "ANO", "緯度（度）": 34.787, "経度（度）": 136.4019, "高さ（ｍ）": "163", "測器の深度（ｍ）": "590", "維持管理機関名": "産業技術総合研究所/地質調査総合センター", "維持管理機関名（英語）": "GSJ", "観測開始年（西暦）": 2010, "同月": "2", "観測機器名または観測項目": "多成分歪計・傾斜計" }, "geometry": { "type": "Point", "coordinates": [ 136.4019, 34.787 ] } },
{ "type": "Feature", "properties": { "観測の種類": "多成分歪計・傾斜計", "name": "井内浦(熊野磯崎)", "観測点名ローマ字": "Ichiura(Kumano-Isozaki)", "観測点コード": "ICU", "緯度（度）": 33.9001, "経度（度）": 136.1379, "高さ（ｍ）": "28", "測器の深度（ｍ）": "589", "維持管理機関名": "産業技術総合研究所/地質調査総合センター", "維持管理機関名（英語）": "GSJ", "観測開始年（西暦）": 2007, "同月": "5", "観測機器名または観測項目": "多成分歪計・傾斜計" }, "geometry": { "type": "Point", "coordinates": [ 136.1379, 33.9001 ] } },
{ "type": "Feature", "properties": { "観測の種類": "多成分歪計・傾斜計", "name": "串本津荷", "観測点名ローマ字": "Kushimoto-tsuga", "観測点コード": "KST", "緯度（度）": 33.5201, "経度（度）": 135.8363, "高さ（ｍ）": "25", "測器の深度（ｍ）": "591", "維持管理機関名": "産業技術総合研究所/地質調査総合センター", "維持管理機関名（英語）": "GSJ", "観測開始年（西暦）": 2008, "同月": "NULL", "観測機器名または観測項目": "多成分歪計・傾斜計" }, "geometry": { "type": "Point", "coordinates": [ 135.8363, 33.5201 ] } },
{ "type": "Feature", "properties": { "観測の種類": "多成分歪計・傾斜計", "name": "本宮三越(田辺本宮)", "観測点名ローマ字": "Hongu-mikoshi(Tanabe-Hongu)", "観測点コード": "HGM", "緯度（度）": 33.8675, "経度（度）": 135.7318, "高さ（ｍ）": "120", "測器の深度（ｍ）": "373", "維持管理機関名": "産業技術総合研究所/地質調査総合センター", "維持管理機関名（英語）": "GSJ", "観測開始年（西暦）": 2007, "同月": "6", "観測機器名または観測項目": "多成分歪計・傾斜計" }, "geometry": { "type": "Point", "coordinates": [ 135.7318, 33.8675 ] } },
{ "type": "Feature", "properties": { "観測の種類": "多成分歪計・傾斜計", "name": "日高川和佐", "観測点名ローマ字": "Hidakagawa-Wasa", "観測点コード": "HDW", "緯度（度）": 33.8862, "経度（度）": 135.1988, "高さ（ｍ）": "54", "測器の深度（ｍ）": "585", "維持管理機関名": "産業技術総合研究所/地質調査総合センター", "維持管理機関名（英語）": "GSJ", "観測開始年（西暦）": 2022, "同月": "3", "観測機器名または観測項目": "多成分歪計・傾斜計" }, "geometry": { "type": "Point", "coordinates": [ 135.1988, 33.8862 ] } },
{ "type": "Feature", "properties": { "観測の種類": "多成分歪計・傾斜計", "name": "室戸(室戸岬)", "観測点名ローマ字": "Muroto(Murotomisaki)", "観測点コード": "MUR", "緯度（度）": 33.2856, "経度（度）": 134.1563, "高さ（ｍ）": "62", "測器の深度（ｍ）": "588", "維持管理機関名": "産業技術総合研究所/地質調査総合センター", "維持管理機関名（英語）": "GSJ", "観測開始年（西暦）": 2008, "同月": "NULL", "観測機器名または観測項目": "多成分歪計・傾斜計" }, "geometry": { "type": "Point", "coordinates": [ 134.1563, 33.2856 ] } },
{ "type": "Feature", "properties": { "観測の種類": "多成分歪計・傾斜計", "name": "綾川千疋", "観測点名ローマ字": "Ayagawa-Sembiki", "観測点コード": "AYS", "緯度（度）": 34.2169, "経度（度）": 134.0047, "高さ（ｍ）": "150", "測器の深度（ｍ）": "326", "維持管理機関名": "産業技術総合研究所/地質調査総合センター", "維持管理機関名（英語）": "GSJ", "観測開始年（西暦）": 2023, "同月": "3", "観測機器名または観測項目": "多成分歪計・傾斜計" }, "geometry": { "type": "Point", "coordinates": [ 134.0047, 34.2169 ] } },
{ "type": "Feature", "properties": { "観測の種類": "多成分歪計・傾斜計", "name": "新居浜黒島", "観測点名ローマ字": "Niihama-Kuroshima", "観測点コード": "NHK", "緯度（度）": 33.9904, "経度（度）": 133.3423, "高さ（ｍ）": "9", "測器の深度（ｍ）": "482", "維持管理機関名": "産業技術総合研究所/地質調査総合センター", "維持管理機関名（英語）": "GSJ", "観測開始年（西暦）": 2012, "同月": "2", "観測機器名または観測項目": "多成分歪計・傾斜計" }, "geometry": { "type": "Point", "coordinates": [ 133.3423, 33.9904 ] } },
{ "type": "Feature", "properties": { "観測の種類": "多成分歪計・傾斜計", "name": "須崎(須崎大谷)", "観測点名ローマ字": "Susaki(Suzasi-Ootani)", "観測点コード": "SSK", "緯度（度）": 33.3896, "経度（度）": 133.3229, "高さ（ｍ）": "17", "測器の深度（ｍ）": "577", "維持管理機関名": "産業技術総合研究所/地質調査総合センター", "維持管理機関名（英語）": "GSJ", "観測開始年（西暦）": 2010, "同月": "1", "観測機器名または観測項目": "多成分歪計・傾斜計" }, "geometry": { "type": "Point", "coordinates": [ 133.3229, 33.3896 ] } },
{ "type": "Feature", "properties": { "観測の種類": "多成分歪計・傾斜計", "name": "土佐清水(土佐清水松尾)", "観測点名ローマ字": "Tosa-shimizu(Tosashimizu-Matsuo)", "観測点コード": "TSS", "緯度（度）": 32.7357, "経度（度）": 132.9757, "高さ（ｍ）": "125", "測器の深度（ｍ）": "588", "維持管理機関名": "産業技術総合研究所/地質調査総合センター", "維持管理機関名（英語）": "GSJ", "観測開始年（西暦）": 2008, "同月": "NULL", "観測機器名または観測項目": "多成分歪計・傾斜計" }, "geometry": { "type": "Point", "coordinates": [ 132.9757, 32.7357 ] } },
{ "type": "Feature", "properties": { "観測の種類": "多成分歪計・傾斜計", "name": "宇和(西予宇和)", "観測点名ローマ字": "Uwa(Seiyo-Uwa)", "観測点コード": "UWA", "緯度（度）": 33.3859, "経度（度）": 132.4823, "高さ（ｍ）": "214", "測器の深度（ｍ）": "591", "維持管理機関名": "産業技術総合研究所/地質調査総合センター", "維持管理機関名（英語）": "GSJ", "観測開始年（西暦）": 2008, "同月": "NULL", "観測機器名または観測項目": "多成分歪計・傾斜計" }, "geometry": { "type": "Point", "coordinates": [ 132.4823, 33.3859 ] } },
{ "type": "Feature", "properties": { "観測の種類": "多成分歪計・傾斜計", "name": "佐伯蒲江", "観測点名ローマ字": "Saiki-Kamae", "観測点コード": "SIK", "緯度（度）": 32.7982, "経度（度）": 131.901, "高さ（ｍ）": "6", "測器の深度（ｍ）": "546", "維持管理機関名": "産業技術総合研究所/地質調査総合センター", "維持管理機関名（英語）": "GSJ", "観測開始年（西暦）": 2024, "同月": "3", "観測機器名または観測項目": "多成分歪計・傾斜計" }, "geometry": { "type": "Point", "coordinates": [ 131.901, 32.7982 ] } }
]
}
