{
"type": "FeatureCollection",
"name": "海底地殻変動",
"crs": { "type": "name", "properties": { "name": "urn:ogc:def:crs:OGC:1.3:CRS84" } },
"features": [
{ "type": "Feature", "properties": { "観測の種類": "海底基準局", "name": "G01", "観測点名ローマ字": "G01", "観測点コード": null, "緯度（度）": 38.697, "経度（度）": 144.954, "高さ（ｍ）": null, "測器の深度（ｍ）": 5490, "維持管理機関名": "東北大学", "維持管理機関名（英語）": "Tohoku_Univ", "観測開始年（西暦）": 2012, "同月": 9, "観測機器名または観測項目": "ミラートランスポンダー" }, "geometry": { "type": "Point", "coordinates": [ 144.954, 38.697 ] } },
{ "type": "Feature", "properties": { "観測の種類": "海底基準局", "name": "G02", "観測点名ローマ字": "G02", "観測点コード": null, "緯度（度）": 40.737, "経度（度）": 144.047, "高さ（ｍ）": null, "測器の深度（ｍ）": 4672, "維持管理機関名": "東北大学", "維持管理機関名（英語）": "Tohoku_Univ", "観測開始年（西暦）": 2012, "同月": 9, "観測機器名または観測項目": "ミラートランスポンダー" }, "geometry": { "type": "Point", "coordinates": [ 144.047, 40.737 ] } },
{ "type": "Feature", "properties": { "観測の種類": "海底基準局", "name": "G03", "観測点名ローマ字": "G03", "観測点コード": null, "緯度（度）": 40.126, "経度（度）": 143.967, "高さ（ｍ）": null, "測器の深度（ｍ）": 4218, "維持管理機関名": "東北大学", "維持管理機関名（英語）": "Tohoku_Univ", "観測開始年（西暦）": 2012, "同月": 9, "観測機器名または観測項目": "ミラートランスポンダー" }, "geometry": { "type": "Point", "coordinates": [ 143.967, 40.126 ] } },
{ "type": "Feature", "properties": { "観測の種類": "海底基準局", "name": "G04", "観測点名ローマ字": "G04", "観測点コード": null, "緯度（度）": 39.566, "経度（度）": 143.897, "高さ（ｍ）": null, "測器の深度（ｍ）": 4586, "維持管理機関名": "東北大学", "維持管理機関名（英語）": "Tohoku_Univ", "観測開始年（西暦）": 2012, "同月": 9, "観測機器名または観測項目": "ミラートランスポンダー" }, "geometry": { "type": "Point", "coordinates": [ 143.897, 39.566 ] } },
{ "type": "Feature", "properties": { "観測の種類": "海底基準局", "name": "G05", "観測点名ローマ字": "G05", "観測点コード": null, "緯度（度）": 39.326, "経度（度）": 143.317, "高さ（ｍ）": null, "測器の深度（ｍ）": 2084, "維持管理機関名": "東北大学", "維持管理機関名（英語）": "Tohoku_Univ", "観測開始年（西暦）": 2012, "同月": 9, "観測機器名または観測項目": "ミラートランスポンダー" }, "geometry": { "type": "Point", "coordinates": [ 143.317, 39.326 ] } },
{ "type": "Feature", "properties": { "観測の種類": "海底基準局", "name": "G06", "観測点名ローマ字": "G06", "観測点コード": null, "緯度（度）": 39.303, "経度（度）": 143.85, "高さ（ｍ）": null, "測器の深度（ｍ）": 4770, "維持管理機関名": "東北大学", "維持管理機関名（英語）": "Tohoku_Univ", "観測開始年（西暦）": 2012, "同月": 9, "観測機器名または観測項目": "ミラートランスポンダー" }, "geometry": { "type": "Point", "coordinates": [ 143.85, 39.303 ] } },
{ "type": "Feature", "properties": { "観測の種類": "海底基準局", "name": "G07", "観測点名ローマ字": "G07", "観測点コード": null, "緯度（度）": 38.943, "経度（度）": 143.94, "高さ（ｍ）": null, "測器の深度（ｍ）": 5550, "維持管理機関名": "東北大学", "維持管理機関名（英語）": "Tohoku_Univ", "観測開始年（西暦）": 2012, "同月": 9, "観測機器名または観測項目": "ミラートランスポンダー" }, "geometry": { "type": "Point", "coordinates": [ 143.94, 38.943 ] } },
{ "type": "Feature", "properties": { "観測の種類": "海底基準局", "name": "G08", "観測点名ローマ字": "G08", "観測点コード": null, "緯度（度）": 38.721, "経度（度）": 143.647, "高さ（ｍ）": null, "測器の深度（ｍ）": 3473, "維持管理機関名": "東北大学", "維持管理機関名（英語）": "Tohoku_Univ", "観測開始年（西暦）": 2012, "同月": 9, "観測機器名または観測項目": "ミラートランスポンダー" }, "geometry": { "type": "Point", "coordinates": [ 143.647, 38.721 ] } },
{ "type": "Feature", "properties": { "観測の種類": "海底基準局", "name": "G09", "観測点名ローマ字": "G09", "観測点コード": null, "緯度（度）": 38.481, "経度（度）": 143.792, "高さ（ｍ）": null, "測器の深度（ｍ）": 5646, "維持管理機関名": "東北大学", "維持管理機関名（英語）": "Tohoku_Univ", "観測開始年（西暦）": 2012, "同月": 9, "観測機器名または観測項目": "ミラートランスポンダー" }, "geometry": { "type": "Point", "coordinates": [ 143.792, 38.481 ] } },
{ "type": "Feature", "properties": { "観測の種類": "海底基準局", "name": "G10", "観測点名ローマ字": "G10", "観測点コード": null, "緯度（度）": 38.302, "経度（度）": 143.483, "高さ（ｍ）": null, "測器の深度（ｍ）": 3270, "維持管理機関名": "東北大学", "維持管理機関名（英語）": "Tohoku_Univ", "観測開始年（西暦）": 2012, "同月": 9, "観測機器名または観測項目": "ミラートランスポンダー" }, "geometry": { "type": "Point", "coordinates": [ 143.483, 38.302 ] } },
{ "type": "Feature", "properties": { "観測の種類": "海底基準局", "name": "G11", "観測点名ローマ字": "G11", "観測点コード": null, "緯度（度）": 38.267, "経度（度）": 143.802, "高さ（ｍ）": null, "測器の深度（ｍ）": 5548, "維持管理機関名": "東北大学", "維持管理機関名（英語）": "Tohoku_Univ", "観測開始年（西暦）": 2012, "同月": 9, "観測機器名または観測項目": "ミラートランスポンダー" }, "geometry": { "type": "Point", "coordinates": [ 143.802, 38.267 ] } },
{ "type": "Feature", "properties": { "観測の種類": "海底基準局", "name": "G12", "観測点名ローマ字": "G12", "観測点コード": null, "緯度（度）": 38.021, "経度（度）": 143.532, "高さ（ｍ）": null, "測器の深度（ｍ）": 4370, "維持管理機関名": "東北大学", "維持管理機関名（英語）": "Tohoku_Univ", "観測開始年（西暦）": 2012, "同月": 9, "観測機器名または観測項目": "ミラートランスポンダー" }, "geometry": { "type": "Point", "coordinates": [ 143.532, 38.021 ] } },
{ "type": "Feature", "properties": { "観測の種類": "海底基準局", "name": "G13", "観測点名ローマ字": "G13", "観測点コード": null, "緯度（度）": 37.933, "経度（度）": 143.199, "高さ（ｍ）": null, "測器の深度（ｍ）": 2480, "維持管理機関名": "東北大学", "維持管理機関名（英語）": "Tohoku_Univ", "観測開始年（西暦）": 2012, "同月": 9, "観測機器名または観測項目": "ミラートランスポンダー" }, "geometry": { "type": "Point", "coordinates": [ 143.199, 37.933 ] } },
{ "type": "Feature", "properties": { "観測の種類": "海底基準局", "name": "G14", "観測点名ローマ字": "G14", "観測点コード": null, "緯度（度）": 37.892, "経度（度）": 142.775, "高さ（ｍ）": null, "測器の深度（ｍ）": 1312, "維持管理機関名": "東北大学", "維持管理機関名（英語）": "Tohoku_Univ", "観測開始年（西暦）": 2012, "同月": 9, "観測機器名または観測項目": "ミラートランスポンダー" }, "geometry": { "type": "Point", "coordinates": [ 142.775, 37.892 ] } },
{ "type": "Feature", "properties": { "観測の種類": "海底基準局", "name": "G15", "観測点名ローマ字": "G15", "観測点コード": null, "緯度（度）": 37.677, "経度（度）": 143.521, "高さ（ｍ）": null, "測器の深度（ｍ）": 5263, "維持管理機関名": "東北大学", "維持管理機関名（英語）": "Tohoku_Univ", "観測開始年（西暦）": 2012, "同月": 9, "観測機器名または観測項目": "ミラートランスポンダー" }, "geometry": { "type": "Point", "coordinates": [ 143.521, 37.677 ] } },
{ "type": "Feature", "properties": { "観測の種類": "海底基準局", "name": "G16", "観測点名ローマ字": "G16", "観測点コード": null, "緯度（度）": 37.334, "経度（度）": 143.048, "高さ（ｍ）": null, "測器の深度（ｍ）": 4406, "維持管理機関名": "東北大学", "維持管理機関名（英語）": "Tohoku_Univ", "観測開始年（西暦）": 2012, "同月": 9, "観測機器名または観測項目": "ミラートランスポンダー" }, "geometry": { "type": "Point", "coordinates": [ 143.048, 37.334 ] } },
{ "type": "Feature", "properties": { "観測の種類": "海底基準局", "name": "G17", "観測点名ローマ字": "G17", "観測点コード": null, "緯度（度）": 36.899, "経度（度）": 142.715, "高さ（ｍ）": null, "測器の深度（ｍ）": 4232, "維持管理機関名": "東北大学", "維持管理機関名（英語）": "Tohoku_Univ", "観測開始年（西暦）": 2012, "同月": 9, "観測機器名または観測項目": "ミラートランスポンダー" }, "geometry": { "type": "Point", "coordinates": [ 142.715, 36.899 ] } },
{ "type": "Feature", "properties": { "観測の種類": "海底基準局", "name": "G18", "観測点名ローマ字": "G18", "観測点コード": null, "緯度（度）": 36.616, "経度（度）": 141.983, "高さ（ｍ）": null, "測器の深度（ｍ）": 2490, "維持管理機関名": "東北大学", "維持管理機関名（英語）": "Tohoku_Univ", "観測開始年（西暦）": 2012, "同月": 9, "観測機器名または観測項目": "ミラートランスポンダー" }, "geometry": { "type": "Point", "coordinates": [ 141.983, 36.616 ] } },
{ "type": "Feature", "properties": { "観測の種類": "海底基準局", "name": "G19", "観測点名ローマ字": "G19", "観測点コード": null, "緯度（度）": 36.496, "経度（度）": 142.671, "高さ（ｍ）": null, "測器の深度（ｍ）": 5724, "維持管理機関名": "東北大学", "維持管理機関名（英語）": "Tohoku_Univ", "観測開始年（西暦）": 2012, "同月": 9, "観測機器名または観測項目": "ミラートランスポンダー" }, "geometry": { "type": "Point", "coordinates": [ 142.671, 36.496 ] } },
{ "type": "Feature", "properties": { "観測の種類": "海底基準局", "name": "G20", "観測点名ローマ字": "G20", "観測点コード": null, "緯度（度）": 36.158, "経度（度）": 142.083, "高さ（ｍ）": null, "測器の深度（ｍ）": 2742, "維持管理機関名": "東北大学", "維持管理機関名（英語）": "Tohoku_Univ", "観測開始年（西暦）": 2012, "同月": 9, "観測機器名または観測項目": "ミラートランスポンダー" }, "geometry": { "type": "Point", "coordinates": [ 142.083, 36.158 ] } },
{ "type": "Feature", "properties": { "観測の種類": "海底基準局", "name": "G21", "観測点名ローマ字": "G21", "観測点コード": null, "緯度（度）": 42.636, "経度（度）": 145.96, "高さ（ｍ）": null, "測器の深度（ｍ）": 2713, "維持管理機関名": "東北大学", "維持管理機関名（英語）": "Tohoku_Univ", "観測開始年（西暦）": 2019, "同月": 7, "観測機器名または観測項目": "ミラートランスポンダー" }, "geometry": { "type": "Point", "coordinates": [ 145.96, 42.636 ] } },
{ "type": "Feature", "properties": { "観測の種類": "海底基準局", "name": "G22", "観測点名ローマ字": "G22", "観測点コード": null, "緯度（度）": 42.089, "経度（度）": 146.126, "高さ（ｍ）": null, "測器の深度（ｍ）": 5702, "維持管理機関名": "東北大学", "維持管理機関名（英語）": "Tohoku_Univ", "観測開始年（西暦）": 2019, "同月": 7, "観測機器名または観測項目": "ミラートランスポンダー" }, "geometry": { "type": "Point", "coordinates": [ 146.126, 42.089 ] } },
{ "type": "Feature", "properties": { "観測の種類": "海底基準局", "name": "G24", "観測点名ローマ字": "G24", "観測点コード": null, "緯度（度）": 39.592, "経度（度）": 143.433, "高さ（ｍ）": null, "測器の深度（ｍ）": 2413, "維持管理機関名": "東北大学", "維持管理機関名（英語）": "Tohoku_Univ", "観測開始年（西暦）": 2019, "同月": 11, "観測機器名または観測項目": "ミラートランスポンダー" }, "geometry": { "type": "Point", "coordinates": [ 143.433, 39.592 ] } },
{ "type": "Feature", "properties": { "観測の種類": "海底基準局", "name": "G25", "観測点名ローマ字": "G25", "観測点コード": null, "緯度（度）": 40.694, "経度（度）": 143.519, "高さ（ｍ）": null, "測器の深度（ｍ）": 2289, "維持管理機関名": "東北大学", "維持管理機関名（英語）": "Tohoku_Univ", "観測開始年（西暦）": 2020, "同月": 12, "観測機器名または観測項目": "ミラートランスポンダー" }, "geometry": { "type": "Point", "coordinates": [ 143.519, 40.694 ] } },
{ "type": "Feature", "properties": { "観測の種類": "海底基準局", "name": "GMTB", "観測点名ローマ字": "GMTB", "観測点コード": null, "緯度（度）": 33.543, "経度（度）": 137.387, "高さ（ｍ）": null, "測器の深度（ｍ）": 3000, "維持管理機関名": "東北大学", "維持管理機関名（英語）": "Tohoku_Univ", "観測開始年（西暦）": 2012, "同月": 12, "観測機器名または観測項目": "ミラートランスポンダー" }, "geometry": { "type": "Point", "coordinates": [ 137.387, 33.543 ] } },
{ "type": "Feature", "properties": { "観測の種類": "海底基準局", "name": "SNW2", "観測点名ローマ字": "SNW2", "観測点コード": null, "緯度（度）": 34.934, "経度（度）": 138.592, "高さ（ｍ）": null, "測器の深度（ｍ）": 781, "維持管理機関名": "名古屋大学", "維持管理機関名（英語）": "Nagoya Univ.", "観測開始年（西暦）": 2012, "同月": 7, "観測機器名または観測項目": "ミラートランスポンダー" }, "geometry": { "type": "Point", "coordinates": [ 138.592, 34.934 ] } },
{ "type": "Feature", "properties": { "観測の種類": "海底基準局", "name": "SNE2", "観測点名ローマ字": "SNE2", "観測点コード": null, "緯度（度）": 34.935, "経度（度）": 138.681, "高さ（ｍ）": null, "測器の深度（ｍ）": 792, "維持管理機関名": "名古屋大学", "維持管理機関名（英語）": "Nagoya Univ.", "観測開始年（西暦）": 2012, "同月": 8, "観測機器名または観測項目": "ミラートランスポンダー" }, "geometry": { "type": "Point", "coordinates": [ 138.681, 34.935 ] } },
{ "type": "Feature", "properties": { "観測の種類": "海底基準局", "name": "SSW", "観測点名ローマ字": "SSW", "観測点コード": null, "緯度（度）": 34.6, "経度（度）": 138.54, "高さ（ｍ）": null, "測器の深度（ｍ）": 1573, "維持管理機関名": "名古屋大学", "維持管理機関名（英語）": "Nagoya Univ.", "観測開始年（西暦）": 2003, "同月": 10, "観測機器名または観測項目": "ミラートランスポンダー" }, "geometry": { "type": "Point", "coordinates": [ 138.54, 34.6 ] } },
{ "type": "Feature", "properties": { "観測の種類": "海底基準局", "name": "SSE", "観測点名ローマ字": "SSE", "観測点コード": null, "緯度（度）": 34.653, "経度（度）": 138.632, "高さ（ｍ）": null, "測器の深度（ｍ）": 901, "維持管理機関名": "名古屋大学", "維持管理機関名（英語）": "Nagoya Univ.", "観測開始年（西暦）": 2004, "同月": 5, "観測機器名または観測項目": "ミラートランスポンダー" }, "geometry": { "type": "Point", "coordinates": [ 138.632, 34.653 ] } },
{ "type": "Feature", "properties": { "観測の種類": "海底基準局", "name": "KMC", "観測点名ローマ字": "KMC", "観測点コード": null, "緯度（度）": 33.642, "経度（度）": 136.558, "高さ（ｍ）": null, "測器の深度（ｍ）": 2018, "維持管理機関名": "名古屋大学", "維持管理機関名（英語）": "Nagoya Univ.", "観測開始年（西暦）": 2012, "同月": 7, "観測機器名または観測項目": "ミラートランスポンダー" }, "geometry": { "type": "Point", "coordinates": [ 136.558, 33.642 ] } },
{ "type": "Feature", "properties": { "観測の種類": "海底基準局", "name": "KMS", "観測点名ローマ字": "KMS", "観測点コード": null, "緯度（度）": 33.577, "経度（度）": 136.612, "高さ（ｍ）": null, "測器の深度（ｍ）": 2033, "維持管理機関名": "名古屋大学", "維持管理機関名（英語）": "Nagoya Univ.", "観測開始年（西暦）": 2003, "同月": 7, "観測機器名または観測項目": "ミラートランスポンダー" }, "geometry": { "type": "Point", "coordinates": [ 136.612, 33.577 ] } },
{ "type": "Feature", "properties": { "観測の種類": "海底基準局", "name": "TCA", "観測点名ローマ字": "TCA", "観測点コード": null, "緯度（度）": 33.219, "経度（度）": 137.0, "高さ（ｍ）": null, "測器の深度（ｍ）": 3455, "維持管理機関名": "名古屋大学", "維持管理機関名（英語）": "Nagoya Univ.", "観測開始年（西暦）": 2013, "同月": 8, "観測機器名または観測項目": "ミラートランスポンダー" }, "geometry": { "type": "Point", "coordinates": [ 137.0, 33.219 ] } },
{ "type": "Feature", "properties": { "観測の種類": "海底基準局", "name": "TOA", "観測点名ローマ字": "TOA", "観測点コード": null, "緯度（度）": 32.829, "経度（度）": 137.174, "高さ（ｍ）": null, "測器の深度（ｍ）": 4138, "維持管理機関名": "名古屋大学", "維持管理機関名（英語）": "Nagoya Univ.", "観測開始年（西暦）": 2013, "同月": 8, "観測機器名または観測項目": "ミラートランスポンダー" }, "geometry": { "type": "Point", "coordinates": [ 137.174, 32.829 ] } },
{ "type": "Feature", "properties": { "観測の種類": "海底基準局", "name": "RKB", "観測点名ローマ字": "RKB", "観測点コード": null, "緯度（度）": 25.9, "経度（度）": 128.258, "高さ（ｍ）": null, "測器の深度（ｍ）": 2250, "維持管理機関名": "琉球大学", "維持管理機関名（英語）": "Ryukyu Univ.", "観測開始年（西暦）": 2011, "同月": 11, "観測機器名または観測項目": "ミラートランスポンダー" }, "geometry": { "type": "Point", "coordinates": [ 128.258, 25.9 ] } },
{ "type": "Feature", "properties": { "観測の種類": "海底基準局", "name": "RKC", "観測点名ローマ字": "RKC", "観測点コード": null, "緯度（度）": 24.93, "経度（度）": 127.48, "高さ（ｍ）": null, "測器の深度（ｍ）": 3826, "維持管理機関名": "名古屋大学", "維持管理機関名（英語）": "Nagoya Univ.", "観測開始年（西暦）": 2016, "同月": 9, "観測機器名または観測項目": "ミラートランスポンダー" }, "geometry": { "type": "Point", "coordinates": [ 127.48, 24.93 ] } },
{ "type": "Feature", "properties": { "観測の種類": "海底基準局", "name": "RKD", "観測点名ローマ字": "RKD", "観測点コード": null, "緯度（度）": 24.46, "経度（度）": 126.99, "高さ（ｍ）": null, "測器の深度（ｍ）": 4073, "維持管理機関名": "名古屋大学", "維持管理機関名（英語）": "Nagoya Univ.", "観測開始年（西暦）": 2016, "同月": 9, "観測機器名または観測項目": "ミラートランスポンダー" }, "geometry": { "type": "Point", "coordinates": [ 126.99, 24.46 ] } },
{ "type": "Feature", "properties": { "観測の種類": "間隙水圧（海底地殻変動）", "name": "C0002", "観測点名ローマ字": "C0002", "観測点コード": "C0002", "緯度（度）": 33.3002, "経度（度）": 136.6358, "高さ（ｍ）": -1938, "測器の深度（ｍ）": -940, "維持管理機関名": "海洋研究開発機構", "維持管理機関名（英語）": "JAMSTEC", "観測開始年（西暦）": 2013, "同月": 1, "観測機器名または観測項目": "水晶水圧計" }, "geometry": { "type": "Point", "coordinates": [ 136.6358, 33.3002 ] } },
{ "type": "Feature", "properties": { "観測の種類": "間隙水圧（海底地殻変動）", "name": "C0010", "観測点名ローマ字": "C0010", "観測点コード": "C0010", "緯度（度）": 33.21, "経度（度）": 136.6865, "高さ（ｍ）": -2523, "測器の深度（ｍ）": -610, "維持管理機関名": "海洋研究開発機構", "維持管理機関名（英語）": "JAMSTEC", "観測開始年（西暦）": 2016, "同月": 6, "観測機器名または観測項目": "水晶水圧計" }, "geometry": { "type": "Point", "coordinates": [ 136.6865, 33.21 ] } },
{ "type": "Feature", "properties": { "観測の種類": "間隙水圧（海底地殻変動）", "name": "C0006", "観測点名ローマ字": "C0006", "観測点コード": "C0006", "緯度（度）": 33.0273, "経度（度）": 136.7941, "高さ（ｍ）": -3874, "測器の深度（ｍ）": -450, "維持管理機関名": "海洋研究開発機構", "維持管理機関名（英語）": "JAMSTEC", "観測開始年（西暦）": 2018, "同月": 3, "観測機器名または観測項目": "水晶水圧計" }, "geometry": { "type": "Point", "coordinates": [ 136.7941, 33.0273 ] } },
{ "type": "Feature", "properties": { "観測の種類": "間隙水圧（海底地殻変動）", "name": "C9038B", "観測点名ローマ字": "C9038B", "観測点コード": "C9038B", "緯度（度）": 32.8685, "経度（度）": 135.3028, "高さ（ｍ）": -2621, "測器の深度（ｍ）": -450, "維持管理機関名": "海洋研究開発機構", "維持管理機関名（英語）": "JAMSTEC", "観測開始年（西暦）": 2024, "同月": 1, "観測機器名または観測項目": "水晶水圧計" }, "geometry": { "type": "Point", "coordinates": [ 135.3028, 32.8685 ] } },
{ "type": "Feature", "properties": { "観測の種類": "体積歪（海底地殻変動）", "name": "C0010", "観測点名ローマ字": "C0010", "観測点コード": "C0010", "緯度（度）": 33.21, "経度（度）": 136.6865, "高さ（ｍ）": -2523, "測器の深度（ｍ）": -575, "維持管理機関名": "海洋研究開発機構", "維持管理機関名（英語）": "JAMSTEC", "観測開始年（西暦）": 2016, "同月": 6, "観測機器名または観測項目": "水晶水圧計" }, "geometry": { "type": "Point", "coordinates": [ 136.6865, 33.21 ] } },
{ "type": "Feature", "properties": { "観測の種類": "体積歪（海底地殻変動）", "name": "C0006", "観測点名ローマ字": "C0006", "観測点コード": "C0006", "緯度（度）": 33.0273, "経度（度）": 136.7941, "高さ（ｍ）": -3874, "測器の深度（ｍ）": -415, "維持管理機関名": "海洋研究開発機構", "維持管理機関名（英語）": "JAMSTEC", "観測開始年（西暦）": 2018, "同月": 3, "観測機器名または観測項目": "水晶水圧計" }, "geometry": { "type": "Point", "coordinates": [ 136.7941, 33.0273 ] } },
{ "type": "Feature", "properties": { "観測の種類": "傾斜（海底地殻変動）", "name": "C0010", "観測点名ローマ字": "C0010", "観測点コード": "C0010", "緯度（度）": 33.21, "経度（度）": 136.6865, "高さ（ｍ）": -2523, "測器の深度（ｍ）": -570, "維持管理機関名": "海洋研究開発機構", "維持管理機関名（英語）": "JAMSTEC", "観測開始年（西暦）": 2016, "同月": 6, "観測機器名または観測項目": "電解液型傾斜計" }, "geometry": { "type": "Point", "coordinates": [ 136.6865, 33.21 ] } },
{ "type": "Feature", "properties": { "観測の種類": "傾斜（海底地殻変動）", "name": "C0006", "観測点名ローマ字": "C0006", "観測点コード": "C0006", "緯度（度）": 33.0273, "経度（度）": 136.7941, "高さ（ｍ）": -3874, "測器の深度（ｍ）": -415, "維持管理機関名": "海洋研究開発機構", "維持管理機関名（英語）": "JAMSTEC", "観測開始年（西暦）": 2018, "同月": 3, "観測機器名または観測項目": "電解液型傾斜計" }, "geometry": { "type": "Point", "coordinates": [ 136.7941, 33.0273 ] } },
{ "type": "Feature", "properties": { "観測の種類": "傾斜（海底地殻変動）", "name": "1B-S1", "観測点名ローマ字": "1B-S1", "観測点コード": "1B-S1", "緯度（度）": 33.3883, "経度（度）": 136.8951, "高さ（ｍ）": -1888, "測器の深度（ｍ）": -6, "維持管理機関名": "海洋研究開発機構", "維持管理機関名（英語）": "JAMSTEC", "観測開始年（西暦）": 2019, "同月": 2, "観測機器名または観測項目": "電解液型傾斜計" }, "geometry": { "type": "Point", "coordinates": [ 136.8951, 33.3883 ] } },
{ "type": "Feature", "properties": { "観測の種類": "傾斜（海底地殻変動）", "name": "1B-S1", "観測点名ローマ字": "1B-S1", "観測点コード": "1B-S1", "緯度（度）": 33.3883, "経度（度）": 136.8951, "高さ（ｍ）": -1888, "測器の深度（ｍ）": -19, "維持管理機関名": "海洋研究開発機構", "維持管理機関名（英語）": "JAMSTEC", "観測開始年（西暦）": 2021, "同月": 2, "観測機器名または観測項目": "重錘型傾斜計" }, "geometry": { "type": "Point", "coordinates": [ 136.8951, 33.3883 ] } },
{ "type": "Feature", "properties": { "観測の種類": "歪（海底地殻変動）", "name": "2F-S2", "観測点名ローマ字": "2F-S2", "観測点コード": "2F-S2", "緯度（度）": 32.897, "経度（度）": 135.1838, "高さ（ｍ）": -2305, "測器の深度（ｍ）": 0, "維持管理機関名": "海洋研究開発機構", "維持管理機関名（英語）": "JAMSTEC", "観測開始年（西暦）": 2019, "同月": 6, "観測機器名または観測項目": "海底光ファイバ歪計" }, "geometry": { "type": "Point", "coordinates": [ 135.1838, 32.897 ] } },
{ "type": "Feature", "properties": { "観測の種類": "歪（海底地殻変動）", "name": "2F-S2", "観測点名ローマ字": "2F-S2", "観測点コード": "2F-S2", "緯度（度）": 32.897, "経度（度）": 135.1838, "高さ（ｍ）": -2305, "測器の深度（ｍ）": 0, "維持管理機関名": "海洋研究開発機構", "維持管理機関名（英語）": "JAMSTEC", "観測開始年（西暦）": 2022, "同月": 11, "観測機器名または観測項目": "海底光ファイバ歪計" }, "geometry": { "type": "Point", "coordinates": [ 135.1838, 32.897 ] } },
{ "type": "Feature", "properties": { "観測の種類": "歪（海底地殻変動）", "name": "2F-S2", "観測点名ローマ字": "2F-S2", "観測点コード": "2F-S2", "緯度（度）": 32.897, "経度（度）": 135.1838, "高さ（ｍ）": -2305, "測器の深度（ｍ）": 0, "維持管理機関名": "海洋研究開発機構", "維持管理機関名（英語）": "JAMSTEC", "観測開始年（西暦）": 2022, "同月": 11, "観測機器名または観測項目": "海底光ファイバ歪計" }, "geometry": { "type": "Point", "coordinates": [ 135.1838, 32.897 ] } },
{ "type": "Feature", "properties": { "観測の種類": "歪（海底地殻変動）", "name": "C9038B", "観測点名ローマ字": "C9038B", "観測点コード": "C9038B", "緯度（度）": 32.8685, "経度（度）": 135.3028, "高さ（ｍ）": -2621, "測器の深度（ｍ）": -430, "維持管理機関名": "海洋研究開発機構", "維持管理機関名（英語）": "JAMSTEC", "観測開始年（西暦）": 2024, "同月": 1, "観測機器名または観測項目": "孔内光ファイバ歪計" }, "geometry": { "type": "Point", "coordinates": [ 135.3028, 32.8685 ] } },
{ "type": "Feature", "properties": { "観測の種類": "海底水圧（海底地殻変動）", "name": "1B-S1", "観測点名ローマ字": "1B-S1", "観測点コード": "1B-S1", "緯度（度）": 33.3883, "経度（度）": 136.8951, "高さ（ｍ）": -1888, "測器の深度（ｍ）": 0, "維持管理機関名": "海洋研究開発機構", "維持管理機関名（英語）": "JAMSTEC", "観測開始年（西暦）": 2024, "同月": 2, "観測機器名または観測項目": "水晶水圧計" }, "geometry": { "type": "Point", "coordinates": [ 136.8951, 33.3883 ] } },
{ "type": "Feature", "properties": { "観測の種類": "海底水圧（海底地殻変動）", "name": "C0002", "観測点名ローマ字": "C0002", "観測点コード": "C0002", "緯度（度）": 33.3002, "経度（度）": 136.6358, "高さ（ｍ）": -1938, "測器の深度（ｍ）": 0, "維持管理機関名": "海洋研究開発機構", "維持管理機関名（英語）": "JAMSTEC", "観測開始年（西暦）": 2013, "同月": 1, "観測機器名または観測項目": "水晶水圧計" }, "geometry": { "type": "Point", "coordinates": [ 136.6358, 33.3002 ] } },
{ "type": "Feature", "properties": { "観測の種類": "海底水圧（海底地殻変動）", "name": "C0010", "観測点名ローマ字": "C0010", "観測点コード": "C0010", "緯度（度）": 33.21, "経度（度）": 136.6865, "高さ（ｍ）": -2523, "測器の深度（ｍ）": 0, "維持管理機関名": "海洋研究開発機構", "維持管理機関名（英語）": "JAMSTEC", "観測開始年（西暦）": 2016, "同月": 6, "観測機器名または観測項目": "水晶水圧計" }, "geometry": { "type": "Point", "coordinates": [ 136.6865, 33.21 ] } },
{ "type": "Feature", "properties": { "観測の種類": "海底水圧（海底地殻変動）", "name": "C0006", "観測点名ローマ字": "C0006", "観測点コード": "C0006", "緯度（度）": 33.0273, "経度（度）": 136.7941, "高さ（ｍ）": -3874, "測器の深度（ｍ）": 0, "維持管理機関名": "海洋研究開発機構", "維持管理機関名（英語）": "JAMSTEC", "観測開始年（西暦）": 2018, "同月": 3, "観測機器名または観測項目": "水晶水圧計" }, "geometry": { "type": "Point", "coordinates": [ 136.7941, 33.0273 ] } },
{ "type": "Feature", "properties": { "観測の種類": "海底水圧（海底地殻変動）", "name": "C9038B", "観測点名ローマ字": "C9038B", "観測点コード": "C9038B", "緯度（度）": 32.8685, "経度（度）": 135.3028, "高さ（ｍ）": -2621, "測器の深度（ｍ）": 0, "維持管理機関名": "海洋研究開発機構", "維持管理機関名（英語）": "JAMSTEC", "観測開始年（西暦）": 2024, "同月": 1, "観測機器名または観測項目": "水晶水圧計" }, "geometry": { "type": "Point", "coordinates": [ 135.3028, 32.8685 ] } },
{ "type": "Feature", "properties": { "観測の種類": "海底基準局", "name": "熊野灘１", "観測点名ローマ字": "kumanonada1", "観測点コード": "KUM1", "緯度（度）": 33.67, "経度（度）": 136.996, "高さ（ｍ）": null, "測器の深度（ｍ）": 2000, "維持管理機関名": "海上保安庁", "維持管理機関名（英語）": "JCG", "観測開始年（西暦）": 2000, "同月": 5, "観測機器名または観測項目": "ミラートランスポンダー" }, "geometry": { "type": "Point", "coordinates": [ 136.996, 33.67 ] } },
{ "type": "Feature", "properties": { "観測の種類": "海底基準局", "name": "釜石沖２", "観測点名ローマ字": "kamaishioki2", "観測点コード": "KAMN", "緯度（度）": 38.888, "経度（度）": 143.362, "高さ（ｍ）": null, "測器の深度（ｍ）": 2300, "維持管理機関名": "海上保安庁", "維持管理機関名（英語）": "JCG", "観測開始年（西暦）": 2000, "同月": 7, "観測機器名または観測項目": "ミラートランスポンダー" }, "geometry": { "type": "Point", "coordinates": [ 143.362, 38.888 ] } },
{ "type": "Feature", "properties": { "観測の種類": "海底基準局", "name": "釜石沖１", "観測点名ローマ字": "kamaishioki1", "観測点コード": "KAMS", "緯度（度）": 38.637, "経度（度）": 143.263, "高さ（ｍ）": null, "測器の深度（ｍ）": 2200, "維持管理機関名": "海上保安庁", "維持管理機関名（英語）": "JCG", "観測開始年（西暦）": 2000, "同月": 6, "観測機器名または観測項目": "ミラートランスポンダー" }, "geometry": { "type": "Point", "coordinates": [ 143.263, 38.637 ] } },
{ "type": "Feature", "properties": { "観測の種類": "海底基準局", "name": "房総沖２", "観測点名ローマ字": "bosooki2", "観測点コード": "BOSN", "緯度（度）": 34.75, "経度（度）": 140.501, "高さ（ｍ）": null, "測器の深度（ｍ）": 1900, "維持管理機関名": "海上保安庁", "維持管理機関名（英語）": "JCG", "観測開始年（西暦）": 2001, "同月": 6, "観測機器名または観測項目": "ミラートランスポンダー" }, "geometry": { "type": "Point", "coordinates": [ 140.501, 34.75 ] } },
{ "type": "Feature", "properties": { "観測の種類": "海底基準局", "name": "銚子沖", "観測点名ローマ字": "choshioki", "観測点コード": "CHOS", "緯度（度）": 35.504, "経度（度）": 141.671, "高さ（ｍ）": null, "測器の深度（ｍ）": 1500, "維持管理機関名": "海上保安庁", "維持管理機関名（英語）": "JCG", "観測開始年（西暦）": 2002, "同月": 5, "観測機器名または観測項目": "ミラートランスポンダー" }, "geometry": { "type": "Point", "coordinates": [ 141.671, 35.504 ] } },
{ "type": "Feature", "properties": { "観測の種類": "海底基準局", "name": "福島沖", "観測点名ローマ字": "fukushimaoki", "観測点コード": "FUKU", "緯度（度）": 37.166, "経度（度）": 142.083, "高さ（ｍ）": null, "測器の深度（ｍ）": 1200, "維持管理機関名": "海上保安庁", "維持管理機関名（英語）": "JCG", "観測開始年（西暦）": 2001, "同月": 8, "観測機器名または観測項目": "ミラートランスポンダー" }, "geometry": { "type": "Point", "coordinates": [ 142.083, 37.166 ] } },
{ "type": "Feature", "properties": { "観測の種類": "海底基準局", "name": "宮城沖１", "観測点名ローマ字": "miyagioki1", "観測点コード": "MYGI", "緯度（度）": 38.083, "経度（度）": 142.916, "高さ（ｍ）": null, "測器の深度（ｍ）": 1700, "維持管理機関名": "海上保安庁", "維持管理機関名（英語）": "JCG", "観測開始年（西暦）": 2001, "同月": 9, "観測機器名または観測項目": "ミラートランスポンダー" }, "geometry": { "type": "Point", "coordinates": [ 142.916, 38.083 ] } },
{ "type": "Feature", "properties": { "観測の種類": "海底基準局", "name": "相模湾", "観測点名ローマ字": "sagamiwan", "観測点コード": "SAGA", "緯度（度）": 34.962, "経度（度）": 139.263, "高さ（ｍ）": null, "測器の深度（ｍ）": 1340, "維持管理機関名": "海上保安庁", "維持管理機関名（英語）": "JCG", "観測開始年（西暦）": 2002, "同月": 8, "観測機器名または観測項目": "ミラートランスポンダー" }, "geometry": { "type": "Point", "coordinates": [ 139.263, 34.962 ] } },
{ "type": "Feature", "properties": { "観測の種類": "海底基準局", "name": "東海沖１", "観測点名ローマ字": "tokaioki1", "観測点コード": "TOK1", "緯度（度）": 34.082, "経度（度）": 138.135, "高さ（ｍ）": null, "測器の深度（ｍ）": 2400, "維持管理機関名": "海上保安庁", "維持管理機関名（英語）": "JCG", "観測開始年（西暦）": 2002, "同月": 8, "観測機器名または観測項目": "ミラートランスポンダー" }, "geometry": { "type": "Point", "coordinates": [ 138.135, 34.082 ] } },
{ "type": "Feature", "properties": { "観測の種類": "海底基準局", "name": "東海沖２", "観測点名ローマ字": "tokaioki2", "観測点コード": "TOK2", "緯度（度）": 33.877, "経度（度）": 137.595, "高さ（ｍ）": null, "測器の深度（ｍ）": 1560, "維持管理機関名": "海上保安庁", "維持管理機関名（英語）": "JCG", "観測開始年（西暦）": 2002, "同月": 8, "観測機器名または観測項目": "ミラートランスポンダー" }, "geometry": { "type": "Point", "coordinates": [ 137.595, 33.877 ] } },
{ "type": "Feature", "properties": { "観測の種類": "海底基準局", "name": "熊野灘３", "観測点名ローマ字": "kumanonada3", "観測点コード": "KUM3", "緯度（度）": 33.334, "経度（度）": 136.336, "高さ（ｍ）": null, "測器の深度（ｍ）": 2000, "維持管理機関名": "海上保安庁", "維持管理機関名（英語）": "JCG", "観測開始年（西暦）": 2003, "同月": 8, "観測機器名または観測項目": "ミラートランスポンダー" }, "geometry": { "type": "Point", "coordinates": [ 136.336, 33.334 ] } },
{ "type": "Feature", "properties": { "観測の種類": "海底基準局", "name": "潮岬沖", "観測点名ローマ字": "shionomisakioki", "観測点コード": "SIOW", "緯度（度）": 33.162, "経度（度）": 135.572, "高さ（ｍ）": null, "測器の深度（ｍ）": 1550, "維持管理機関名": "海上保安庁", "維持管理機関名（英語）": "JCG", "観測開始年（西暦）": 2003, "同月": 8, "観測機器名または観測項目": "ミラートランスポンダー" }, "geometry": { "type": "Point", "coordinates": [ 135.572, 33.162 ] } },
{ "type": "Feature", "properties": { "観測の種類": "海底基準局", "name": "宮城沖２", "観測点名ローマ字": "miyagioki2", "観測点コード": "MYGW", "緯度（度）": 38.15, "経度（度）": 142.433, "高さ（ｍ）": null, "測器の深度（ｍ）": 1100, "維持管理機関名": "海上保安庁", "維持管理機関名（英語）": "JCG", "観測開始年（西暦）": 2004, "同月": 10, "観測機器名または観測項目": "ミラートランスポンダー" }, "geometry": { "type": "Point", "coordinates": [ 142.433, 38.15 ] } },
{ "type": "Feature", "properties": { "観測の種類": "海底基準局", "name": "室戸沖２", "観測点名ローマ字": "murotooki2", "観測点コード": "MRT2", "緯度（度）": 32.871, "経度（度）": 134.814, "高さ（ｍ）": null, "測器の深度（ｍ）": 1400, "維持管理機関名": "海上保安庁", "維持管理機関名（英語）": "JCG", "観測開始年（西暦）": 2004, "同月": 11, "観測機器名または観測項目": "ミラートランスポンダー" }, "geometry": { "type": "Point", "coordinates": [ 134.814, 32.871 ] } },
{ "type": "Feature", "properties": { "観測の種類": "海底基準局", "name": "土佐沖２", "観測点名ローマ字": "tosaoki2", "観測点コード": "TOS2", "緯度（度）": 32.429, "経度（度）": 134.032, "高さ（ｍ）": null, "測器の深度（ｍ）": 1770, "維持管理機関名": "海上保安庁", "維持管理機関名（英語）": "JCG", "観測開始年（西暦）": 2011, "同月": 11, "観測機器名または観測項目": "ミラートランスポンダー" }, "geometry": { "type": "Point", "coordinates": [ 134.032, 32.429 ] } },
{ "type": "Feature", "properties": { "観測の種類": "海底基準局", "name": "東海沖３", "観測点名ローマ字": "tokaioki3", "観測点コード": "TOK3", "緯度（度）": 34.18, "経度（度）": 137.386, "高さ（ｍ）": null, "測器の深度（ｍ）": 1210, "維持管理機関名": "海上保安庁", "維持管理機関名（英語）": "JCG", "観測開始年（西暦）": 2012, "同月": 1, "観測機器名または観測項目": "ミラートランスポンダー" }, "geometry": { "type": "Point", "coordinates": [ 137.386, 34.18 ] } },
{ "type": "Feature", "properties": { "観測の種類": "海底基準局", "name": "熊野灘２", "観測点名ローマ字": "kumanonada2", "観測点コード": "KUM2", "緯度（度）": 33.433, "経度（度）": 136.667, "高さ（ｍ）": null, "測器の深度（ｍ）": 2080, "維持管理機関名": "海上保安庁", "維持管理機関名（英語）": "JCG", "観測開始年（西暦）": 2012, "同月": 1, "観測機器名または観測項目": "ミラートランスポンダー" }, "geometry": { "type": "Point", "coordinates": [ 136.667, 33.433 ] } },
{ "type": "Feature", "properties": { "観測の種類": "海底基準局", "name": "室戸沖１", "観測点名ローマ字": "murotooki1", "観測点コード": "MRT1", "緯度（度）": 33.351, "経度（度）": 134.944, "高さ（ｍ）": null, "測器の深度（ｍ）": 1330, "維持管理機関名": "海上保安庁", "維持管理機関名（英語）": "JCG", "観測開始年（西暦）": 2012, "同月": 1, "観測機器名または観測項目": "ミラートランスポンダー" }, "geometry": { "type": "Point", "coordinates": [ 134.944, 33.351 ] } },
{ "type": "Feature", "properties": { "観測の種類": "海底基準局", "name": "土佐沖１", "観測点名ローマ字": "tosaoki1", "観測点コード": "TOS1", "緯度（度）": 32.817, "経度（度）": 133.667, "高さ（ｍ）": null, "測器の深度（ｍ）": 1030, "維持管理機関名": "海上保安庁", "維持管理機関名（英語）": "JCG", "観測開始年（西暦）": 2012, "同月": 1, "観測機器名または観測項目": "ミラートランスポンダー" }, "geometry": { "type": "Point", "coordinates": [ 133.667, 32.817 ] } },
{ "type": "Feature", "properties": { "観測の種類": "海底基準局", "name": "足摺沖１", "観測点名ローマ字": "ashizurioki1", "観測点コード": "ASZ1", "緯度（度）": 32.368, "経度（度）": 133.219, "高さ（ｍ）": null, "測器の深度（ｍ）": 1110, "維持管理機関名": "海上保安庁", "維持管理機関名（英語）": "JCG", "観測開始年（西暦）": 2012, "同月": 1, "観測機器名または観測項目": "ミラートランスポンダー" }, "geometry": { "type": "Point", "coordinates": [ 133.219, 32.368 ] } },
{ "type": "Feature", "properties": { "観測の種類": "海底基準局", "name": "足摺沖２", "観測点名ローマ字": "ashizurioki2", "観測点コード": "ASZ2", "緯度（度）": 31.931, "経度（度）": 133.577, "高さ（ｍ）": null, "測器の深度（ｍ）": 2910, "維持管理機関名": "海上保安庁", "維持管理機関名（英語）": "JCG", "観測開始年（西暦）": 2012, "同月": 1, "観測機器名または観測項目": "ミラートランスポンダー" }, "geometry": { "type": "Point", "coordinates": [ 133.577, 31.931 ] } },
{ "type": "Feature", "properties": { "観測の種類": "海底基準局", "name": "日向灘１", "観測点名ローマ字": "hyuuganada1", "観測点コード": "HYG1", "緯度（度）": 32.384, "経度（度）": 132.417, "高さ（ｍ）": null, "測器の深度（ｍ）": 1640, "維持管理機関名": "海上保安庁", "維持管理機関名（英語）": "JCG", "観測開始年（西暦）": 2012, "同月": 1, "観測機器名または観測項目": "ミラートランスポンダー" }, "geometry": { "type": "Point", "coordinates": [ 132.417, 32.384 ] } },
{ "type": "Feature", "properties": { "観測の種類": "海底基準局", "name": "日向灘２", "観測点名ローマ字": "hyuuganada2", "観測点コード": "HYG2", "緯度（度）": 31.974, "経度（度）": 132.495, "高さ（ｍ）": null, "測器の深度（ｍ）": 1960, "維持管理機関名": "海上保安庁", "維持管理機関名（英語）": "JCG", "観測開始年（西暦）": 2012, "同月": 1, "観測機器名または観測項目": "ミラートランスポンダー" }, "geometry": { "type": "Point", "coordinates": [ 132.495, 31.974 ] } },
{ "type": "Feature", "properties": { "観測の種類": "海底基準局", "name": "室戸沖３", "観測点名ローマ字": "murotooki3", "観測点コード": "MRT3", "緯度（度）": 32.802, "経度（度）": 135.35, "高さ（ｍ）": null, "測器の深度（ｍ）": 3100, "維持管理機関名": "海上保安庁", "維持管理機関名（英語）": "JCG", "観測開始年（西暦）": 2019, "同月": 8, "観測機器名または観測項目": "ミラートランスポンダー" }, "geometry": { "type": "Point", "coordinates": [ 135.35, 32.802 ] } },
{ "type": "Feature", "properties": { "観測の種類": "海底基準局", "name": "銭洲西", "観測点名ローマ字": "zenisunishi", "観測点コード": "ZENW", "緯度（度）": 33.093, "経度（度）": 137.545, "高さ（ｍ）": null, "測器の深度（ｍ）": 3850, "維持管理機関名": "海上保安庁", "維持管理機関名（英語）": "JCG", "観測開始年（西暦）": 2020, "同月": 2, "観測機器名または観測項目": "ミラートランスポンダー" }, "geometry": { "type": "Point", "coordinates": [ 137.545, 33.093 ] } },
{ "type": "Feature", "properties": { "観測の種類": "海底基準局", "name": "熊野灘４", "観測点名ローマ字": "kumanonada4", "観測点コード": "KUM4", "緯度（度）": 33.075, "経度（度）": 136.636, "高さ（ｍ）": null, "測器の深度（ｍ）": 3150, "維持管理機関名": "海上保安庁", "維持管理機関名（英語）": "JCG", "観測開始年（西暦）": 2020, "同月": 2, "観測機器名または観測項目": "ミラートランスポンダー" }, "geometry": { "type": "Point", "coordinates": [ 136.636, 33.075 ] } },
{ "type": "Feature", "properties": { "観測の種類": "海底基準局", "name": "潮岬沖２", "観測点名ローマ字": "shionomisakioki2", "観測点コード": "SIO2", "緯度（度）": 32.983, "経度（度）": 135.987, "高さ（ｍ）": null, "測器の深度（ｍ）": 3350, "維持管理機関名": "海上保安庁", "維持管理機関名（英語）": "JCG", "観測開始年（西暦）": 2020, "同月": 3, "観測機器名または観測項目": "ミラートランスポンダー" }, "geometry": { "type": "Point", "coordinates": [ 135.987, 32.983 ] } }
]
}
